{"type":"FeatureCollection","features":[{"type":"Feature","properties":{"id":"144-1015","area_km2":0.64,"pop":2556.0,"pop15":2205.0,"pop_10_14":134.0,"eleitores":4087,"eleitor_adulto":1.221},"geometry":{"type":"Polygon","coordinates":[[[-40.49829,-9.38321],[-40.49251,-9.38353],[-40.49142,-9.38537],[-40.49256,-9.39189],[-40.49531,-9.39309],[-40.49741,-9.39182],[-40.49829,-9.38321]]]}},{"type":"Feature","properties":{"id":"144-1023","area_km2":0.86,"pop":7126.0,"pop15":6059.0,"pop_10_14":407.0,"eleitores":5608,"eleitor_adulto":1.38},"geometry":{"type":"Polygon","coordinates":[[[-40.49619,-9.37484],[-40.49416,-9.37485],[-40.48818,-9.37839],[-40.49251,-9.38353],[-40.49829,-9.38321],[-40.5008,-9.38016],[-40.49619,-9.37484]]]}},{"type":"Feature","properties":{"id":"144-1040","area_km2":0.3,"pop":1818.0,"pop15":1555.0,"pop_10_14":98.0,"eleitores":3371,"eleitor_adulto":1.101},"geometry":{"type":"Polygon","coordinates":[[[-40.48672,-9.38584],[-40.48629,-9.38574],[-40.48614,-9.39302],[-40.49256,-9.39189],[-40.48672,-9.38584]]]}},{"type":"Feature","properties":{"id":"144-1058","area_km2":1.21,"pop":4520.0,"pop15":3765.0,"pop_10_14":272.0,"eleitores":3145,"eleitor_adulto":1.014},"geometry":{"type":"Polygon","coordinates":[[[-40.48629,-9.38574],[-40.4799,-9.3794],[-40.47609,-9.37989],[-40.4773,-9.38932],[-40.48416,-9.39428],[-40.48614,-9.39302],[-40.48629,-9.38574]]]}},{"type":"Feature","properties":{"id":"144-1066","area_km2":0.19,"pop":899.0,"pop15":764.0,"pop_10_14":47.0,"eleitores":1694,"eleitor_adulto":1.101},"geometry":{"type":"Polygon","coordinates":[[[-40.49255,-9.39187],[-40.49142,-9.38537],[-40.48672,-9.38584],[-40.49255,-9.39187]]]}},{"type":"Feature","properties":{"id":"144-1090","area_km2":0.69,"pop":2672.0,"pop15":2247.0,"pop_10_14":158.0,"eleitores":3225,"eleitor_adulto":1.253},"geometry":{"type":"Polygon","coordinates":[[[-40.49251,-9.38353],[-40.48818,-9.37839],[-40.48111,-9.3788],[-40.4799,-9.3794],[-40.48629,-9.38574],[-40.49142,-9.38537],[-40.49251,-9.38353]]]}},{"type":"Feature","properties":{"id":"144-1155","area_km2":2.07,"pop":6186.0,"pop15":5244.0,"pop_10_14":357.0,"eleitores":2925,"eleitor_adulto":1.145},"geometry":{"type":"Polygon","coordinates":[[[-40.48614,-9.39302],[-40.48416,-9.39428],[-40.48391,-9.41398],[-40.48845,-9.41178],[-40.49266,-9.40399],[-40.49506,-9.39558],[-40.49531,-9.39309],[-40.49256,-9.39189],[-40.48614,-9.39302]]]}},{"type":"Feature","properties":{"id":"144-1180","area_km2":2.56,"pop":4219.0,"pop15":3346.0,"pop_10_14":270.0,"eleitores":2663,"eleitor_adulto":0.799},"geometry":{"type":"Polygon","coordinates":[[[-40.48595,-9.36976],[-40.48713,-9.36653],[-40.47926,-9.36437],[-40.46306,-9.37245],[-40.46393,-9.37327],[-40.47609,-9.37989],[-40.4799,-9.3794],[-40.48111,-9.3788],[-40.48595,-9.36976]]]}},{"type":"Feature","properties":{"id":"144-1236","area_km2":8.79,"pop":8789.0,"pop15":6647.0,"pop_10_14":616.0,"eleitores":2286,"eleitor_adulto":0.643},"geometry":{"type":"Polygon","coordinates":[[[-40.46017,-9.34149],[-40.44858,-9.36534],[-40.46306,-9.37245],[-40.47926,-9.36437],[-40.48201,-9.35543],[-40.47387,-9.33827],[-40.46017,-9.34149]]]}},{"type":"Feature","properties":{"id":"144-1295","area_km2":0.45,"pop":1581.0,"pop15":1368.0,"pop_10_14":83.0,"eleitores":4705,"eleitor_adulto":1.141},"geometry":{"type":"Polygon","coordinates":[[[-40.49266,-9.40399],[-40.5026,-9.39982],[-40.49506,-9.39558],[-40.49266,-9.40399]]]}},{"type":"Feature","properties":{"id":"144-1317","area_km2":0.33,"pop":577.0,"pop15":488.0,"pop_10_14":36.0,"eleitores":1902,"eleitor_adulto":1.114},"geometry":{"type":"Polygon","coordinates":[[[-40.51197,-9.3792],[-40.50609,-9.38871],[-40.50638,-9.38952],[-40.50804,-9.38911],[-40.51023,-9.38807],[-40.51173,-9.38602],[-40.51273,-9.37939],[-40.51197,-9.3792]]]}},{"type":"Feature","properties":{"id":"144-1325","area_km2":0.58,"pop":2827.0,"pop15":2497.0,"pop_10_14":141.0,"eleitores":1529,"eleitor_adulto":1.536},"geometry":{"type":"Polygon","coordinates":[[[-40.506,-9.39014],[-40.5001,-9.39223],[-40.50486,-9.39965],[-40.50705,-9.40073],[-40.50847,-9.39585],[-40.506,-9.39014]]]}},{"type":"Feature","properties":{"id":"144-1333","area_km2":1.65,"pop":3164.0,"pop15":2729.0,"pop_10_14":156.0,"eleitores":1340,"eleitor_adulto":1.157},"geometry":{"type":"Polygon","coordinates":[[[-40.50486,-9.39965],[-40.5026,-9.39982],[-40.49266,-9.40399],[-40.48845,-9.41178],[-40.4972,-9.40857],[-40.50145,-9.4093],[-40.51029,-9.4073],[-40.50705,-9.40073],[-40.50486,-9.39965]]]}},{"type":"Feature","properties":{"id":"144-1341","area_km2":48.75,"pop":3549.0,"pop15":2594.0,"pop_10_14":373.0,"eleitores":1089,"eleitor_adulto":0.435},"geometry":{"type":"Polygon","coordinates":[[[-40.3783,-9.295],[-40.37919,-9.28842],[-40.37118,-9.24274],[-40.30231,-9.24297],[-40.30221,-9.2517],[-40.30528,-9.25776],[-40.30531,-9.26289],[-40.30779,-9.27132],[-40.30954,-9.27551],[-40.31184,-9.27903],[-40.31425,-9.2824],[-40.31903,-9.28727],[-40.32561,-9.30586],[-40.32945,-9.31236],[-40.37395,-9.29864],[-40.3783,-9.295]]]}},{"type":"Feature","properties":{"id":"144-1350","area_km2":25.13,"pop":515.0,"pop15":397.0,"pop_10_14":38.0,"eleitores":829,"eleitor_adulto":0.753},"geometry":{"type":"Polygon","coordinates":[[[-40.37894,-9.09414],[-40.37655,-9.08919],[-40.28405,-9.11064],[-40.28671,-9.11735],[-40.28927,-9.1304],[-40.29267,-9.14407],[-40.31928,-9.13253],[-40.37894,-9.09414]]]}},{"type":"Feature","properties":{"id":"144-1368","area_km2":8.52,"pop":5951.0,"pop15":3657.0,"pop_10_14":452.0,"eleitores":1968,"eleitor_adulto":0.743},"geometry":{"type":"Polygon","coordinates":[[[-40.46393,-9.37327],[-40.46306,-9.37245],[-40.44858,-9.36534],[-40.43985,-9.36952],[-40.44764,-9.38734],[-40.45273,-9.39723],[-40.45289,-9.4008],[-40.45382,-9.40352],[-40.45608,-9.40642],[-40.46438,-9.41363],[-40.46686,-9.4047],[-40.46393,-9.37327]]]}},{"type":"Feature","properties":{"id":"144-1376","area_km2":45.56,"pop":1339.0,"pop15":961.0,"pop_10_14":106.0,"eleitores":2388,"eleitor_adulto":0.848},"geometry":{"type":"Polygon","coordinates":[[[-40.34077,-9.02414],[-40.34237,-9.01771],[-40.34339,-9.01069],[-40.34371,-9.0036],[-40.34334,-8.99651],[-40.34226,-8.98949],[-40.3405,-8.98261],[-40.33807,-8.97593],[-40.335,-8.96953],[-40.33131,-8.96345],[-40.32703,-8.95776],[-40.32222,-8.95252],[-40.31691,-8.94777],[-40.31116,-8.94356],[-40.30502,-8.93993],[-40.29856,-8.93692],[-40.29183,-8.93455],[-40.2849,-8.93285],[-40.27626,-8.93176],[-40.27952,-8.933],[-40.28145,-8.93307],[-40.28458,-8.93432],[-40.28597,-8.93662],[-40.29003,-8.94039],[-40.29249,-8.94046],[-40.29634,-8.93876],[-40.29742,-8.93891],[-40.29808,-8.94002],[-40.29863,-8.94477],[-40.30025,-8.9463],[-40.30147,-8.94976],[-40.30323,-8.9512],[-40.30499,-8.95438],[-40.3036,-8.95754],[-40.30331,-8.95969],[-40.30243,-8.96051],[-40.30068,-8.96096],[-40.29713,-8.96432],[-40.29634,-8.96657],[-40.29368,-8.97129],[-40.29348,-8.97299],[-40.29389,-8.97549],[-40.29827,-8.98058],[-40.29917,-8.98682],[-40.29717,-8.98887],[-40.29662,-8.99002],[-40.2966,-8.99224],[-40.29742,-8.99473],[-40.29264,-8.99712],[-40.29155,-8.99992],[-40.28781,-9.0011],[-40.28351,-9.00832],[-40.28153,-9.00879],[-40.2748,-9.00463],[-40.27221,-9.00189],[-40.27119,-9.00145],[-40.27109,-9.00056],[-40.27015,-8.9987],[-40.26893,-8.99786],[-40.26706,-8.99562],[-40.26509,-8.99388],[-40.26364,-8.9917],[-40.26021,-8.9905],[-40.25613,-8.99209],[-40.25302,-8.99396],[-40.31664,-9.03364],[-40.34077,-9.02414]]]}},{"type":"Feature","properties":{"id":"144-1384","area_km2":26.35,"pop":5783.0,"pop15":4199.0,"pop_10_14":550.0,"eleitores":2833,"eleitor_adulto":0.451},"geometry":{"type":"Polygon","coordinates":[[[-40.44416,-9.27303],[-40.37919,-9.28842],[-40.3783,-9.295],[-40.40734,-9.31846],[-40.44181,-9.31503],[-40.44957,-9.30438],[-40.44416,-9.27303]]]}},{"type":"Feature","properties":{"id":"144-1392","area_km2":42.08,"pop":4964.0,"pop15":3540.0,"pop_10_14":504.0,"eleitores":1346,"eleitor_adulto":0.753},"geometry":{"type":"Polygon","coordinates":[[[-40.25302,-8.99396],[-40.25108,-8.99513],[-40.24601,-9.00064],[-40.24285,-9.00168],[-40.2383,-9.00885],[-40.23451,-9.01343],[-40.23233,-9.0172],[-40.23098,-9.02311],[-40.2313,-9.02614],[-40.23301,-9.02874],[-40.23283,-9.03092],[-40.23044,-9.03357],[-40.22271,-9.03852],[-40.22106,-9.04284],[-40.21992,-9.04818],[-40.2166,-9.05064],[-40.21453,-9.05271],[-40.21986,-9.05826],[-40.2236,-9.05667],[-40.23157,-9.05472],[-40.23898,-9.05437],[-40.2434,-9.05557],[-40.24786,-9.05774],[-40.25198,-9.06059],[-40.31664,-9.03364],[-40.25302,-8.99396]]]}},{"type":"Feature","properties":{"id":"144-1406","area_km2":0.49,"pop":598.0,"pop15":529.0,"pop_10_14":27.0,"eleitores":3737,"eleitor_adulto":1.141},"geometry":{"type":"Polygon","coordinates":[[[-40.49741,-9.39182],[-40.49531,-9.39309],[-40.49506,-9.39558],[-40.5026,-9.39982],[-40.50486,-9.39965],[-40.5001,-9.39223],[-40.49741,-9.39182]]]}},{"type":"Feature","properties":{"id":"144-1422","area_km2":0.56,"pop":3077.0,"pop15":2620.0,"pop_10_14":162.0,"eleitores":1477,"eleitor_adulto":1.114},"geometry":{"type":"Polygon","coordinates":[[[-40.50279,-9.38017],[-40.50609,-9.38871],[-40.51197,-9.3792],[-40.50596,-9.3786],[-40.50279,-9.38017]]]}},{"type":"Feature","properties":{"id":"144-1430","area_km2":0.89,"pop":3398.0,"pop15":2921.0,"pop_10_14":170.0,"eleitores":2705,"eleitor_adulto":1.159},"geometry":{"type":"Polygon","coordinates":[[[-40.50638,-9.38952],[-40.50279,-9.38017],[-40.5008,-9.38016],[-40.49829,-9.38321],[-40.49741,-9.39182],[-40.5001,-9.39223],[-40.506,-9.39014],[-40.50638,-9.38952]]]}},{"type":"Feature","properties":{"id":"144-1449","area_km2":75.32,"pop":2138.0,"pop15":1598.0,"pop_10_14":188.0,"eleitores":466,"eleitor_adulto":0.673},"geometry":{"type":"Polygon","coordinates":[[[-40.38782,-9.17168],[-40.33426,-9.17441],[-40.28615,-9.17945],[-40.28582,-9.18181],[-40.28617,-9.18561],[-40.29022,-9.19596],[-40.29573,-9.21357],[-40.29785,-9.22415],[-40.30051,-9.23121],[-40.30137,-9.23492],[-40.30231,-9.24297],[-40.37118,-9.24274],[-40.37688,-9.23286],[-40.39205,-9.2],[-40.38782,-9.17168]]]}},{"type":"Feature","properties":{"id":"144-1457","area_km2":79.07,"pop":1972.0,"pop15":1456.0,"pop_10_14":189.0,"eleitores":783,"eleitor_adulto":0.753},"geometry":{"type":"Polygon","coordinates":[[[-40.31664,-9.03364],[-40.25198,-9.06059],[-40.25579,-9.06322],[-40.26421,-9.07096],[-40.26995,-9.07785],[-40.27319,-9.08242],[-40.27667,-9.08911],[-40.27885,-9.09454],[-40.28292,-9.10778],[-40.28405,-9.11064],[-40.37647,-9.08921],[-40.37661,-9.08617],[-40.37623,-9.07908],[-40.37516,-9.07207],[-40.3734,-9.06519],[-40.37097,-9.05851],[-40.36789,-9.05211],[-40.36419,-9.04603],[-40.35992,-9.04034],[-40.3551,-9.0351],[-40.34979,-9.03035],[-40.34404,-9.02615],[-40.3407,-9.02417],[-40.31664,-9.03364]]]}},{"type":"Feature","properties":{"id":"144-1465","area_km2":2.91,"pop":8159.0,"pop15":6262.0,"pop_10_14":643.0,"eleitores":4250,"eleitor_adulto":0.743},"geometry":{"type":"Polygon","coordinates":[[[-40.46393,-9.37327],[-40.46686,-9.4047],[-40.4773,-9.38932],[-40.47609,-9.37989],[-40.46393,-9.37327]]]}},{"type":"Feature","properties":{"id":"144-1481","area_km2":33.82,"pop":6501.0,"pop15":4909.0,"pop_10_14":669.0,"eleitores":1714,"eleitor_adulto":0.339},"geometry":{"type":"Polygon","coordinates":[[[-40.3783,-9.295],[-40.37395,-9.29864],[-40.36169,-9.37879],[-40.3637,-9.37928],[-40.37142,-9.37872],[-40.39128,-9.37217],[-40.40199,-9.36519],[-40.40473,-9.36291],[-40.40984,-9.35568],[-40.41255,-9.35374],[-40.40734,-9.31846],[-40.3783,-9.295]]]}},{"type":"Feature","properties":{"id":"144-1490","area_km2":17.46,"pop":2467.0,"pop15":1858.0,"pop_10_14":217.0,"eleitores":2577,"eleitor_adulto":0.656},"geometry":{"type":"Polygon","coordinates":[[[-40.31928,-9.13253],[-40.29267,-9.14407],[-40.29333,-9.14674],[-40.29401,-9.15207],[-40.29375,-9.15524],[-40.29283,-9.15794],[-40.28947,-9.1652],[-40.28732,-9.17108],[-40.28615,-9.17945],[-40.33426,-9.17441],[-40.31928,-9.13253]]]}},{"type":"Feature","properties":{"id":"144-1503","area_km2":26.97,"pop":3009.0,"pop15":2254.0,"pop_10_14":252.0,"eleitores":2408,"eleitor_adulto":0.497},"geometry":{"type":"Polygon","coordinates":[[[-40.37688,-9.23286],[-40.37118,-9.24274],[-40.37919,-9.28842],[-40.44416,-9.27303],[-40.44728,-9.26814],[-40.37688,-9.23286]]]}},{"type":"Feature","properties":{"id":"144-1511","area_km2":0.9,"pop":3817.0,"pop15":2906.0,"pop_10_14":306.0,"eleitores":2779,"eleitor_adulto":0.586},"geometry":{"type":"Polygon","coordinates":[[[-40.50941,-9.36884],[-40.50572,-9.37046],[-40.50596,-9.3786],[-40.51264,-9.37925],[-40.51562,-9.37339],[-40.50941,-9.36884]]]}},{"type":"Feature","properties":{"id":"144-1520","area_km2":1.01,"pop":5031.0,"pop15":3846.0,"pop_10_14":413.0,"eleitores":3093,"eleitor_adulto":1.077},"geometry":{"type":"Polygon","coordinates":[[[-40.50572,-9.37046],[-40.50181,-9.36795],[-40.49958,-9.36961],[-40.49718,-9.37249],[-40.49619,-9.37484],[-40.5008,-9.38016],[-40.50279,-9.38017],[-40.50596,-9.3786],[-40.50572,-9.37046]]]}},{"type":"Feature","properties":{"id":"144-1546","area_km2":5.28,"pop":4111.0,"pop15":3215.0,"pop_10_14":319.0,"eleitores":818,"eleitor_adulto":0.843},"geometry":{"type":"Polygon","coordinates":[[[-40.4773,-9.38932],[-40.46686,-9.4047],[-40.46438,-9.41363],[-40.46616,-9.41796],[-40.46776,-9.42057],[-40.47073,-9.42121],[-40.47417,-9.42079],[-40.47783,-9.4193],[-40.48181,-9.41628],[-40.48391,-9.41398],[-40.48416,-9.39428],[-40.4773,-9.38932]]]}},{"type":"Feature","properties":{"id":"144-1554","area_km2":52.34,"pop":2700.0,"pop15":1923.0,"pop_10_14":254.0,"eleitores":449,"eleitor_adulto":0.656},"geometry":{"type":"Polygon","coordinates":[[[-40.31928,-9.13253],[-40.33426,-9.17441],[-40.38782,-9.17168],[-40.39733,-9.14516],[-40.39747,-9.14198],[-40.3971,-9.13489],[-40.39602,-9.12788],[-40.39426,-9.121],[-40.39183,-9.11432],[-40.38875,-9.10792],[-40.38505,-9.10184],[-40.38077,-9.09616],[-40.37893,-9.09415],[-40.31928,-9.13253]]]}},{"type":"Feature","properties":{"id":"144-1562","area_km2":22.35,"pop":2514.0,"pop15":1827.0,"pop_10_14":258.0,"eleitores":167,"eleitor_adulto":0.388},"geometry":{"type":"Polygon","coordinates":[[[-40.44181,-9.31503],[-40.40734,-9.31846],[-40.41255,-9.35374],[-40.4142,-9.35295],[-40.41815,-9.35205],[-40.42366,-9.35346],[-40.43079,-9.35669],[-40.43369,-9.35917],[-40.4359,-9.36216],[-40.43985,-9.36952],[-40.44858,-9.36534],[-40.46017,-9.34149],[-40.44181,-9.31503]]]}},{"type":"Feature","properties":{"id":"144-1570","area_km2":25.85,"pop":4347.0,"pop15":3302.0,"pop_10_14":444.0,"eleitores":90,"eleitor_adulto":0.416},"geometry":{"type":"Polygon","coordinates":[[[-40.32945,-9.31236],[-40.33253,-9.31757],[-40.33612,-9.32717],[-40.33712,-9.3314],[-40.33734,-9.33507],[-40.33659,-9.34181],[-40.33429,-9.34712],[-40.33375,-9.35054],[-40.33504,-9.3539],[-40.33887,-9.35989],[-40.34871,-9.36866],[-40.3542,-9.37504],[-40.3564,-9.37699],[-40.35903,-9.37813],[-40.36169,-9.37879],[-40.37395,-9.29864],[-40.32945,-9.31236]]]}},{"type":"Feature","properties":{"id":"144-1589","area_km2":1.54,"pop":8885.0,"pop15":6816.0,"pop_10_14":697.0,"eleitores":138,"eleitor_adulto":0.506},"geometry":{"type":"Polygon","coordinates":[[[-40.5121,-9.35737],[-40.50941,-9.36884],[-40.51562,-9.37339],[-40.51763,-9.3721],[-40.52201,-9.36093],[-40.52165,-9.36009],[-40.5121,-9.35737]]]}},{"type":"Feature","properties":{"id":"145-1040","area_km2":171.36,"pop":548.0,"pop15":427.0,"pop_10_14":48.0,"eleitores":1438,"eleitor_adulto":0.818},"geometry":{"type":"Polygon","coordinates":[[[-40.54164,-8.87686],[-40.53402,-8.88125],[-40.5283,-8.8855],[-40.52303,-8.89029],[-40.51826,-8.89557],[-40.51403,-8.90129],[-40.51039,-8.90739],[-40.50736,-8.91382],[-40.50498,-8.92052],[-40.50328,-8.92741],[-40.50226,-8.93444],[-40.50194,-8.94153],[-40.50232,-8.94862],[-40.50339,-8.95563],[-40.50516,-8.96251],[-40.50759,-8.96919],[-40.51067,-8.97559],[-40.51436,-8.98167],[-40.51864,-8.98735],[-40.52346,-8.99259],[-40.52877,-8.99734],[-40.53402,-9.00117],[-40.62729,-8.99111],[-40.63112,-8.98687],[-40.63535,-8.98115],[-40.63899,-8.97505],[-40.64201,-8.96861],[-40.64439,-8.96192],[-40.64609,-8.95503],[-40.64711,-8.948],[-40.64743,-8.94091],[-40.64705,-8.93382],[-40.64597,-8.92681],[-40.6442,-8.91993],[-40.64177,-8.91325],[-40.63869,-8.90685],[-40.63691,-8.90394],[-40.54164,-8.87686]]]}},{"type":"Feature","properties":{"id":"145-1058","area_km2":68.18,"pop":629.0,"pop15":495.0,"pop_10_14":51.0,"eleitores":637,"eleitor_adulto":1.041},"geometry":{"type":"Polygon","coordinates":[[[-40.3955,-8.79594],[-40.39303,-8.79754],[-40.3927,-8.79835],[-40.39333,-8.80074],[-40.39259,-8.80194],[-40.39165,-8.8029],[-40.38906,-8.80443],[-40.38779,-8.80445],[-40.38639,-8.80636],[-40.38291,-8.80865],[-40.38184,-8.81007],[-40.38131,-8.80992],[-40.38138,-8.80908],[-40.38037,-8.80806],[-40.38009,-8.80707],[-40.37955,-8.80758],[-40.37912,-8.80867],[-40.37805,-8.80954],[-40.37671,-8.8118],[-40.37594,-8.81195],[-40.37432,-8.81048],[-40.37249,-8.81233],[-40.37144,-8.81259],[-40.36997,-8.81211],[-40.3687,-8.81236],[-40.36722,-8.81455],[-40.36646,-8.81493],[-40.36456,-8.81419],[-40.36377,-8.81457],[-40.36377,-8.81587],[-40.36148,-8.81772],[-40.36095,-8.81889],[-40.36103,-8.82007],[-40.36312,-8.8224],[-40.36331,-8.82388],[-40.36189,-8.83217],[-40.36306,-8.83387],[-40.36252,-8.83482],[-40.35924,-8.83606],[-40.35939,-8.83864],[-40.36118,-8.84149],[-40.36151,-8.84411],[-40.36236,-8.84534],[-40.36218,-8.8484],[-40.36326,-8.84943],[-40.36344,-8.85101],[-40.36152,-8.85152],[-40.3621,-8.85347],[-40.3611,-8.85405],[-40.35757,-8.85429],[-40.35641,-8.85544],[-40.35497,-8.8557],[-40.35466,-8.85631],[-40.35536,-8.85727],[-40.35479,-8.85807],[-40.3529,-8.85804],[-40.35206,-8.85893],[-40.35129,-8.86096],[-40.3497,-8.86148],[-40.34863,-8.86256],[-40.34501,-8.86288],[-40.34389,-8.86357],[-40.34266,-8.86327],[-40.33949,-8.86357],[-40.33852,-8.86292],[-40.33555,-8.8624],[-40.33205,-8.86283],[-40.32595,-8.86463],[-40.32395,-8.86334],[-40.32163,-8.86089],[-40.31809,-8.86106],[-40.31682,-8.86164],[-40.31459,-8.86165],[-40.31135,-8.86235],[-40.31,-8.86463],[-40.31481,-8.86987],[-40.32012,-8.87462],[-40.32587,-8.87883],[-40.332,-8.88245],[-40.33847,-8.88547],[-40.3452,-8.88783],[-40.35213,-8.88953],[-40.35919,-8.89055],[-40.36632,-8.89087],[-40.37345,-8.8905],[-40.38051,-8.88943],[-40.38743,-8.88768],[-40.39414,-8.88526],[-40.40058,-8.8822],[-40.40669,-8.87853],[-40.41241,-8.87428],[-40.41768,-8.86949],[-40.42245,-8.86421],[-40.42668,-8.8585],[-40.43033,-8.85239],[-40.43269,-8.84737],[-40.3955,-8.79594]]]}},{"type":"Feature","properties":{"id":"145-1074","area_km2":1.4,"pop":5811.0,"pop15":4400.0,"pop_10_14":445.0,"eleitores":3287,"eleitor_adulto":0.578},"geometry":{"type":"Polygon","coordinates":[[[-40.52923,-9.37315],[-40.52991,-9.37071],[-40.52859,-9.36568],[-40.52201,-9.36093],[-40.51763,-9.3721],[-40.52421,-9.37648],[-40.52923,-9.37315]]]}},{"type":"Feature","properties":{"id":"145-1082","area_km2":128.4,"pop":761.0,"pop15":616.0,"pop_10_14":53.0,"eleitores":658,"eleitor_adulto":0.815},"geometry":{"type":"Polygon","coordinates":[[[-40.50655,-9.15608],[-40.46129,-9.11652],[-40.45515,-9.11624],[-40.44802,-9.11662],[-40.44096,-9.11769],[-40.43404,-9.11944],[-40.42732,-9.12186],[-40.42088,-9.12492],[-40.41477,-9.12859],[-40.40905,-9.13284],[-40.40377,-9.13763],[-40.39899,-9.14291],[-40.39733,-9.14516],[-40.38782,-9.17168],[-40.39205,-9.2],[-40.47861,-9.23616],[-40.4839,-9.23576],[-40.49713,-9.229],[-40.50901,-9.2184],[-40.50655,-9.15608]]]}},{"type":"Feature","properties":{"id":"145-1112","area_km2":0.54,"pop":3713.0,"pop15":2793.0,"pop_10_14":262.0,"eleitores":3227,"eleitor_adulto":0.753},"geometry":{"type":"Polygon","coordinates":[[[-40.53504,-9.36389],[-40.53726,-9.3653],[-40.54307,-9.36587],[-40.54415,-9.36101],[-40.53884,-9.3585],[-40.53621,-9.3614],[-40.53504,-9.36389]]]}},{"type":"Feature","properties":{"id":"145-1210","area_km2":0.68,"pop":5372.0,"pop15":3946.0,"pop_10_14":472.0,"eleitores":1398,"eleitor_adulto":0.772},"geometry":{"type":"Polygon","coordinates":[[[-40.53504,-9.36389],[-40.52859,-9.36568],[-40.52991,-9.37071],[-40.53769,-9.37234],[-40.53726,-9.3653],[-40.53504,-9.36389]]]}},{"type":"Feature","properties":{"id":"145-1309","area_km2":50.46,"pop":3340.0,"pop15":2428.0,"pop_10_14":321.0,"eleitores":2238,"eleitor_adulto":0.823},"geometry":{"type":"Polygon","coordinates":[[[-40.50901,-9.2184],[-40.49713,-9.229],[-40.51965,-9.2806],[-40.53356,-9.31032],[-40.53916,-9.31268],[-40.54897,-9.30764],[-40.56887,-9.27862],[-40.56701,-9.23608],[-40.50901,-9.2184]]]}},{"type":"Feature","properties":{"id":"145-1325","area_km2":31.31,"pop":3670.0,"pop15":2611.0,"pop_10_14":353.0,"eleitores":1831,"eleitor_adulto":0.627},"geometry":{"type":"Polygon","coordinates":[[[-40.56697,-9.13621],[-40.5608,-9.18466],[-40.5917,-9.22376],[-40.60421,-9.21769],[-40.58994,-9.12827],[-40.56697,-9.13621]]]}},{"type":"Feature","properties":{"id":"145-1350","area_km2":152.23,"pop":1144.0,"pop15":912.0,"pop_10_14":93.0,"eleitores":634,"eleitor_adulto":1.402},"geometry":{"type":"Polygon","coordinates":[[[-40.57596,-8.78682],[-40.53174,-8.83109],[-40.53117,-8.83989],[-40.53155,-8.84698],[-40.53262,-8.854],[-40.53439,-8.86087],[-40.53682,-8.86755],[-40.5399,-8.87395],[-40.54167,-8.87687],[-40.63695,-8.90395],[-40.63846,-8.90323],[-40.64456,-8.89955],[-40.65028,-8.8953],[-40.65554,-8.89051],[-40.66031,-8.88523],[-40.66454,-8.87951],[-40.66818,-8.8734],[-40.6712,-8.86697],[-40.67358,-8.86028],[-40.67528,-8.85338],[-40.6763,-8.84636],[-40.67662,-8.83927],[-40.67623,-8.83218],[-40.67515,-8.82516],[-40.67339,-8.81828],[-40.67096,-8.81161],[-40.66788,-8.80521],[-40.66754,-8.80466],[-40.57596,-8.78682]]]}},{"type":"Feature","properties":{"id":"145-1376","area_km2":79.29,"pop":270.0,"pop15":224.0,"pop_10_14":14.0,"eleitores":821,"eleitor_adulto":1.162},"geometry":{"type":"Polygon","coordinates":[[[-40.56966,-8.73038],[-40.6312,-8.68421],[-40.62449,-8.65616],[-40.57926,-8.66726],[-40.49691,-8.65476],[-40.4952,-8.66168],[-40.49418,-8.66871],[-40.49386,-8.6758],[-40.49424,-8.68289],[-40.49591,-8.69223],[-40.56966,-8.73038]]]}},{"type":"Feature","properties":{"id":"145-1473","area_km2":0.67,"pop":3781.0,"pop15":3016.0,"pop_10_14":272.0,"eleitores":2913,"eleitor_adulto":1.071},"geometry":{"type":"Polygon","coordinates":[[[-40.53769,-9.37234],[-40.52991,-9.37071],[-40.52923,-9.37315],[-40.53225,-9.378],[-40.5386,-9.37756],[-40.54037,-9.37436],[-40.53769,-9.37234]]]}},{"type":"Feature","properties":{"id":"145-1503","area_km2":0.69,"pop":1861.0,"pop15":1561.0,"pop_10_14":114.0,"eleitores":3115,"eleitor_adulto":0.851},"geometry":{"type":"Polygon","coordinates":[[[-40.54307,-9.36587],[-40.53726,-9.3653],[-40.53769,-9.37234],[-40.54037,-9.37436],[-40.54619,-9.37229],[-40.54527,-9.36989],[-40.54307,-9.36587]]]}},{"type":"Feature","properties":{"id":"145-1511","area_km2":1.58,"pop":5716.0,"pop15":4142.0,"pop_10_14":508.0,"eleitores":2272,"eleitor_adulto":0.753},"geometry":{"type":"Polygon","coordinates":[[[-40.52788,-9.3513],[-40.53621,-9.3614],[-40.53884,-9.3585],[-40.53557,-9.33729],[-40.52788,-9.3513]]]}},{"type":"Feature","properties":{"id":"145-1520","area_km2":17.96,"pop":1433.0,"pop15":1081.0,"pop_10_14":124.0,"eleitores":1358,"eleitor_adulto":0.648},"geometry":{"type":"Polygon","coordinates":[[[-40.4839,-9.23576],[-40.4846,-9.29598],[-40.51965,-9.2806],[-40.49713,-9.229],[-40.4839,-9.23576]]]}},{"type":"Feature","properties":{"id":"145-1538","area_km2":23.91,"pop":3561.0,"pop15":2570.0,"pop_10_14":326.0,"eleitores":2039,"eleitor_adulto":0.583},"geometry":{"type":"Polygon","coordinates":[[[-40.4839,-9.23576],[-40.47861,-9.23616],[-40.44728,-9.26814],[-40.44416,-9.27303],[-40.44957,-9.30438],[-40.48459,-9.29994],[-40.4839,-9.23576]]]}},{"type":"Feature","properties":{"id":"145-1546","area_km2":16.23,"pop":3103.0,"pop15":2282.0,"pop_10_14":272.0,"eleitores":2378,"eleitor_adulto":0.532},"geometry":{"type":"Polygon","coordinates":[[[-40.53356,-9.31032],[-40.49366,-9.31117],[-40.48496,-9.33179],[-40.50073,-9.34731],[-40.50501,-9.34816],[-40.53839,-9.32225],[-40.53916,-9.31268],[-40.53356,-9.31032]]]}},{"type":"Feature","properties":{"id":"145-1600","area_km2":131.12,"pop":247.0,"pop15":206.0,"pop_10_14":20.0,"eleitores":609,"eleitor_adulto":0.641},"geometry":{"type":"Polygon","coordinates":[[[-40.59314,-9.11191],[-40.59376,-9.12289],[-40.68203,-9.14269],[-40.68509,-9.13761],[-40.68729,-9.13698],[-40.69029,-9.13795],[-40.6947,-9.14055],[-40.70016,-9.14223],[-40.7062,-9.14201],[-40.70784,-9.1415],[-40.70875,-9.1405],[-40.71298,-9.13478],[-40.71662,-9.12867],[-40.71964,-9.12224],[-40.72202,-9.11555],[-40.72372,-9.10865],[-40.72473,-9.10163],[-40.72505,-9.09454],[-40.72467,-9.08745],[-40.72359,-9.08043],[-40.72182,-9.07355],[-40.71938,-9.06688],[-40.7163,-9.06048],[-40.7126,-9.05441],[-40.70832,-9.04873],[-40.7035,-9.04349],[-40.69818,-9.03875],[-40.69243,-9.03455],[-40.68629,-9.03093],[-40.67982,-9.02792],[-40.67308,-9.02556],[-40.66615,-9.02387],[-40.65908,-9.02286],[-40.65351,-9.02261],[-40.59314,-9.11191]]]}},{"type":"Feature","properties":{"id":"145-1651","area_km2":4.84,"pop":7298.0,"pop15":5278.0,"pop_10_14":684.0,"eleitores":4994,"eleitor_adulto":0.891},"geometry":{"type":"Polygon","coordinates":[[[-40.53915,-9.32612],[-40.53557,-9.33729],[-40.53884,-9.3585],[-40.54415,-9.36101],[-40.55353,-9.35481],[-40.55737,-9.35184],[-40.53915,-9.32612]]]}},{"type":"Feature","properties":{"id":"145-1686","area_km2":98.8,"pop":680.0,"pop15":529.0,"pop_10_14":65.0,"eleitores":375,"eleitor_adulto":1.867},"geometry":{"type":"Polygon","coordinates":[[[-40.68842,-8.71963],[-40.69241,-8.71941],[-40.69947,-8.71834],[-40.70638,-8.71658],[-40.71309,-8.71416],[-40.71952,-8.7111],[-40.72562,-8.70742],[-40.73133,-8.70317],[-40.7366,-8.69838],[-40.74136,-8.6931],[-40.74559,-8.68738],[-40.74923,-8.68127],[-40.75225,-8.67484],[-40.75462,-8.66815],[-40.75632,-8.66125],[-40.75733,-8.65423],[-40.75765,-8.64714],[-40.75727,-8.64005],[-40.75619,-8.63303],[-40.75385,-8.62457],[-40.62449,-8.65616],[-40.6312,-8.68421],[-40.68842,-8.71963]]]}},{"type":"Feature","properties":{"id":"145-1694","area_km2":133.62,"pop":703.0,"pop15":578.0,"pop_10_14":51.0,"eleitores":638,"eleitor_adulto":1.515},"geometry":{"type":"Polygon","coordinates":[[[-40.56966,-8.73038],[-40.49588,-8.69221],[-40.48821,-8.69572],[-40.4821,-8.69939],[-40.47639,-8.70364],[-40.47112,-8.70843],[-40.46572,-8.71456],[-40.48343,-8.82019],[-40.48871,-8.82331],[-40.49518,-8.82632],[-40.50191,-8.82868],[-40.50884,-8.83038],[-40.5159,-8.83139],[-40.52303,-8.83171],[-40.53173,-8.8311],[-40.57596,-8.78682],[-40.56966,-8.73038]]]}},{"type":"Feature","properties":{"id":"145-1708","area_km2":120.05,"pop":284.0,"pop15":243.0,"pop_10_14":19.0,"eleitores":368,"eleitor_adulto":1.515},"geometry":{"type":"Polygon","coordinates":[[[-40.46572,-8.71456],[-40.46043,-8.71143],[-40.45397,-8.70842],[-40.44724,-8.70606],[-40.44032,-8.70436],[-40.43325,-8.70334],[-40.42613,-8.70302],[-40.419,-8.7034],[-40.41195,-8.70446],[-40.40503,-8.70621],[-40.39832,-8.70863],[-40.39293,-8.71119],[-40.39356,-8.71176],[-40.39464,-8.71433],[-40.39505,-8.71666],[-40.39698,-8.71867],[-40.39688,-8.71938],[-40.39557,-8.7198],[-40.39634,-8.72347],[-40.39272,-8.72802],[-40.3945,-8.73424],[-40.39503,-8.73818],[-40.39717,-8.73968],[-40.39717,-8.7415],[-40.39835,-8.74286],[-40.39815,-8.74448],[-40.39593,-8.74802],[-40.39604,-8.74944],[-40.39792,-8.75079],[-40.40066,-8.75189],[-40.40189,-8.75432],[-40.39986,-8.75564],[-40.39967,-8.75695],[-40.39891,-8.75811],[-40.40034,-8.76074],[-40.39751,-8.76418],[-40.39327,-8.77356],[-40.3943,-8.77485],[-40.39594,-8.77416],[-40.39775,-8.77681],[-40.39784,-8.77961],[-40.39566,-8.78173],[-40.39132,-8.78308],[-40.39158,-8.78507],[-40.39335,-8.78656],[-40.39414,-8.78888],[-40.39708,-8.79148],[-40.39723,-8.79197],[-40.3955,-8.79594],[-40.4327,-8.84738],[-40.44086,-8.84626],[-40.44778,-8.8445],[-40.45449,-8.84209],[-40.46093,-8.83903],[-40.46704,-8.83535],[-40.47275,-8.8311],[-40.47802,-8.82631],[-40.48343,-8.82018],[-40.46572,-8.71456]]]}},{"type":"Feature","properties":{"id":"145-1724","area_km2":130.97,"pop":618.0,"pop15":471.0,"pop_10_14":58.0,"eleitores":538,"eleitor_adulto":1.422},"geometry":{"type":"Polygon","coordinates":[[[-40.6312,-8.68421],[-40.56966,-8.73038],[-40.57596,-8.78682],[-40.66753,-8.80466],[-40.67347,-8.79936],[-40.67824,-8.79408],[-40.68247,-8.78836],[-40.68611,-8.78226],[-40.68913,-8.77583],[-40.6915,-8.76913],[-40.69321,-8.76224],[-40.69422,-8.75522],[-40.69454,-8.74812],[-40.69416,-8.74104],[-40.69308,-8.73402],[-40.69131,-8.72714],[-40.6885,-8.71967],[-40.6312,-8.68421]]]}},{"type":"Feature","properties":{"id":"145-1791","area_km2":6.61,"pop":8334.0,"pop15":6029.0,"pop_10_14":782.0,"eleitores":4114,"eleitor_adulto":0.468},"geometry":{"type":"Polygon","coordinates":[[[-40.53839,-9.32225],[-40.50501,-9.34816],[-40.51161,-9.35703],[-40.5121,-9.35737],[-40.52165,-9.36009],[-40.52788,-9.3513],[-40.53557,-9.33729],[-40.53915,-9.32612],[-40.53839,-9.32225]]]}},{"type":"Feature","properties":{"id":"145-1864","area_km2":116.06,"pop":507.0,"pop15":388.0,"pop_10_14":50.0,"eleitores":265,"eleitor_adulto":0.73},"geometry":{"type":"Polygon","coordinates":[[[-40.53406,-9.00117],[-40.53023,-9.00541],[-40.526,-9.01113],[-40.52236,-9.01723],[-40.51933,-9.02366],[-40.51681,-9.03094],[-40.59314,-9.11191],[-40.65353,-9.02258],[-40.65069,-9.01668],[-40.64699,-9.0106],[-40.64271,-9.00492],[-40.6379,-8.99968],[-40.63258,-8.99494],[-40.62733,-8.9911],[-40.53406,-9.00117]]]}},{"type":"Feature","properties":{"id":"145-1945","area_km2":0.65,"pop":1359.0,"pop15":1113.0,"pop_10_14":81.0,"eleitores":1052,"eleitor_adulto":1.205},"geometry":{"type":"Polygon","coordinates":[[[-40.48595,-9.36976],[-40.48111,-9.3788],[-40.48818,-9.37839],[-40.49262,-9.37559],[-40.48595,-9.36976]]]}},{"type":"Feature","properties":{"id":"145-1953","area_km2":0.85,"pop":2450.0,"pop15":1848.0,"pop_10_14":177.0,"eleitores":1514,"eleitor_adulto":1.077},"geometry":{"type":"Polygon","coordinates":[[[-40.51562,-9.37339],[-40.51273,-9.37939],[-40.51665,-9.38159],[-40.52397,-9.37993],[-40.52421,-9.37648],[-40.51763,-9.3721],[-40.51562,-9.37339]]]}},{"type":"Feature","properties":{"id":"145-1961","area_km2":0.47,"pop":4022.0,"pop15":3211.0,"pop_10_14":276.0,"eleitores":3428,"eleitor_adulto":1.274},"geometry":{"type":"Polygon","coordinates":[[[-40.49012,-9.36378],[-40.48824,-9.36598],[-40.49416,-9.37485],[-40.49619,-9.37484],[-40.49718,-9.37249],[-40.49012,-9.36378]]]}},{"type":"Feature","properties":{"id":"145-1970","area_km2":0.22,"pop":584.0,"pop15":464.0,"pop_10_14":46.0,"eleitores":2957,"eleitor_adulto":1.274},"geometry":{"type":"Polygon","coordinates":[[[-40.49012,-9.36378],[-40.497,-9.37221],[-40.49432,-9.36523],[-40.49136,-9.36177],[-40.49012,-9.36378]]]}},{"type":"Feature","properties":{"id":"145-1988","area_km2":0.62,"pop":4626.0,"pop15":3609.0,"pop_10_14":336.0,"eleitores":3892,"eleitor_adulto":0.802},"geometry":{"type":"Polygon","coordinates":[[[-40.49958,-9.36961],[-40.50181,-9.36795],[-40.5018,-9.36598],[-40.49449,-9.35882],[-40.49173,-9.36076],[-40.49136,-9.36177],[-40.49432,-9.36523],[-40.49958,-9.36961]]]}},{"type":"Feature","properties":{"id":"145-1996","area_km2":0.36,"pop":2450.0,"pop15":1975.0,"pop_10_14":159.0,"eleitores":2922,"eleitor_adulto":1.205},"geometry":{"type":"Polygon","coordinates":[[[-40.48824,-9.36598],[-40.48713,-9.36653],[-40.48595,-9.36976],[-40.49262,-9.37559],[-40.49416,-9.37485],[-40.48824,-9.36598]]]}},{"type":"Feature","properties":{"id":"145-2003","area_km2":2.15,"pop":16740.0,"pop15":12562.0,"pop_10_14":1362.0,"eleitores":5294,"eleitor_adulto":0.802},"geometry":{"type":"Polygon","coordinates":[[[-40.50073,-9.34731],[-40.49449,-9.35882],[-40.5018,-9.36598],[-40.51161,-9.35703],[-40.50501,-9.34816],[-40.50073,-9.34731]]]}},{"type":"Feature","properties":{"id":"145-2011","area_km2":0.81,"pop":5506.0,"pop15":3995.0,"pop_10_14":493.0,"eleitores":2293,"eleitor_adulto":0.562},"geometry":{"type":"Polygon","coordinates":[[[-40.5018,-9.36598],[-40.50181,-9.36795],[-40.50572,-9.37046],[-40.50941,-9.36884],[-40.5121,-9.35737],[-40.51161,-9.35703],[-40.5018,-9.36598]]]}},{"type":"Feature","properties":{"id":"145-2020","area_km2":0.16,"pop":1260.0,"pop15":983.0,"pop_10_14":103.0,"eleitores":2029,"eleitor_adulto":1.274},"geometry":{"type":"Polygon","coordinates":[[[-40.49432,-9.36523],[-40.497,-9.37221],[-40.49718,-9.37249],[-40.49958,-9.36961],[-40.49432,-9.36523]]]}},{"type":"Feature","properties":{"id":"145-2038","area_km2":5.22,"pop":12443.0,"pop15":9071.0,"pop_10_14":1086.0,"eleitores":5488,"eleitor_adulto":0.615},"geometry":{"type":"Polygon","coordinates":[[[-40.48496,-9.33179],[-40.47387,-9.33827],[-40.48201,-9.35543],[-40.49173,-9.36076],[-40.49449,-9.35882],[-40.50073,-9.34731],[-40.48496,-9.33179]]]}},{"type":"Feature","properties":{"id":"145-2054","area_km2":0.63,"pop":4091.0,"pop15":3284.0,"pop_10_14":242.0,"eleitores":1497,"eleitor_adulto":1.135},"geometry":{"type":"Polygon","coordinates":[[[-40.52397,-9.37993],[-40.51665,-9.38159],[-40.51854,-9.38579],[-40.52766,-9.38753],[-40.52725,-9.38465],[-40.52397,-9.37993]]]}},{"type":"Feature","properties":{"id":"145-2070","area_km2":17.49,"pop":9410.0,"pop15":6457.0,"pop_10_14":1088.0,"eleitores":1263,"eleitor_adulto":0.498},"geometry":{"type":"Polygon","coordinates":[[[-40.48459,-9.29994],[-40.44957,-9.30438],[-40.44181,-9.31503],[-40.46017,-9.34149],[-40.47387,-9.33827],[-40.48496,-9.33179],[-40.49366,-9.31117],[-40.48459,-9.29994]]]}},{"type":"Feature","properties":{"id":"145-2089","area_km2":11.57,"pop":4099.0,"pop15":2914.0,"pop_10_14":402.0,"eleitores":2012,"eleitor_adulto":0.648},"geometry":{"type":"Polygon","coordinates":[[[-40.4846,-9.29598],[-40.48459,-9.29994],[-40.49366,-9.31117],[-40.53356,-9.31032],[-40.51965,-9.2806],[-40.4846,-9.29598]]]}},{"type":"Feature","properties":{"id":"145-2097","area_km2":126.11,"pop":3747.0,"pop15":2699.0,"pop_10_14":347.0,"eleitores":380,"eleitor_adulto":0.694},"geometry":{"type":"Polygon","coordinates":[[[-40.59314,-9.11191],[-40.51682,-9.03096],[-40.51104,-9.03243],[-40.50433,-9.03484],[-40.49789,-9.03791],[-40.49178,-9.04158],[-40.48606,-9.04583],[-40.48079,-9.05062],[-40.47601,-9.0559],[-40.47178,-9.06162],[-40.46814,-9.06772],[-40.46511,-9.07415],[-40.46273,-9.08085],[-40.46102,-9.08774],[-40.46,-9.09477],[-40.45968,-9.10186],[-40.46006,-9.10895],[-40.46127,-9.1165],[-40.50655,-9.15608],[-40.56697,-9.13621],[-40.58994,-9.12827],[-40.59376,-9.12289],[-40.59314,-9.11191]]]}},{"type":"Feature","properties":{"id":"145-2100","area_km2":36.57,"pop":957.0,"pop15":669.0,"pop_10_14":116.0,"eleitores":860,"eleitor_adulto":0.627},"geometry":{"type":"Polygon","coordinates":[[[-40.50655,-9.15608],[-40.50895,-9.21657],[-40.5608,-9.18466],[-40.56697,-9.13621],[-40.50655,-9.15608]]]}},{"type":"Feature","properties":{"id":"145-2135","area_km2":0.99,"pop":3259.0,"pop15":2467.0,"pop_10_14":251.0,"eleitores":60,"eleitor_adulto":0.643},"geometry":{"type":"Polygon","coordinates":[[[-40.49173,-9.36076],[-40.48201,-9.35543],[-40.47926,-9.36437],[-40.48713,-9.36653],[-40.48824,-9.36598],[-40.49012,-9.36378],[-40.49173,-9.36076]]]}},{"type":"Feature","properties":{"id":"145-2143","area_km2":1.37,"pop":5525.0,"pop15":3879.0,"pop_10_14":557.0,"eleitores":2110,"eleitor_adulto":0.753},"geometry":{"type":"Polygon","coordinates":[[[-40.52788,-9.3513],[-40.52165,-9.36009],[-40.52201,-9.36093],[-40.52859,-9.36568],[-40.53504,-9.36389],[-40.53621,-9.3614],[-40.52788,-9.3513]]]}},{"type":"Feature","properties":{"id":"145-2151","area_km2":26.22,"pop":2821.0,"pop15":1950.0,"pop_10_14":284.0,"eleitores":1740,"eleitor_adulto":0.627},"geometry":{"type":"Polygon","coordinates":[[[-40.5608,-9.18466],[-40.50895,-9.21657],[-40.50901,-9.2184],[-40.56701,-9.23608],[-40.5917,-9.22376],[-40.5608,-9.18466]]]}},{"type":"Feature","properties":{"id":"145-2160","area_km2":41.01,"pop":1690.0,"pop15":1187.0,"pop_10_14":169.0,"eleitores":128,"eleitor_adulto":0.582},"geometry":{"type":"Polygon","coordinates":[[[-40.37688,-9.23286],[-40.44728,-9.26814],[-40.47861,-9.23616],[-40.39205,-9.2],[-40.37688,-9.23286]]]}},{"type":"Feature","properties":{"id":"145-2178","area_km2":78.43,"pop":859.0,"pop15":660.0,"pop_10_14":68.0,"eleitores":205,"eleitor_adulto":0.813},"geometry":{"type":"Polygon","coordinates":[[[-40.67706,-9.19331],[-40.67547,-9.19393],[-40.67336,-9.1928],[-40.67064,-9.18871],[-40.66987,-9.18613],[-40.67025,-9.18384],[-40.67196,-9.18052],[-40.67204,-9.17886],[-40.67053,-9.17535],[-40.67209,-9.17239],[-40.6697,-9.165],[-40.66722,-9.16049],[-40.6674,-9.15906],[-40.67232,-9.1565],[-40.67773,-9.15125],[-40.68203,-9.14269],[-40.59376,-9.12289],[-40.58994,-9.12827],[-40.60421,-9.21769],[-40.63409,-9.2268],[-40.67753,-9.19453],[-40.67706,-9.19331]]]}},{"type":"Feature","properties":{"id":"83-1031","area_km2":0.28,"pop":1570.0,"pop15":1366.0,"pop_10_14":75.0,"eleitores":2060,"eleitor_adulto":1.072},"geometry":{"type":"Polygon","coordinates":[[[-40.50638,-9.38952],[-40.506,-9.39014],[-40.50847,-9.39585],[-40.51297,-9.39392],[-40.50804,-9.38911],[-40.50638,-9.38952]]]}},{"type":"Feature","properties":{"id":"83-1058","area_km2":0.44,"pop":2045.0,"pop15":1724.0,"pop_10_14":126.0,"eleitores":2909,"eleitor_adulto":1.269},"geometry":{"type":"Polygon","coordinates":[[[-40.51273,-9.37939],[-40.51173,-9.38602],[-40.51545,-9.38816],[-40.51854,-9.38579],[-40.51665,-9.38159],[-40.51273,-9.37939]]]}},{"type":"Feature","properties":{"id":"83-1341","area_km2":0.21,"pop":774.0,"pop15":656.0,"pop_10_14":32.0,"eleitores":1023,"eleitor_adulto":1.29},"geometry":{"type":"Polygon","coordinates":[[[-40.50804,-9.38911],[-40.51297,-9.39392],[-40.51554,-9.39354],[-40.51513,-9.39244],[-40.51023,-9.38807],[-40.50804,-9.38911]]]}},{"type":"Feature","properties":{"id":"83-1368","area_km2":0.2,"pop":2933.0,"pop15":2484.0,"pop_10_14":167.0,"eleitores":1582,"eleitor_adulto":1.639},"geometry":{"type":"Polygon","coordinates":[[[-40.51545,-9.38816],[-40.51173,-9.38602],[-40.51023,-9.38807],[-40.51513,-9.39244],[-40.51545,-9.38816]]]}},{"type":"Feature","properties":{"id":"83-1384","area_km2":0.36,"pop":777.0,"pop15":650.0,"pop_10_14":43.0,"eleitores":2906,"eleitor_adulto":0.987},"geometry":{"type":"Polygon","coordinates":[[[-40.51854,-9.38579],[-40.51835,-9.38614],[-40.51894,-9.3917],[-40.52793,-9.38801],[-40.52766,-9.38753],[-40.51854,-9.38579]]]}},{"type":"Feature","properties":{"id":"83-1465","area_km2":0.26,"pop":856.0,"pop15":731.0,"pop_10_14":40.0,"eleitores":896,"eleitor_adulto":0.987},"geometry":{"type":"Polygon","coordinates":[[[-40.51894,-9.3917],[-40.51835,-9.38614],[-40.51545,-9.38816],[-40.51513,-9.39244],[-40.51554,-9.39354],[-40.51673,-9.3943],[-40.51894,-9.3917]]]}},{"type":"Feature","properties":{"id":"83-1473","area_km2":3.22,"pop":1706.0,"pop15":1428.0,"pop_10_14":92.0,"eleitores":0,"eleitor_adulto":0.961},"geometry":{"type":"Polygon","coordinates":[[[-40.52793,-9.38801],[-40.51894,-9.3917],[-40.51673,-9.3943],[-40.52489,-9.4135],[-40.52894,-9.41388],[-40.5336,-9.39615],[-40.53013,-9.39018],[-40.52793,-9.38801]]]}},{"type":"Feature","properties":{"id":"83-1490","area_km2":0.58,"pop":2523.0,"pop15":2039.0,"pop_10_14":167.0,"eleitores":2836,"eleitor_adulto":1.01},"geometry":{"type":"Polygon","coordinates":[[[-40.53466,-9.38328],[-40.5326,-9.37808],[-40.53225,-9.378],[-40.52725,-9.38465],[-40.52766,-9.38753],[-40.53013,-9.39018],[-40.53466,-9.38328]]]}},{"type":"Feature","properties":{"id":"83-1503","area_km2":200.74,"pop":1548.0,"pop15":1250.0,"pop_10_14":112.0,"eleitores":1318,"eleitor_adulto":1.963},"geometry":{"type":"Polygon","coordinates":[[[-40.64792,-8.97265],[-40.649,-8.97966],[-40.65077,-8.98654],[-40.6532,-8.99321],[-40.65628,-8.99962],[-40.65998,-9.00569],[-40.66426,-9.01137],[-40.66908,-9.01661],[-40.67439,-9.02135],[-40.68015,-9.02555],[-40.68629,-9.02917],[-40.69276,-9.03218],[-40.69949,-9.03454],[-40.70643,-9.03623],[-40.71349,-9.03724],[-40.72063,-9.03755],[-40.72776,-9.03717],[-40.73481,-9.0361],[-40.74173,-9.03434],[-40.74844,-9.03192],[-40.75488,-9.02885],[-40.76099,-9.02517],[-40.7667,-9.02092],[-40.77197,-9.01613],[-40.77674,-9.01084],[-40.78097,-9.00512],[-40.78461,-8.99902],[-40.78763,-8.99259],[-40.79,-8.98589],[-40.7917,-8.979],[-40.79271,-8.97197],[-40.79303,-8.96488],[-40.79264,-8.95779],[-40.79156,-8.95078],[-40.78979,-8.9439],[-40.78736,-8.93723],[-40.78427,-8.93083],[-40.78057,-8.92476],[-40.77629,-8.91908],[-40.77148,-8.91384],[-40.76616,-8.9091],[-40.76041,-8.9049],[-40.75427,-8.90128],[-40.7478,-8.89827],[-40.74107,-8.89591],[-40.73414,-8.89422],[-40.72708,-8.89321],[-40.71995,-8.8929],[-40.71282,-8.89328],[-40.70576,-8.89435],[-40.69885,-8.89611],[-40.69214,-8.89853],[-40.6857,-8.9016],[-40.67959,-8.90527],[-40.67388,-8.90953],[-40.66861,-8.91432],[-40.66384,-8.9196],[-40.65962,-8.92532],[-40.65598,-8.93142],[-40.65295,-8.93785],[-40.65058,-8.94455],[-40.64887,-8.95144],[-40.64786,-8.95847],[-40.64754,-8.96556],[-40.64792,-8.97265]]]}},{"type":"Feature","properties":{"id":"83-1520","area_km2":14.65,"pop":2596.0,"pop15":1937.0,"pop_10_14":219.0,"eleitores":1265,"eleitor_adulto":0.478},"geometry":{"type":"Polygon","coordinates":[[[-40.54457,-9.42722],[-40.54244,-9.42825],[-40.54371,-9.43254],[-40.54519,-9.4423],[-40.54686,-9.44631],[-40.54837,-9.44899],[-40.55303,-9.45509],[-40.58016,-9.44668],[-40.60143,-9.41805],[-40.54457,-9.42722]]]}},{"type":"Feature","properties":{"id":"83-1538","area_km2":22.32,"pop":1661.0,"pop15":1264.0,"pop_10_14":107.0,"eleitores":743,"eleitor_adulto":0.839},"geometry":{"type":"Polygon","coordinates":[[[-40.59323,-9.33548],[-40.54897,-9.30764],[-40.53916,-9.31268],[-40.53839,-9.32225],[-40.53915,-9.32612],[-40.55737,-9.35184],[-40.58277,-9.36978],[-40.59559,-9.34304],[-40.59323,-9.33548]]]}},{"type":"Feature","properties":{"id":"83-1546","area_km2":26.06,"pop":3622.0,"pop15":2689.0,"pop_10_14":267.0,"eleitores":2020,"eleitor_adulto":0.668},"geometry":{"type":"Polygon","coordinates":[[[-40.65622,-9.28668],[-40.61023,-9.29791],[-40.59323,-9.33548],[-40.59559,-9.34304],[-40.62285,-9.34],[-40.66189,-9.29986],[-40.66414,-9.2932],[-40.65622,-9.28668]]]}},{"type":"Feature","properties":{"id":"83-1554","area_km2":55.39,"pop":4305.0,"pop15":3051.0,"pop_10_14":401.0,"eleitores":2299,"eleitor_adulto":0.68},"geometry":{"type":"Polygon","coordinates":[[[-40.74261,-9.36819],[-40.74509,-9.36661],[-40.74453,-9.36483],[-40.73974,-9.35829],[-40.7381,-9.35524],[-40.73821,-9.3532],[-40.74094,-9.34837],[-40.7414,-9.34678],[-40.74067,-9.34316],[-40.73765,-9.33875],[-40.73729,-9.33687],[-40.73935,-9.33134],[-40.74231,-9.32721],[-40.75041,-9.31945],[-40.74681,-9.31164],[-40.74311,-9.30557],[-40.73882,-9.29989],[-40.73665,-9.29753],[-40.73414,-9.29987],[-40.73043,-9.30148],[-40.72865,-9.30312],[-40.72501,-9.30446],[-40.72325,-9.30567],[-40.72009,-9.3059],[-40.71682,-9.30388],[-40.71407,-9.30038],[-40.70829,-9.29608],[-40.70731,-9.29451],[-40.66414,-9.2932],[-40.66189,-9.29986],[-40.66101,-9.3388],[-40.74261,-9.36819]]]}},{"type":"Feature","properties":{"id":"83-1562","area_km2":37.3,"pop":2753.0,"pop15":1940.0,"pop_10_14":259.0,"eleitores":1670,"eleitor_adulto":0.821},"geometry":{"type":"Polygon","coordinates":[[[-40.65059,-9.38267],[-40.59548,-9.34339],[-40.58277,-9.36978],[-40.58288,-9.37362],[-40.58431,-9.37804],[-40.61246,-9.4125],[-40.63309,-9.41859],[-40.6599,-9.39831],[-40.65848,-9.39251],[-40.65059,-9.38267]]]}},{"type":"Feature","properties":{"id":"83-1570","area_km2":46.6,"pop":1047.0,"pop15":798.0,"pop_10_14":79.0,"eleitores":984,"eleitor_adulto":0.668},"geometry":{"type":"Polygon","coordinates":[[[-40.65622,-9.28668],[-40.66414,-9.2932],[-40.70731,-9.29451],[-40.70706,-9.29294],[-40.70869,-9.28688],[-40.70759,-9.28535],[-40.70604,-9.28504],[-40.70129,-9.28233],[-40.69225,-9.28123],[-40.68723,-9.27833],[-40.68599,-9.27637],[-40.6849,-9.27103],[-40.68327,-9.26726],[-40.68115,-9.26348],[-40.68009,-9.25921],[-40.68048,-9.25769],[-40.6827,-9.25731],[-40.68666,-9.25802],[-40.68924,-9.25699],[-40.69026,-9.25264],[-40.6901,-9.25145],[-40.68743,-9.24668],[-40.68646,-9.24355],[-40.68706,-9.24226],[-40.68946,-9.24113],[-40.69085,-9.2374],[-40.69101,-9.23406],[-40.6945,-9.23346],[-40.69345,-9.23128],[-40.6807,-9.2122],[-40.68156,-9.21085],[-40.68221,-9.20801],[-40.68198,-9.20474],[-40.68056,-9.20031],[-40.67822,-9.1963],[-40.67753,-9.19453],[-40.63409,-9.2268],[-40.65622,-9.28668]]]}},{"type":"Feature","properties":{"id":"83-1589","area_km2":1.18,"pop":5450.0,"pop15":4517.0,"pop_10_14":351.0,"eleitores":4214,"eleitor_adulto":1.154},"geometry":{"type":"Polygon","coordinates":[[[-40.53922,-9.38101],[-40.53466,-9.38328],[-40.53013,-9.39018],[-40.5336,-9.39615],[-40.53567,-9.39494],[-40.53952,-9.39076],[-40.54184,-9.38446],[-40.53922,-9.38101]]]}},{"type":"Feature","properties":{"id":"83-1597","area_km2":4.6,"pop":5063.0,"pop15":4009.0,"pop_10_14":355.0,"eleitores":3531,"eleitor_adulto":0.734},"geometry":{"type":"Polygon","coordinates":[[[-40.54596,-9.39605],[-40.53567,-9.39494],[-40.5336,-9.39615],[-40.52894,-9.41388],[-40.5317,-9.41496],[-40.53822,-9.42058],[-40.54082,-9.42404],[-40.54179,-9.42603],[-40.54244,-9.42825],[-40.5434,-9.42774],[-40.548,-9.39733],[-40.54596,-9.39605]]]}},{"type":"Feature","properties":{"id":"83-1600","area_km2":0.62,"pop":2301.0,"pop15":1781.0,"pop_10_14":171.0,"eleitores":3987,"eleitor_adulto":0.714},"geometry":{"type":"Polygon","coordinates":[[[-40.53952,-9.39076],[-40.53567,-9.39494],[-40.54596,-9.39605],[-40.54886,-9.3911],[-40.54786,-9.39019],[-40.53952,-9.39076]]]}},{"type":"Feature","properties":{"id":"83-1619","area_km2":5.82,"pop":1696.0,"pop15":1317.0,"pop_10_14":130.0,"eleitores":2377,"eleitor_adulto":0.855},"geometry":{"type":"Polygon","coordinates":[[[-40.54527,-9.36989],[-40.54619,-9.37229],[-40.54766,-9.37286],[-40.58288,-9.37362],[-40.58277,-9.36978],[-40.55737,-9.35184],[-40.55353,-9.35481],[-40.54527,-9.36989]]]}},{"type":"Feature","properties":{"id":"83-1627","area_km2":77.13,"pop":0.0,"pop15":0.0,"pop_10_14":0.0,"eleitores":2377,"eleitor_adulto":1.464},"geometry":{"type":"Polygon","coordinates":[[[-40.83081,-8.81562],[-40.77204,-8.76776],[-40.76698,-8.77441],[-40.76334,-8.78052],[-40.76032,-8.78695],[-40.75794,-8.79364],[-40.75624,-8.80053],[-40.75523,-8.80756],[-40.75491,-8.81465],[-40.7553,-8.82174],[-40.75638,-8.82876],[-40.75814,-8.83563],[-40.76058,-8.8423],[-40.76366,-8.84871],[-40.76736,-8.85478],[-40.77164,-8.86046],[-40.77645,-8.86569],[-40.78177,-8.87044],[-40.78752,-8.87464],[-40.79366,-8.87826],[-40.80012,-8.88126],[-40.80686,-8.88362],[-40.81379,-8.88531],[-40.82085,-8.88632],[-40.82798,-8.88663],[-40.83397,-8.88631],[-40.83081,-8.81562]]]}},{"type":"Feature","properties":{"id":"83-1635","area_km2":22.6,"pop":2958.0,"pop15":2060.0,"pop_10_14":283.0,"eleitores":1590,"eleitor_adulto":0.668},"geometry":{"type":"Polygon","coordinates":[[[-40.54897,-9.30764],[-40.59323,-9.33548],[-40.61023,-9.29791],[-40.56887,-9.27862],[-40.54897,-9.30764]]]}},{"type":"Feature","properties":{"id":"83-1643","area_km2":41.4,"pop":3376.0,"pop15":2423.0,"pop_10_14":352.0,"eleitores":1335,"eleitor_adulto":0.53},"geometry":{"type":"Polygon","coordinates":[[[-40.69632,-9.39824],[-40.71363,-9.45049],[-40.71532,-9.44873],[-40.72218,-9.44595],[-40.73053,-9.44469],[-40.74532,-9.44335],[-40.74984,-9.44385],[-40.75504,-9.44648],[-40.75805,-9.44881],[-40.76276,-9.45031],[-40.76746,-9.45265],[-40.77675,-9.45445],[-40.76959,-9.44744],[-40.76729,-9.4457],[-40.76467,-9.4398],[-40.76063,-9.43224],[-40.7596,-9.42908],[-40.76008,-9.42577],[-40.76479,-9.41595],[-40.76498,-9.41322],[-40.76323,-9.41142],[-40.76079,-9.41055],[-40.7567,-9.41035],[-40.7506,-9.40646],[-40.74743,-9.40587],[-40.74523,-9.40462],[-40.74309,-9.40295],[-40.74267,-9.40071],[-40.74411,-9.39645],[-40.74375,-9.39108],[-40.74254,-9.38331],[-40.74352,-9.37941],[-40.74587,-9.37481],[-40.74648,-9.37105],[-40.74509,-9.36661],[-40.69632,-9.39824]]]}},{"type":"Feature","properties":{"id":"83-1651","area_km2":10.22,"pop":5218.0,"pop15":3897.0,"pop_10_14":476.0,"eleitores":644,"eleitor_adulto":0.509},"geometry":{"type":"Polygon","coordinates":[[[-40.65991,-9.4723],[-40.68132,-9.46722],[-40.70137,-9.45765],[-40.70819,-9.45324],[-40.71363,-9.45049],[-40.70563,-9.42647],[-40.65991,-9.4723]]]}},{"type":"Feature","properties":{"id":"83-1660","area_km2":3.34,"pop":3666.0,"pop15":2702.0,"pop_10_14":289.0,"eleitores":2329,"eleitor_adulto":0.839},"geometry":{"type":"Polygon","coordinates":[[[-40.54766,-9.37286],[-40.5451,-9.38341],[-40.54856,-9.3848],[-40.58353,-9.37603],[-40.58288,-9.37362],[-40.54766,-9.37286]]]}},{"type":"Feature","properties":{"id":"83-1686","area_km2":21.84,"pop":1215.0,"pop15":864.0,"pop_10_14":127.0,"eleitores":375,"eleitor_adulto":0.713},"geometry":{"type":"Polygon","coordinates":[[[-40.62285,-9.34],[-40.65059,-9.38267],[-40.65848,-9.39251],[-40.66101,-9.3388],[-40.66189,-9.29986],[-40.62285,-9.34]]]}},{"type":"Feature","properties":{"id":"83-1694","area_km2":4.41,"pop":715.0,"pop15":489.0,"pop_10_14":68.0,"eleitores":488,"eleitor_adulto":0.478},"geometry":{"type":"Polygon","coordinates":[[[-40.55303,-9.45509],[-40.55576,-9.45794],[-40.56519,-9.46401],[-40.57271,-9.46686],[-40.57486,-9.46741],[-40.57663,-9.46765],[-40.58204,-9.46754],[-40.58016,-9.44668],[-40.55303,-9.45509]]]}},{"type":"Feature","properties":{"id":"83-1708","area_km2":0.3,"pop":2451.0,"pop15":2064.0,"pop_10_14":148.0,"eleitores":3680,"eleitor_adulto":0.974},"geometry":{"type":"Polygon","coordinates":[[[-40.5326,-9.37808],[-40.53466,-9.38328],[-40.53922,-9.38101],[-40.5386,-9.37756],[-40.5326,-9.37808]]]}},{"type":"Feature","properties":{"id":"83-1716","area_km2":96.04,"pop":2254.0,"pop15":1716.0,"pop_10_14":190.0,"eleitores":1885,"eleitor_adulto":1.464},"geometry":{"type":"Polygon","coordinates":[[[-40.83397,-8.88634],[-40.84136,-8.88597],[-40.84841,-8.88489],[-40.85532,-8.88313],[-40.86203,-8.88071],[-40.86847,-8.87764],[-40.87457,-8.87396],[-40.88028,-8.86971],[-40.88554,-8.86491],[-40.89031,-8.85963],[-40.89453,-8.85391],[-40.89817,-8.8478],[-40.90119,-8.84137],[-40.90356,-8.83468],[-40.90526,-8.82778],[-40.90627,-8.82076],[-40.90658,-8.81367],[-40.90619,-8.80658],[-40.90511,-8.79956],[-40.90334,-8.79269],[-40.9009,-8.78602],[-40.89782,-8.77962],[-40.89412,-8.77355],[-40.88984,-8.76787],[-40.88503,-8.76263],[-40.87972,-8.7579],[-40.87396,-8.7537],[-40.86783,-8.75008],[-40.86136,-8.74707],[-40.85463,-8.74472],[-40.8492,-8.74339],[-40.83081,-8.81562],[-40.83397,-8.88634]]]}},{"type":"Feature","properties":{"id":"83-1724","area_km2":35.14,"pop":3293.0,"pop15":2379.0,"pop_10_14":311.0,"eleitores":853,"eleitor_adulto":0.478},"geometry":{"type":"Polygon","coordinates":[[[-40.61246,-9.4125],[-40.60143,-9.41805],[-40.58016,-9.44668],[-40.58204,-9.46754],[-40.58378,-9.46721],[-40.58745,-9.46574],[-40.59512,-9.46737],[-40.59962,-9.46961],[-40.60856,-9.47679],[-40.61651,-9.48098],[-40.62068,-9.48253],[-40.62317,-9.4829],[-40.6281,-9.48269],[-40.63586,-9.48102],[-40.63745,-9.48043],[-40.63309,-9.41859],[-40.61246,-9.4125]]]}},{"type":"Feature","properties":{"id":"83-1732","area_km2":61.78,"pop":2071.0,"pop15":1502.0,"pop_10_14":172.0,"eleitores":594,"eleitor_adulto":0.736},"geometry":{"type":"Polygon","coordinates":[[[-40.60421,-9.21769],[-40.56701,-9.23608],[-40.56887,-9.27862],[-40.61023,-9.29791],[-40.65622,-9.28668],[-40.63409,-9.2268],[-40.60421,-9.21769]]]}},{"type":"Feature","properties":{"id":"83-1740","area_km2":2.22,"pop":3173.0,"pop15":2668.0,"pop_10_14":167.0,"eleitores":2677,"eleitor_adulto":0.826},"geometry":{"type":"Polygon","coordinates":[[[-40.51554,-9.39354],[-40.51297,-9.39392],[-40.50847,-9.39585],[-40.50705,-9.40073],[-40.51029,-9.4073],[-40.51073,-9.40718],[-40.51375,-9.40808],[-40.52007,-9.41225],[-40.52489,-9.4135],[-40.51673,-9.3943],[-40.51554,-9.39354]]]}},{"type":"Feature","properties":{"id":"83-1759","area_km2":0.66,"pop":4229.0,"pop15":3353.0,"pop_10_14":313.0,"eleitores":4663,"eleitor_adulto":1.019},"geometry":{"type":"Polygon","coordinates":[[[-40.52421,-9.37648],[-40.52397,-9.37993],[-40.52725,-9.38465],[-40.53225,-9.378],[-40.52923,-9.37315],[-40.52421,-9.37648]]]}},{"type":"Feature","properties":{"id":"83-1775","area_km2":0.58,"pop":3655.0,"pop15":2838.0,"pop_10_14":306.0,"eleitores":3957,"eleitor_adulto":0.74},"geometry":{"type":"Polygon","coordinates":[[[-40.5451,-9.38341],[-40.54184,-9.38446],[-40.53952,-9.39076],[-40.54786,-9.39019],[-40.54856,-9.3848],[-40.5451,-9.38341]]]}},{"type":"Feature","properties":{"id":"83-1783","area_km2":0.51,"pop":3571.0,"pop15":2857.0,"pop_10_14":260.0,"eleitores":1731,"eleitor_adulto":0.714},"geometry":{"type":"Polygon","coordinates":[[[-40.54596,-9.39605],[-40.548,-9.39733],[-40.55971,-9.39451],[-40.54886,-9.3911],[-40.54596,-9.39605]]]}},{"type":"Feature","properties":{"id":"83-1791","area_km2":2.42,"pop":5576.0,"pop15":4202.0,"pop_10_14":495.0,"eleitores":2030,"eleitor_adulto":0.584},"geometry":{"type":"Polygon","coordinates":[[[-40.56043,-9.39455],[-40.55971,-9.39451],[-40.548,-9.39733],[-40.5434,-9.42774],[-40.54457,-9.42722],[-40.56043,-9.39455]]]}},{"type":"Feature","properties":{"id":"83-1848","area_km2":36.88,"pop":3339.0,"pop15":2374.0,"pop_10_14":300.0,"eleitores":1499,"eleitor_adulto":0.68},"geometry":{"type":"Polygon","coordinates":[[[-40.6599,-9.39831],[-40.69632,-9.39824],[-40.74261,-9.36819],[-40.66101,-9.3388],[-40.65848,-9.39251],[-40.6599,-9.39831]]]}},{"type":"Feature","properties":{"id":"83-1856","area_km2":0.87,"pop":3059.0,"pop15":2432.0,"pop_10_14":221.0,"eleitores":1115,"eleitor_adulto":1.073},"geometry":{"type":"Polygon","coordinates":[[[-40.54037,-9.37436],[-40.5386,-9.37756],[-40.53922,-9.38101],[-40.54184,-9.38446],[-40.5451,-9.38341],[-40.54766,-9.37286],[-40.54619,-9.37229],[-40.54037,-9.37436]]]}},{"type":"Feature","properties":{"id":"83-1864","area_km2":21.18,"pop":7524.0,"pop15":5240.0,"pop_10_14":766.0,"eleitores":196,"eleitor_adulto":0.584},"geometry":{"type":"Polygon","coordinates":[[[-40.58431,-9.37804],[-40.56043,-9.39455],[-40.54457,-9.42722],[-40.60143,-9.41805],[-40.61246,-9.4125],[-40.58431,-9.37804]]]}},{"type":"Feature","properties":{"id":"83-1872","area_km2":0.64,"pop":3057.0,"pop15":2399.0,"pop_10_14":199.0,"eleitores":948,"eleitor_adulto":0.855},"geometry":{"type":"Polygon","coordinates":[[[-40.54307,-9.36587],[-40.54527,-9.36989],[-40.55353,-9.35481],[-40.54415,-9.36101],[-40.54307,-9.36587]]]}},{"type":"Feature","properties":{"id":"83-1880","area_km2":3.56,"pop":12582.0,"pop15":9263.0,"pop_10_14":1120.0,"eleitores":2190,"eleitor_adulto":0.665},"geometry":{"type":"Polygon","coordinates":[[[-40.54856,-9.3848],[-40.54786,-9.39019],[-40.54886,-9.3911],[-40.56043,-9.39455],[-40.58431,-9.37804],[-40.58353,-9.37603],[-40.54856,-9.3848]]]}},{"type":"Feature","properties":{"id":"83-1899","area_km2":39.39,"pop":997.0,"pop15":813.0,"pop_10_14":72.0,"eleitores":1203,"eleitor_adulto":1.464},"geometry":{"type":"Polygon","coordinates":[[[-40.83081,-8.81562],[-40.84921,-8.74335],[-40.84272,-8.74177],[-40.83566,-8.74076],[-40.82853,-8.74045],[-40.82141,-8.74083],[-40.81436,-8.74191],[-40.80744,-8.74366],[-40.80074,-8.74609],[-40.7943,-8.74915],[-40.7882,-8.75283],[-40.78249,-8.75709],[-40.77723,-8.76188],[-40.77203,-8.76775],[-40.83081,-8.81562]]]}},{"type":"Feature","properties":{"id":"83-1902","area_km2":7.72,"pop":3362.0,"pop15":2301.0,"pop_10_14":317.0,"eleitores":1435,"eleitor_adulto":0.692},"geometry":{"type":"Polygon","coordinates":[[[-40.65059,-9.38267],[-40.62285,-9.34],[-40.59559,-9.34304],[-40.59548,-9.34339],[-40.65059,-9.38267]]]}},{"type":"Feature","properties":{"id":"83-1910","area_km2":47.35,"pop":0.0,"pop15":0.0,"pop_10_14":0.0,"eleitores":320,"eleitor_adulto":0.509},"geometry":{"type":"Polygon","coordinates":[[[-40.6599,-9.39831],[-40.63309,-9.41859],[-40.63745,-9.48043],[-40.64349,-9.47817],[-40.64596,-9.47704],[-40.64933,-9.47494],[-40.65215,-9.47379],[-40.65991,-9.4723],[-40.70563,-9.42647],[-40.69632,-9.39824],[-40.6599,-9.39831]]]}}]}