{"type":"FeatureCollection","features":[{"type":"Feature","properties":{"NM_BAIRRO":"Alto Do Cocar","v0001":"4420"},"geometry":{"type":"Polygon","coordinates":[[[-40.52944,-9.37282],[-40.52841,-9.37448],[-40.52788,-9.3758],[-40.53481,-9.37872],[-40.53796,-9.37585],[-40.53776,-9.37576],[-40.53758,-9.37493],[-40.52998,-9.36733],[-40.52954,-9.36992],[-40.52944,-9.37282]]]}},{"type":"Feature","properties":{"NM_BAIRRO":"Antônio Cassimiro","v0001":"23266"},"geometry":{"type":"Polygon","coordinates":[[[-40.50341,-9.36972],[-40.51156,-9.37886],[-40.51105,-9.38068],[-40.5141,-9.38199],[-40.51467,-9.38069],[-40.51661,-9.38155],[-40.51934,-9.37778],[-40.52012,-9.37698],[-40.52014,-9.37667],[-40.52089,-9.37591],[-40.5211,-9.37539],[-40.51989,-9.37487],[-40.51989,-9.37474],[-40.52209,-9.37136],[-40.52228,-9.3713],[-40.52262,-9.37036],[-40.52334,-9.36914],[-40.52582,-9.36552],[-40.5263,-9.36466],[-40.52617,-9.36419],[-40.52639,-9.36389],[-40.51691,-9.35457],[-40.51606,-9.35389],[-40.5149,-9.35334],[-40.50872,-9.35131],[-40.50782,-9.35487],[-40.50774,-9.35431],[-40.50369,-9.35994],[-40.50283,-9.36062],[-40.50315,-9.36097],[-40.49894,-9.36447],[-40.50096,-9.36687],[-40.50017,-9.3675],[-40.50128,-9.36862],[-40.50201,-9.36913],[-40.50341,-9.36972]]]}},{"type":"Feature","properties":{"NM_BAIRRO":"Areia Branca","v0001":"7391"},"geometry":{"type":"Polygon","coordinates":[[[-40.493,-9.38761],[-40.49286,-9.38407],[-40.49646,-9.38394],[-40.49627,-9.37897],[-40.49592,-9.37649],[-40.49079,-9.37556],[-40.48945,-9.37503],[-40.48875,-9.37512],[-40.4884,-9.37555],[-40.48866,-9.37832],[-40.48917,-9.38941],[-40.49095,-9.38838],[-40.493,-9.38761]]]}},{"type":"Feature","properties":{"NM_BAIRRO":"Atrás da Banca","v0001":"3417"},"geometry":{"type":"MultiPolygon","coordinates":[[[[-40.50616,-9.40519],[-40.50457,-9.40527],[-40.50407,-9.40547],[-40.5031,-9.40559],[-40.50216,-9.40592],[-40.50132,-9.40643],[-40.50344,-9.40671],[-40.50486,-9.40648],[-40.50529,-9.40623],[-40.50617,-9.40623],[-40.50667,-9.4057],[-40.50656,-9.40543],[-40.50616,-9.40519]]],[[[-40.51167,-9.40201],[-40.51206,-9.39727],[-40.51521,-9.3967],[-40.51423,-9.3939],[-40.51329,-9.39326],[-40.51051,-9.39419],[-40.50978,-9.39474],[-40.50914,-9.39467],[-40.50796,-9.39507],[-40.50722,-9.39558],[-40.50615,-9.39729],[-40.50549,-9.39933],[-40.5038,-9.40113],[-40.50365,-9.40212],[-40.50391,-9.40331],[-40.50447,-9.40333],[-40.50529,-9.40314],[-40.50604,-9.40266],[-40.5076,-9.40273],[-40.51049,-9.40186],[-40.51167,-9.40201]]]]}},{"type":"Feature","properties":{"NM_BAIRRO":"Boa Esperança","v0001":"4152"},"geometry":{"type":"MultiPolygon","coordinates":[[[[-40.45035,-9.36302],[-40.45386,-9.37032],[-40.45794,-9.37541],[-40.4649,-9.36111],[-40.4657,-9.36166],[-40.46744,-9.35868],[-40.46785,-9.35847],[-40.46769,-9.35821],[-40.4742,-9.34773],[-40.46531,-9.33041],[-40.46418,-9.33102],[-40.46497,-9.33247],[-40.46577,-9.33211],[-40.46621,-9.33301],[-40.46123,-9.33554],[-40.46134,-9.33592],[-40.45517,-9.33916],[-40.46364,-9.34361],[-40.45948,-9.34625],[-40.46697,-9.35052],[-40.46481,-9.35209],[-40.45235,-9.3587],[-40.45147,-9.35919],[-40.44993,-9.36039],[-40.44963,-9.36048],[-40.45035,-9.36302]]],[[[-40.43756,-9.34239],[-40.43935,-9.3398],[-40.44108,-9.33759],[-40.43681,-9.33701],[-40.4347,-9.34096],[-40.43449,-9.34164],[-40.43318,-9.3437],[-40.43515,-9.34515],[-40.43756,-9.34239]]]]}},{"type":"Feature","properties":{"NM_BAIRRO":"Caminho Do Sol","v0001":"1945"},"geometry":{"type":"Polygon","coordinates":[[[-40.49863,-9.38509],[-40.50364,-9.38246],[-40.50343,-9.38124],[-40.50493,-9.38099],[-40.50525,-9.38108],[-40.50619,-9.3808],[-40.50727,-9.38],[-40.5078,-9.37924],[-40.50482,-9.37808],[-40.49592,-9.37649],[-40.49863,-9.38509]]]}},{"type":"Feature","properties":{"NM_BAIRRO":"Carneiro","v0001":"557"},"geometry":{"type":"Polygon","coordinates":[[[-40.45794,-9.37541],[-40.45386,-9.37032],[-40.45297,-9.36853],[-40.45072,-9.36959],[-40.45041,-9.36944],[-40.44587,-9.37076],[-40.44629,-9.37171],[-40.44716,-9.37235],[-40.44783,-9.37395],[-40.44855,-9.37726],[-40.4489,-9.38207],[-40.44926,-9.38377],[-40.44946,-9.38452],[-40.44993,-9.38541],[-40.45065,-9.38634],[-40.4505,-9.38653],[-40.45095,-9.38767],[-40.45131,-9.38786],[-40.45221,-9.38724],[-40.45292,-9.38725],[-40.45333,-9.38701],[-40.45459,-9.38613],[-40.45655,-9.38434],[-40.45708,-9.38537],[-40.45767,-9.38498],[-40.45836,-9.38523],[-40.46188,-9.38271],[-40.46413,-9.38058],[-40.46445,-9.38079],[-40.46497,-9.38029],[-40.45794,-9.37541]]]}},{"type":"Feature","properties":{"NM_BAIRRO":"Centro","v0001":"8351"},"geometry":{"type":"MultiPolygon","coordinates":[[[[-40.50311,-9.40394],[-40.50322,-9.40411],[-40.50333,-9.40399],[-40.50311,-9.40394]]],[[[-40.49866,-9.40447],[-40.49995,-9.4044],[-40.50058,-9.4042],[-40.50068,-9.40441],[-40.50081,-9.40435],[-40.50082,-9.40395],[-40.50106,-9.40429],[-40.5015,-9.40393],[-40.50167,-9.40397],[-40.5021,-9.4037],[-40.50227,-9.40378],[-40.50246,-9.40354],[-40.50391,-9.40331],[-40.50365,-9.40212],[-40.50371,-9.40137],[-40.50396,-9.40086],[-40.50549,-9.39933],[-40.5064,-9.39684],[-40.50592,-9.39627],[-40.50655,-9.3954],[-40.50672,-9.39441],[-40.50836,-9.39094],[-40.5088,-9.38916],[-40.50706,-9.38886],[-40.50618,-9.38895],[-40.50415,-9.38922],[-40.50375,-9.38945],[-40.50368,-9.38975],[-40.50242,-9.38996],[-40.50144,-9.38864],[-40.50104,-9.38778],[-40.50047,-9.38735],[-40.49929,-9.38719],[-40.49796,-9.38673],[-40.49054,-9.39229],[-40.49036,-9.39414],[-40.48984,-9.39429],[-40.493,-9.39983],[-40.49296,-9.40006],[-40.49228,-9.40016],[-40.4923,-9.4003],[-40.4939,-9.40311],[-40.49457,-9.40598],[-40.49484,-9.40589],[-40.49482,-9.40557],[-40.49557,-9.40521],[-40.49767,-9.40492],[-40.49866,-9.40447]]]]}},{"type":"Feature","properties":{"NM_BAIRRO":"Cidade Universitária","v0001":"5175"},"geometry":{"type":"Polygon","coordinates":[[[-40.47521,-9.38734],[-40.46521,-9.39404],[-40.4631,-9.39583],[-40.46268,-9.39604],[-40.46298,-9.39627],[-40.46542,-9.39696],[-40.47684,-9.40076],[-40.47822,-9.40081],[-40.48264,-9.39994],[-40.4835,-9.40034],[-40.48586,-9.40099],[-40.4864,-9.39911],[-40.48486,-9.39865],[-40.48404,-9.39808],[-40.48353,-9.39743],[-40.48315,-9.39639],[-40.48315,-9.39542],[-40.48395,-9.39341],[-40.47521,-9.38734]]]}},{"type":"Feature","properties":{"NM_BAIRRO":"Cohab-Massangano","v0001":"9343"},"geometry":{"type":"Polygon","coordinates":[[[-40.53757,-9.38638],[-40.54295,-9.38663],[-40.54272,-9.38554],[-40.54082,-9.38057],[-40.53884,-9.37741],[-40.53853,-9.37639],[-40.53796,-9.37585],[-40.53073,-9.3826],[-40.52919,-9.38439],[-40.52783,-9.38542],[-40.52639,-9.38682],[-40.52591,-9.3876],[-40.5253,-9.39013],[-40.52461,-9.39176],[-40.5267,-9.3927],[-40.52929,-9.39281],[-40.52951,-9.38816],[-40.53038,-9.38809],[-40.53191,-9.38764],[-40.53629,-9.38583],[-40.53757,-9.38638]]]}},{"type":"Feature","properties":{"NM_BAIRRO":"Cohab-São Francisco","v0001":"26692"},"geometry":{"type":"Polygon","coordinates":[[[-40.54198,-9.4014],[-40.53799,-9.41121],[-40.53966,-9.41235],[-40.53878,-9.41364],[-40.53879,-9.41389],[-40.5384,-9.41447],[-40.53843,-9.41468],[-40.53926,-9.41519],[-40.5413,-9.41777],[-40.54342,-9.42131],[-40.54343,-9.42174],[-40.5438,-9.4223],[-40.54601,-9.41995],[-40.54676,-9.41966],[-40.54679,-9.41999],[-40.5473,-9.41987],[-40.54852,-9.41709],[-40.54954,-9.4168],[-40.5504,-9.41689],[-40.55244,-9.41932],[-40.55355,-9.42034],[-40.55577,-9.42209],[-40.557,-9.42266],[-40.55827,-9.42264],[-40.56126,-9.41976],[-40.56195,-9.41954],[-40.5629,-9.41947],[-40.5643,-9.42027],[-40.56727,-9.42133],[-40.56785,-9.42138],[-40.56895,-9.42107],[-40.57065,-9.41991],[-40.57123,-9.41974],[-40.57127,-9.4195],[-40.57289,-9.41836],[-40.57295,-9.41823],[-40.57272,-9.41811],[-40.57281,-9.41785],[-40.57333,-9.41761],[-40.57385,-9.41703],[-40.57408,-9.41697],[-40.57414,-9.41666],[-40.57446,-9.41639],[-40.57495,-9.41651],[-40.57561,-9.41614],[-40.57575,-9.4151],[-40.57635,-9.4144],[-40.57646,-9.41348],[-40.57733,-9.41277],[-40.57856,-9.41223],[-40.58116,-9.41017],[-40.58255,-9.40739],[-40.58371,-9.40425],[-40.58376,-9.40334],[-40.58249,-9.39786],[-40.58233,-9.39622],[-40.5818,-9.3949],[-40.58155,-9.3938],[-40.58097,-9.3926],[-40.56492,-9.39251],[-40.55728,-9.38204],[-40.55631,-9.38234],[-40.55645,-9.38287],[-40.55687,-9.38352],[-40.55695,-9.38451],[-40.55788,-9.38644],[-40.55785,-9.38665],[-40.55999,-9.39096],[-40.55845,-9.39099],[-40.55598,-9.39067],[-40.55148,-9.39229],[-40.5515,-9.39247],[-40.5506,-9.39279],[-40.55047,-9.3924],[-40.5488,-9.39298],[-40.54868,-9.39297],[-40.54771,-9.39012],[-40.54461,-9.39004],[-40.54463,-9.38957],[-40.54419,-9.38955],[-40.54426,-9.39019],[-40.54375,-9.39016],[-40.5437,-9.38996],[-40.54345,-9.38998],[-40.54361,-9.39172],[-40.54342,-9.39455],[-40.54278,-9.39749],[-40.54178,-9.40088],[-40.54177,-9.40121],[-40.54198,-9.4014]]]}},{"type":"Feature","properties":{"NM_BAIRRO":"Cosme e Damião","v0001":"5165"},"geometry":{"type":"Polygon","coordinates":[[[-40.5457,-9.37089],[-40.55283,-9.3706],[-40.55085,-9.35954],[-40.55078,-9.3583],[-40.54846,-9.35724],[-40.54207,-9.36822],[-40.53861,-9.37376],[-40.53771,-9.37537],[-40.53776,-9.37576],[-40.53796,-9.37585],[-40.53814,-9.37575],[-40.54217,-9.37191],[-40.54384,-9.37114],[-40.5457,-9.37089]]]}},{"type":"Feature","properties":{"NM_BAIRRO":"Distrito Industrial","v0001":"2708"},"geometry":{"type":"Polygon","coordinates":[[[-40.51896,-9.39571],[-40.5169,-9.39638],[-40.51206,-9.39727],[-40.51167,-9.40201],[-40.51313,-9.4024],[-40.51464,-9.40242],[-40.51634,-9.40219],[-40.51719,-9.40239],[-40.51734,-9.40255],[-40.51732,-9.40276],[-40.51783,-9.40261],[-40.51817,-9.40283],[-40.51802,-9.40303],[-40.51809,-9.40331],[-40.51831,-9.40344],[-40.51892,-9.40344],[-40.51902,-9.4032],[-40.5206,-9.40365],[-40.52052,-9.4035],[-40.52026,-9.40344],[-40.52025,-9.40326],[-40.52004,-9.40315],[-40.52013,-9.40312],[-40.521,-9.40352],[-40.52136,-9.40372],[-40.52154,-9.40407],[-40.52189,-9.4041],[-40.52181,-9.40428],[-40.52205,-9.40461],[-40.52443,-9.40548],[-40.52541,-9.40635],[-40.52583,-9.40644],[-40.52585,-9.40679],[-40.52629,-9.40708],[-40.52918,-9.40814],[-40.52963,-9.40842],[-40.52986,-9.40877],[-40.53076,-9.40914],[-40.53115,-9.40951],[-40.53146,-9.40956],[-40.53151,-9.40981],[-40.53262,-9.41091],[-40.53315,-9.41228],[-40.53386,-9.41289],[-40.53426,-9.41286],[-40.53446,-9.41315],[-40.53468,-9.41321],[-40.53495,-9.41316],[-40.53531,-9.41276],[-40.5358,-9.41299],[-40.53641,-9.41306],[-40.53733,-9.41376],[-40.53783,-9.41444],[-40.5384,-9.41447],[-40.53879,-9.41389],[-40.53897,-9.41329],[-40.53966,-9.41235],[-40.53799,-9.41121],[-40.54194,-9.40167],[-40.54198,-9.4014],[-40.54177,-9.40121],[-40.54178,-9.40088],[-40.54278,-9.39749],[-40.54342,-9.39455],[-40.54361,-9.39172],[-40.54295,-9.38663],[-40.53757,-9.38638],[-40.53629,-9.38583],[-40.53191,-9.38764],[-40.53038,-9.38809],[-40.52951,-9.38816],[-40.52929,-9.39281],[-40.5267,-9.3927],[-40.52461,-9.39176],[-40.52394,-9.39253],[-40.52169,-9.39419],[-40.51896,-9.39571]]]}},{"type":"Feature","properties":{"NM_BAIRRO":"Dom Avelar","v0001":"28157"},"geometry":{"type":"Polygon","coordinates":[[[-40.47352,-9.34642],[-40.48539,-9.36931],[-40.48824,-9.36775],[-40.48913,-9.36941],[-40.49737,-9.36262],[-40.49894,-9.36447],[-40.50315,-9.36097],[-40.50283,-9.36062],[-40.50369,-9.35994],[-40.50774,-9.35431],[-40.50782,-9.35487],[-40.50872,-9.35131],[-40.49495,-9.34681],[-40.48889,-9.34536],[-40.48511,-9.34484],[-40.48241,-9.34464],[-40.4788,-9.34467],[-40.47712,-9.34494],[-40.47573,-9.34538],[-40.47352,-9.34642]]]}},{"type":"Feature","properties":{"NM_BAIRRO":"Dom Malan","v0001":"1630"},"geometry":{"type":"Polygon","coordinates":[[[-40.49863,-9.38509],[-40.49626,-9.37758],[-40.49602,-9.37706],[-40.49627,-9.37897],[-40.49646,-9.38394],[-40.49286,-9.38407],[-40.493,-9.38761],[-40.49662,-9.38617],[-40.49863,-9.38509]]]}},{"type":"Feature","properties":{"NM_BAIRRO":"Gercino Coelho","v0001":"5882"},"geometry":{"type":"Polygon","coordinates":[[[-40.51051,-9.39419],[-40.51899,-9.39136],[-40.51848,-9.38967],[-40.51738,-9.38748],[-40.51697,-9.38711],[-40.51003,-9.38515],[-40.50836,-9.39094],[-40.50672,-9.39441],[-40.50655,-9.3954],[-40.50592,-9.39627],[-40.5064,-9.39684],[-40.50722,-9.39558],[-40.50777,-9.39516],[-40.50914,-9.39467],[-40.50978,-9.39474],[-40.51051,-9.39419]]]}},{"type":"Feature","properties":{"NM_BAIRRO":"Jardim Amazonas","v0001":"3913"},"geometry":{"type":"Polygon","coordinates":[[[-40.53112,-9.38227],[-40.53481,-9.37872],[-40.52788,-9.3758],[-40.52506,-9.38245],[-40.5243,-9.38458],[-40.52392,-9.38635],[-40.52479,-9.38714],[-40.52487,-9.38789],[-40.52538,-9.38724],[-40.52564,-9.38718],[-40.52598,-9.38748],[-40.52667,-9.38652],[-40.52813,-9.38516],[-40.52919,-9.38439],[-40.53112,-9.38227]]]}},{"type":"Feature","properties":{"NM_BAIRRO":"Jardim Maravilha","v0001":"3721"},"geometry":{"type":"Polygon","coordinates":[[[-40.52433,-9.38662],[-40.51105,-9.38068],[-40.50992,-9.38498],[-40.51003,-9.38515],[-40.5171,-9.3872],[-40.51738,-9.38748],[-40.51848,-9.38967],[-40.51899,-9.39136],[-40.52145,-9.39054],[-40.52282,-9.38993],[-40.52402,-9.38902],[-40.52487,-9.38789],[-40.52479,-9.38714],[-40.52433,-9.38662]]]}},{"type":"Feature","properties":{"NM_BAIRRO":"Jardim São Paulo","v0001":"6557"},"geometry":{"type":"Polygon","coordinates":[[[-40.53671,-9.3643],[-40.53476,-9.36431],[-40.53501,-9.36511],[-40.53486,-9.36548],[-40.5333,-9.36601],[-40.5314,-9.36709],[-40.53016,-9.36721],[-40.53,-9.36709],[-40.52998,-9.36733],[-40.53717,-9.3745],[-40.53768,-9.37504],[-40.53771,-9.37537],[-40.54382,-9.36517],[-40.54045,-9.36268],[-40.5409,-9.3613],[-40.54144,-9.36093],[-40.54025,-9.36061],[-40.53859,-9.36116],[-40.53707,-9.36281],[-40.53677,-9.36355],[-40.53671,-9.3643]]]}},{"type":"Feature","properties":{"NM_BAIRRO":"Jatobá","v0001":"9731"},"geometry":{"type":"MultiPolygon","coordinates":[[[[-40.45831,-9.39607],[-40.45788,-9.39522],[-40.45758,-9.39529],[-40.45726,-9.39502],[-40.4574,-9.39443],[-40.45675,-9.39345],[-40.45483,-9.39164],[-40.45368,-9.391],[-40.45156,-9.38905],[-40.45148,-9.38922],[-40.45161,-9.38959],[-40.45244,-9.39137],[-40.45266,-9.3926],[-40.45307,-9.39335],[-40.45378,-9.39422],[-40.45492,-9.3951],[-40.45635,-9.39539],[-40.45713,-9.39586],[-40.45759,-9.3959],[-40.45777,-9.39612],[-40.45831,-9.39607]]],[[[-40.46521,-9.39404],[-40.47521,-9.38734],[-40.46497,-9.38029],[-40.46445,-9.38079],[-40.46413,-9.38058],[-40.46188,-9.38271],[-40.45836,-9.38523],[-40.45767,-9.38498],[-40.45708,-9.38537],[-40.45655,-9.38434],[-40.45459,-9.38613],[-40.45333,-9.38701],[-40.45292,-9.38725],[-40.45221,-9.38724],[-40.45131,-9.38786],[-40.45166,-9.38827],[-40.45181,-9.38877],[-40.45261,-9.38954],[-40.45292,-9.38964],[-40.45295,-9.38986],[-40.45383,-9.3903],[-40.45391,-9.39056],[-40.45449,-9.39094],[-40.45474,-9.39083],[-40.45483,-9.39111],[-40.45535,-9.39163],[-40.45576,-9.3918],[-40.45587,-9.39205],[-40.45731,-9.39326],[-40.45814,-9.39434],[-40.45867,-9.3958],[-40.45937,-9.39655],[-40.45996,-9.3979],[-40.46279,-9.39631],[-40.46285,-9.39622],[-40.46268,-9.39604],[-40.4631,-9.39583],[-40.46521,-9.39404]]]]}},{"type":"Feature","properties":{"NM_BAIRRO":"José e Maria","v0001":"18223"},"geometry":{"type":"Polygon","coordinates":[[[-40.49737,-9.36262],[-40.48913,-9.36941],[-40.48824,-9.36775],[-40.48539,-9.36931],[-40.48715,-9.37275],[-40.4887,-9.37434],[-40.4899,-9.37508],[-40.48945,-9.37503],[-40.49079,-9.37556],[-40.50482,-9.37808],[-40.50588,-9.3784],[-40.51105,-9.38068],[-40.51156,-9.37886],[-40.50723,-9.37382],[-40.50369,-9.36995],[-40.50201,-9.36913],[-40.50128,-9.36862],[-40.50017,-9.3675],[-40.50096,-9.36687],[-40.49737,-9.36262]]]}},{"type":"Feature","properties":{"NM_BAIRRO":"João de Deus","v0001":"25276"},"geometry":{"type":"Polygon","coordinates":[[[-40.53714,-9.36273],[-40.53859,-9.36116],[-40.54025,-9.36061],[-40.54144,-9.36093],[-40.5409,-9.3613],[-40.54045,-9.36268],[-40.54382,-9.36517],[-40.55224,-9.35078],[-40.55086,-9.35038],[-40.5507,-9.35004],[-40.5465,-9.34821],[-40.54543,-9.35002],[-40.54372,-9.35087],[-40.54344,-9.35088],[-40.54201,-9.35008],[-40.54183,-9.35038],[-40.53675,-9.34766],[-40.53715,-9.34676],[-40.5362,-9.34615],[-40.53558,-9.34554],[-40.53523,-9.34552],[-40.53473,-9.34662],[-40.53401,-9.34632],[-40.53402,-9.34551],[-40.53295,-9.34502],[-40.53209,-9.34423],[-40.53122,-9.34388],[-40.52475,-9.34036],[-40.5245,-9.34027],[-40.52189,-9.34043],[-40.52203,-9.34087],[-40.52134,-9.34186],[-40.51774,-9.35539],[-40.52998,-9.36733],[-40.53,-9.36709],[-40.53016,-9.36721],[-40.5314,-9.36709],[-40.5333,-9.36601],[-40.53486,-9.36548],[-40.53501,-9.36511],[-40.53476,-9.36431],[-40.53671,-9.3643],[-40.53677,-9.36355],[-40.53714,-9.36273]]]}},{"type":"Feature","properties":{"NM_BAIRRO":"Km 2","v0001":"971"},"geometry":{"type":"Polygon","coordinates":[[[-40.50364,-9.38246],[-40.50591,-9.38384],[-40.50992,-9.38498],[-40.51105,-9.38068],[-40.5078,-9.37924],[-40.50727,-9.38],[-40.50619,-9.3808],[-40.50525,-9.38108],[-40.50493,-9.38099],[-40.50343,-9.38124],[-40.50364,-9.38246]]]}},{"type":"Feature","properties":{"NM_BAIRRO":"Loteamento Recife","v0001":"8631"},"geometry":{"type":"Polygon","coordinates":[[[-40.48715,-9.37275],[-40.4742,-9.34773],[-40.46769,-9.35821],[-40.46785,-9.35847],[-40.46744,-9.35868],[-40.4657,-9.36166],[-40.48743,-9.37655],[-40.48779,-9.3754],[-40.48846,-9.37533],[-40.48895,-9.37506],[-40.4899,-9.37508],[-40.4887,-9.37434],[-40.48715,-9.37275]]]}},{"type":"Feature","properties":{"NM_BAIRRO":"Maria Auxiliadora","v0001":"3185"},"geometry":{"type":"Polygon","coordinates":[[[-40.4907,-9.39212],[-40.49796,-9.38673],[-40.49929,-9.38719],[-40.50306,-9.38341],[-40.50273,-9.38287],[-40.49662,-9.38617],[-40.49095,-9.38838],[-40.48942,-9.38918],[-40.48917,-9.38941],[-40.48925,-9.39203],[-40.48934,-9.39274],[-40.48984,-9.39429],[-40.49036,-9.39414],[-40.49052,-9.39245],[-40.4907,-9.39212]]]}},{"type":"Feature","properties":{"NM_BAIRRO":"Ouro Preto","v0001":"3493"},"geometry":{"type":"Polygon","coordinates":[[[-40.5243,-9.38458],[-40.52506,-9.38245],[-40.52494,-9.3825],[-40.52451,-9.38209],[-40.52387,-9.38112],[-40.5227,-9.38041],[-40.52261,-9.37954],[-40.52349,-9.3776],[-40.52213,-9.37708],[-40.52162,-9.37786],[-40.521,-9.37726],[-40.52044,-9.37725],[-40.52012,-9.37697],[-40.51934,-9.37778],[-40.51661,-9.38155],[-40.51467,-9.38069],[-40.5141,-9.38199],[-40.52392,-9.38635],[-40.5243,-9.38458]]]}},{"type":"Feature","properties":{"NM_BAIRRO":"Palhinhas","v0001":"1286"},"geometry":{"type":"Polygon","coordinates":[[[-40.5253,-9.39013],[-40.52598,-9.38748],[-40.52564,-9.38718],[-40.525,-9.38758],[-40.52455,-9.38844],[-40.52402,-9.38902],[-40.5223,-9.3902],[-40.51329,-9.39326],[-40.51423,-9.3939],[-40.51521,-9.3967],[-40.51704,-9.39634],[-40.51896,-9.39571],[-40.52093,-9.39467],[-40.52333,-9.39302],[-40.52394,-9.39253],[-40.52478,-9.39145],[-40.5253,-9.39013]]]}},{"type":"Feature","properties":{"NM_BAIRRO":"Pedra do Bode","v0001":"2762"},"geometry":{"type":"MultiPolygon","coordinates":[[[[-40.46887,-9.42071],[-40.47085,-9.42102],[-40.47197,-9.42088],[-40.47254,-9.42078],[-40.475,-9.4198],[-40.47806,-9.4181],[-40.4808,-9.41623],[-40.48269,-9.41425],[-40.48266,-9.41404],[-40.48201,-9.41348],[-40.48158,-9.41344],[-40.48006,-9.41364],[-40.47599,-9.41344],[-40.46941,-9.41368],[-40.46705,-9.41356],[-40.46487,-9.4132],[-40.46527,-9.41493],[-40.46521,-9.41566],[-40.46616,-9.41796],[-40.46756,-9.42024],[-40.46887,-9.42071]]],[[[-40.45296,-9.3971],[-40.45364,-9.40094],[-40.45471,-9.40298],[-40.45751,-9.40597],[-40.45894,-9.40704],[-40.46099,-9.40893],[-40.46203,-9.40962],[-40.46276,-9.40994],[-40.46375,-9.40971],[-40.46433,-9.40931],[-40.46425,-9.40885],[-40.46295,-9.40826],[-40.46094,-9.4051],[-40.4607,-9.40432],[-40.45762,-9.40129],[-40.45634,-9.40038],[-40.45513,-9.39897],[-40.45308,-9.39704],[-40.45296,-9.3971]]],[[[-40.47735,-9.40085],[-40.46285,-9.39622],[-40.45996,-9.3979],[-40.46049,-9.39924],[-40.46086,-9.39963],[-40.46095,-9.40025],[-40.46169,-9.40135],[-40.46192,-9.40146],[-40.46196,-9.4017],[-40.46229,-9.40197],[-40.46372,-9.4026],[-40.46583,-9.40432],[-40.46715,-9.40496],[-40.46751,-9.40535],[-40.46805,-9.40547],[-40.4694,-9.40637],[-40.46966,-9.40638],[-40.46992,-9.40668],[-40.471,-9.40735],[-40.47576,-9.40908],[-40.47743,-9.40938],[-40.47889,-9.40919],[-40.47929,-9.40928],[-40.47971,-9.409],[-40.4804,-9.40894],[-40.48057,-9.40858],[-40.48203,-9.40841],[-40.48379,-9.40797],[-40.48458,-9.40799],[-40.48463,-9.4078],[-40.48627,-9.40748],[-40.48825,-9.4067],[-40.49058,-9.40636],[-40.49112,-9.40658],[-40.49226,-9.40644],[-40.49271,-9.40629],[-40.49287,-9.40595],[-40.49308,-9.40594],[-40.4931,-9.40574],[-40.4935,-9.40619],[-40.49429,-9.40617],[-40.49453,-9.40598],[-40.4939,-9.40311],[-40.4835,-9.40034],[-40.48264,-9.39994],[-40.47878,-9.40073],[-40.47735,-9.40085]]]]}},{"type":"Feature","properties":{"NM_BAIRRO":"Pedro Raimundo","v0001":"6723"},"geometry":{"type":"Polygon","coordinates":[[[-40.52494,-9.3825],[-40.52841,-9.37448],[-40.52944,-9.37282],[-40.52954,-9.36992],[-40.52998,-9.36733],[-40.52639,-9.36389],[-40.52617,-9.36419],[-40.5263,-9.36466],[-40.52582,-9.36552],[-40.52362,-9.36868],[-40.52262,-9.37036],[-40.52228,-9.3713],[-40.52209,-9.37136],[-40.52044,-9.37377],[-40.51989,-9.37487],[-40.5211,-9.37539],[-40.52089,-9.37591],[-40.52014,-9.37667],[-40.52012,-9.37697],[-40.52044,-9.37725],[-40.521,-9.37726],[-40.52162,-9.37786],[-40.52213,-9.37708],[-40.52349,-9.3776],[-40.52261,-9.37954],[-40.52265,-9.38024],[-40.5228,-9.38051],[-40.52387,-9.38112],[-40.52494,-9.3825]]]}},{"type":"Feature","properties":{"NM_BAIRRO":"Serrote do Urubu","v0001":"194"},"geometry":{"type":"MultiPolygon","coordinates":[[[[-40.43745,-9.36255],[-40.43889,-9.36534],[-40.4393,-9.36682],[-40.4402,-9.36812],[-40.4398,-9.36818],[-40.43976,-9.36837],[-40.44007,-9.36925],[-40.44024,-9.36942],[-40.44037,-9.36933],[-40.44057,-9.36964],[-40.44125,-9.37121],[-40.44354,-9.37441],[-40.44354,-9.37481],[-40.44405,-9.3753],[-40.44412,-9.37557],[-40.44437,-9.37566],[-40.44465,-9.37491],[-40.44451,-9.3743],[-40.44431,-9.37434],[-40.4442,-9.3746],[-40.44393,-9.37411],[-40.44404,-9.3739],[-40.44264,-9.37036],[-40.44214,-9.36839],[-40.44211,-9.3676],[-40.44148,-9.36581],[-40.43913,-9.36211],[-40.4372,-9.36018],[-40.43696,-9.36023],[-40.43745,-9.36255]]],[[[-40.4357,-9.36011],[-40.43544,-9.36016],[-40.43589,-9.36149],[-40.43609,-9.3617],[-40.43613,-9.36115],[-40.4357,-9.36011]]],[[[-40.43345,-9.35361],[-40.43269,-9.35336],[-40.43478,-9.35616],[-40.43509,-9.35624],[-40.4376,-9.35867],[-40.43872,-9.3593],[-40.43945,-9.36015],[-40.44002,-9.36046],[-40.44021,-9.36035],[-40.43972,-9.35877],[-40.43845,-9.35718],[-40.43621,-9.3553],[-40.43345,-9.35361]]],[[[-40.4215,-9.34684],[-40.42524,-9.34696],[-40.42555,-9.34718],[-40.42649,-9.34736],[-40.42659,-9.34753],[-40.42782,-9.34789],[-40.4294,-9.34898],[-40.43009,-9.34966],[-40.43084,-9.34992],[-40.43182,-9.35079],[-40.43452,-9.35223],[-40.43473,-9.35257],[-40.4358,-9.35343],[-40.43649,-9.35357],[-40.43684,-9.35397],[-40.43751,-9.35423],[-40.43761,-9.35448],[-40.43817,-9.35487],[-40.43818,-9.35538],[-40.43924,-9.35586],[-40.43926,-9.35612],[-40.43996,-9.35631],[-40.44054,-9.35626],[-40.4408,-9.35642],[-40.44099,-9.35708],[-40.4415,-9.35753],[-40.44149,-9.35778],[-40.44188,-9.35801],[-40.44186,-9.3582],[-40.44247,-9.35929],[-40.44247,-9.35956],[-40.44303,-9.36003],[-40.44313,-9.36028],[-40.44296,-9.36033],[-40.44396,-9.36233],[-40.44426,-9.3636],[-40.44457,-9.36392],[-40.44476,-9.36483],[-40.44514,-9.36555],[-40.44525,-9.36631],[-40.44567,-9.36734],[-40.44577,-9.36907],[-40.44593,-9.36927],[-40.44587,-9.37076],[-40.45041,-9.36944],[-40.45072,-9.36959],[-40.4529,-9.36865],[-40.45294,-9.36844],[-40.45053,-9.3636],[-40.44913,-9.35907],[-40.44641,-9.35469],[-40.44012,-9.3489],[-40.4327,-9.34334],[-40.43149,-9.34283],[-40.43043,-9.34268],[-40.4255,-9.34305],[-40.42455,-9.34293],[-40.42363,-9.34269],[-40.42103,-9.34161],[-40.42113,-9.34277],[-40.42103,-9.34705],[-40.4212,-9.34708],[-40.4215,-9.34684]]],[[[-40.42248,-9.35176],[-40.42507,-9.35271],[-40.4252,-9.3526],[-40.4252,-9.35227],[-40.42495,-9.35202],[-40.423,-9.35151],[-40.42248,-9.35163],[-40.42248,-9.35176]]],[[[-40.42516,-9.35067],[-40.42822,-9.35265],[-40.43075,-9.35334],[-40.43078,-9.35309],[-40.43059,-9.35287],[-40.42895,-9.35182],[-40.42661,-9.35088],[-40.42551,-9.3506],[-40.42516,-9.35067]]]]}},{"type":"Feature","properties":{"NM_BAIRRO":"São Gonçalo","v0001":"18620"},"geometry":{"type":"Polygon","coordinates":[[[-40.5506,-9.39279],[-40.5515,-9.39247],[-40.55148,-9.39229],[-40.55598,-9.39067],[-40.55845,-9.39099],[-40.55999,-9.39096],[-40.55785,-9.38665],[-40.55788,-9.38644],[-40.55695,-9.38451],[-40.55687,-9.38352],[-40.55645,-9.38287],[-40.55631,-9.38234],[-40.55562,-9.38264],[-40.55525,-9.38257],[-40.55485,-9.3799],[-40.55451,-9.37964],[-40.55461,-9.37922],[-40.55426,-9.37694],[-40.55414,-9.37689],[-40.55417,-9.37625],[-40.55402,-9.37597],[-40.55348,-9.37587],[-40.55321,-9.37508],[-40.55283,-9.3706],[-40.54507,-9.37093],[-40.54342,-9.37126],[-40.54163,-9.37231],[-40.53962,-9.37441],[-40.53796,-9.37585],[-40.53853,-9.37639],[-40.53884,-9.37741],[-40.54064,-9.3802],[-40.54178,-9.38303],[-40.54272,-9.38554],[-40.54345,-9.38998],[-40.5437,-9.38996],[-40.54375,-9.39016],[-40.54426,-9.39019],[-40.54419,-9.38955],[-40.54463,-9.38957],[-40.54461,-9.39004],[-40.54771,-9.39012],[-40.54868,-9.39297],[-40.55047,-9.3924],[-40.5506,-9.39279]]]}},{"type":"Feature","properties":{"NM_BAIRRO":"São José","v0001":"4918"},"geometry":{"type":"Polygon","coordinates":[[[-40.4896,-9.39369],[-40.48925,-9.39203],[-40.48917,-9.38941],[-40.48816,-9.39001],[-40.48395,-9.39341],[-40.48315,-9.39542],[-40.48315,-9.39639],[-40.48339,-9.39713],[-40.48376,-9.39776],[-40.48437,-9.39835],[-40.48486,-9.39865],[-40.4864,-9.39911],[-40.48586,-9.40099],[-40.4939,-9.40311],[-40.4923,-9.4003],[-40.49228,-9.40016],[-40.49296,-9.40006],[-40.493,-9.39983],[-40.4907,-9.39592],[-40.4896,-9.39369]]]}},{"type":"Feature","properties":{"NM_BAIRRO":"Topázio","v0001":"16406"},"geometry":{"type":"Polygon","coordinates":[[[-40.50959,-9.33813],[-40.4722,-9.31916],[-40.47242,-9.3185],[-40.4722,-9.3184],[-40.4742,-9.31093],[-40.47421,-9.31052],[-40.47183,-9.3098],[-40.47114,-9.30935],[-40.47067,-9.30988],[-40.46858,-9.31109],[-40.46689,-9.31234],[-40.46657,-9.31221],[-40.46628,-9.31145],[-40.46652,-9.30995],[-40.4664,-9.30996],[-40.46547,-9.31048],[-40.46461,-9.3113],[-40.46364,-9.31272],[-40.46237,-9.31336],[-40.46157,-9.31322],[-40.46104,-9.316],[-40.45473,-9.30825],[-40.45407,-9.30853],[-40.47352,-9.34642],[-40.47606,-9.34526],[-40.47839,-9.3447],[-40.48077,-9.34461],[-40.48341,-9.3447],[-40.48889,-9.34536],[-40.49495,-9.34681],[-40.5149,-9.35334],[-40.51606,-9.35389],[-40.51774,-9.35539],[-40.52134,-9.34186],[-40.52203,-9.34087],[-40.52189,-9.34043],[-40.5129,-9.33797],[-40.50959,-9.33813]]]}},{"type":"Feature","properties":{"NM_BAIRRO":"Vila Eduardo","v0001":"6706"},"geometry":{"type":"Polygon","coordinates":[[[-40.48724,-9.37701],[-40.48118,-9.38981],[-40.4808,-9.39125],[-40.48395,-9.39341],[-40.48816,-9.39001],[-40.48917,-9.38941],[-40.48846,-9.37533],[-40.48797,-9.37534],[-40.48773,-9.3755],[-40.48724,-9.37701]]]}},{"type":"Feature","properties":{"NM_BAIRRO":"Vila Mocó","v0001":"4752"},"geometry":{"type":"Polygon","coordinates":[[[-40.50242,-9.38996],[-40.50368,-9.38975],[-40.50375,-9.38945],[-40.50415,-9.38922],[-40.50618,-9.38895],[-40.50706,-9.38886],[-40.50891,-9.38921],[-40.51003,-9.38515],[-40.50992,-9.38498],[-40.50591,-9.38384],[-40.50364,-9.38246],[-40.50273,-9.38287],[-40.50306,-9.38341],[-40.49929,-9.38719],[-40.50025,-9.38726],[-40.50104,-9.38778],[-40.50144,-9.38864],[-40.50242,-9.38996]]]}},{"type":"Feature","properties":{"NM_BAIRRO":"Zona Militar","v0001":"1"},"geometry":{"type":"Polygon","coordinates":[[[-40.45794,-9.37541],[-40.4808,-9.39125],[-40.48132,-9.38946],[-40.48743,-9.37655],[-40.4649,-9.36111],[-40.45794,-9.37541]]]}}]}