{"type":"FeatureCollection","features":[{"type":"Feature","properties":{"NM_DIST":"Petrolina","v0001":"345022"},"geometry":{"type":"Polygon","coordinates":[[[-40.42089,-9.35257],[-40.43079,-9.35669],[-40.43369,-9.35917],[-40.4359,-9.36216],[-40.43931,-9.36828],[-40.44764,-9.38734],[-40.45273,-9.39723],[-40.45289,-9.4008],[-40.45382,-9.40352],[-40.45608,-9.40642],[-40.46427,-9.41336],[-40.46616,-9.41796],[-40.46776,-9.42057],[-40.47073,-9.42121],[-40.47417,-9.42079],[-40.47783,-9.4193],[-40.48181,-9.41628],[-40.48392,-9.41397],[-40.48728,-9.41223],[-40.4972,-9.40857],[-40.50145,-9.4093],[-40.51073,-9.40718],[-40.51375,-9.40808],[-40.52007,-9.41225],[-40.52412,-9.41343],[-40.52911,-9.4139],[-40.5317,-9.41496],[-40.53822,-9.42058],[-40.54082,-9.42404],[-40.54179,-9.42603],[-40.54371,-9.43254],[-40.54519,-9.4423],[-40.54686,-9.44631],[-40.55066,-9.45218],[-40.55576,-9.45794],[-40.56519,-9.46401],[-40.57486,-9.46741],[-40.58151,-9.46765],[-40.58378,-9.46721],[-40.58745,-9.46574],[-40.59512,-9.46737],[-40.59962,-9.46961],[-40.60856,-9.47679],[-40.61651,-9.48098],[-40.62068,-9.48253],[-40.62317,-9.4829],[-40.6281,-9.48269],[-40.63586,-9.48102],[-40.64349,-9.47817],[-40.65215,-9.47379],[-40.66295,-9.47172],[-40.68132,-9.46722],[-40.70137,-9.45765],[-40.70819,-9.45324],[-40.71367,-9.45047],[-40.71532,-9.44873],[-40.72218,-9.44595],[-40.73053,-9.44469],[-40.74532,-9.44335],[-40.74984,-9.44385],[-40.75504,-9.44648],[-40.75805,-9.44881],[-40.76276,-9.45031],[-40.76746,-9.45265],[-40.77675,-9.45445],[-40.76959,-9.44744],[-40.76729,-9.4457],[-40.76063,-9.43224],[-40.7596,-9.42908],[-40.76008,-9.42577],[-40.76479,-9.41595],[-40.76498,-9.41322],[-40.76323,-9.41142],[-40.76079,-9.41055],[-40.7567,-9.41035],[-40.7506,-9.40646],[-40.74743,-9.40587],[-40.74523,-9.40462],[-40.74309,-9.40295],[-40.74267,-9.40071],[-40.74349,-9.39828],[-40.67067,-9.39708],[-40.5818,-9.3949],[-40.58097,-9.3926],[-40.56492,-9.39251],[-40.55728,-9.38204],[-40.55525,-9.38257],[-40.55417,-9.37625],[-40.55348,-9.37587],[-40.55321,-9.37508],[-40.55078,-9.3583],[-40.54846,-9.35724],[-40.55224,-9.35078],[-40.5465,-9.34821],[-40.54543,-9.35002],[-40.54372,-9.35087],[-40.54201,-9.35008],[-40.54183,-9.35038],[-40.53675,-9.34766],[-40.53715,-9.34676],[-40.53558,-9.34554],[-40.53523,-9.34552],[-40.53473,-9.34662],[-40.53401,-9.34632],[-40.53402,-9.34551],[-40.53209,-9.34423],[-40.52475,-9.34036],[-40.52189,-9.34043],[-40.52429,-9.32884],[-40.52539,-9.32679],[-40.53415,-9.29466],[-40.53459,-9.29468],[-40.53451,-9.2937],[-40.53974,-9.27427],[-40.54108,-9.27222],[-40.54565,-9.26775],[-40.54627,-9.26577],[-40.54716,-9.24999],[-40.55358,-9.23861],[-40.56215,-9.17751],[-40.5646,-9.16437],[-40.5653,-9.15788],[-40.57598,-9.11933],[-40.57876,-9.1193],[-40.57882,-9.11651],[-40.58187,-9.11398],[-40.58184,-9.11318],[-40.58251,-9.11283],[-40.58236,-9.11237],[-40.58483,-9.11241],[-40.58863,-9.11526],[-40.59125,-9.11507],[-40.592,-9.11547],[-40.5944,-9.11505],[-40.59558,-9.11639],[-40.59676,-9.11608],[-40.59902,-9.11294],[-40.59846,-9.11151],[-40.60086,-9.11032],[-40.60013,-9.10793],[-40.60146,-9.10698],[-40.60141,-9.10566],[-40.60298,-9.10502],[-40.60311,-9.10379],[-40.60366,-9.10376],[-40.60751,-9.09939],[-40.60922,-9.09868],[-40.6119,-9.0965],[-40.61055,-8.92855],[-40.60816,-8.92829],[-40.60759,-8.92785],[-40.60705,-8.92685],[-40.60536,-8.9257],[-40.60431,-8.92435],[-40.60478,-8.9238],[-40.60385,-8.92321],[-40.60208,-8.92281],[-40.60062,-8.92355],[-40.60003,-8.92431],[-40.59989,-8.92759],[-40.59876,-8.92856],[-40.59654,-8.92874],[-40.59454,-8.92574],[-40.59179,-8.92827],[-40.5905,-8.92778],[-40.58973,-8.92649],[-40.58854,-8.92742],[-40.58555,-8.92827],[-40.58396,-8.92769],[-40.58172,-8.92776],[-40.57867,-8.93101],[-40.57773,-8.93047],[-40.57144,-8.93088],[-40.56933,-8.93235],[-40.56881,-8.93596],[-40.56889,-8.94288],[-40.56852,-8.94535],[-40.56348,-8.94962],[-40.56266,-8.95138],[-40.5615,-8.95634],[-40.55548,-8.96166],[-40.55508,-8.96286],[-40.55415,-8.97236],[-40.55293,-8.979],[-40.55323,-8.98093],[-40.55643,-8.98716],[-40.5566,-8.98848],[-40.55531,-8.99084],[-40.55299,-8.99152],[-40.5527,-8.99299],[-40.54718,-8.99383],[-40.54362,-8.99176],[-40.54037,-8.99083],[-40.53778,-8.99063],[-40.53459,-8.99172],[-40.53287,-8.99372],[-40.53121,-8.99022],[-40.53035,-8.99513],[-40.53234,-9.0038],[-40.53192,-9.00534],[-40.52891,-9.00722],[-40.52622,-9.00812],[-40.52297,-9.00851],[-40.51629,-9.00701],[-40.51472,-9.00765],[-40.51381,-9.00853],[-40.51257,-9.0116],[-40.51051,-9.01293],[-40.50917,-9.01247],[-40.50666,-9.00963],[-40.50369,-9.00851],[-40.50295,-9.01032],[-40.50099,-9.01213],[-40.49794,-9.01354],[-40.496,-9.01384],[-40.49193,-9.0124],[-40.48954,-9.01208],[-40.48651,-9.01007],[-40.4863,-9.00941],[-40.4842,-9.00791],[-40.48187,-9.00722],[-40.48069,-9.00789],[-40.47665,-9.01325],[-40.47326,-9.01548],[-40.47073,-9.01615],[-40.46713,-9.01431],[-40.4615,-9.00996],[-40.45962,-9.00718],[-40.45299,-9.00832],[-40.45094,-9.0094],[-40.44927,-9.01144],[-40.44733,-9.01245],[-40.44389,-9.01186],[-40.44341,-9.01159],[-40.44326,-9.00939],[-40.44365,-9.00757],[-40.44538,-9.00381],[-40.44535,-9.0024],[-40.44478,-9.00175],[-40.44286,-9.00117],[-40.44091,-9.0018],[-40.43794,-9.00381],[-40.43455,-9.00478],[-40.43394,-9.00838],[-40.43118,-9.01092],[-40.42772,-9.01067],[-40.4255,-9.00768],[-40.42487,-9.00504],[-40.42327,-9.00369],[-40.41979,-9.0022],[-40.4182,-9.00256],[-40.41482,-9.00448],[-40.41276,-9.00671],[-40.41088,-9.00787],[-40.40716,-9.00952],[-40.40536,-9.00981],[-40.40403,-9.00887],[-40.40305,-9.00717],[-40.40174,-9.00595],[-40.40121,-9.00426],[-40.39688,-9.0002],[-40.39538,-8.99989],[-40.39448,-9.00034],[-40.38945,-9.00015],[-40.38155,-8.99747],[-40.37903,-8.99739],[-40.37167,-9.00046],[-40.36778,-9.00001],[-40.36333,-9.00016],[-40.35796,-9.00202],[-40.35223,-9.00273],[-40.34281,-9.00114],[-40.34008,-9.00198],[-40.33678,-9.00374],[-40.33624,-9.00596],[-40.33325,-9.00885],[-40.33157,-9.01347],[-40.33084,-9.01432],[-40.32799,-9.01586],[-40.32565,-9.01631],[-40.32487,-9.01618],[-40.32127,-9.01271],[-40.31787,-9.01032],[-40.31677,-9.00633],[-40.31618,-9.00565],[-40.31401,-9.00416],[-40.31251,-9.00379],[-40.30798,-8.9979],[-40.30449,-8.99559],[-40.30173,-8.99501],[-40.29668,-8.99495],[-40.29264,-8.99712],[-40.29155,-8.99992],[-40.28781,-9.0011],[-40.28351,-9.00832],[-40.28153,-9.00879],[-40.2748,-9.00463],[-40.27221,-9.00189],[-40.27119,-9.00145],[-40.27015,-8.9987],[-40.26509,-8.99388],[-40.26364,-8.9917],[-40.26021,-8.9905],[-40.25613,-8.99209],[-40.25108,-8.99513],[-40.24601,-9.00064],[-40.24285,-9.00168],[-40.2383,-9.00885],[-40.23451,-9.01343],[-40.23233,-9.0172],[-40.23098,-9.02311],[-40.2313,-9.02614],[-40.23301,-9.02874],[-40.23283,-9.03092],[-40.23044,-9.03357],[-40.22271,-9.03852],[-40.22106,-9.04284],[-40.21992,-9.04818],[-40.2166,-9.05064],[-40.21325,-9.05399],[-40.20946,-9.05567],[-40.20811,-9.06148],[-40.20883,-9.06378],[-40.21344,-9.06098],[-40.2236,-9.05667],[-40.23157,-9.05472],[-40.23898,-9.05437],[-40.2434,-9.05557],[-40.24786,-9.05774],[-40.25579,-9.06322],[-40.2663,-9.07322],[-40.27319,-9.08242],[-40.27667,-9.08911],[-40.27885,-9.09454],[-40.28292,-9.10778],[-40.28671,-9.11735],[-40.28927,-9.1304],[-40.29333,-9.14674],[-40.29401,-9.15207],[-40.29375,-9.15524],[-40.29283,-9.15794],[-40.28947,-9.1652],[-40.28732,-9.17108],[-40.28582,-9.18181],[-40.28617,-9.18561],[-40.29022,-9.19596],[-40.29573,-9.21357],[-40.29785,-9.22415],[-40.30051,-9.23121],[-40.30137,-9.23492],[-40.30232,-9.24294],[-40.30221,-9.2517],[-40.30528,-9.25776],[-40.30531,-9.26289],[-40.30779,-9.27132],[-40.30954,-9.27551],[-40.31184,-9.27903],[-40.31425,-9.2824],[-40.31903,-9.28727],[-40.32561,-9.30586],[-40.33253,-9.31757],[-40.33612,-9.32717],[-40.33712,-9.3314],[-40.33734,-9.33507],[-40.33659,-9.34181],[-40.33429,-9.34712],[-40.33375,-9.35054],[-40.33504,-9.3539],[-40.33887,-9.35989],[-40.34871,-9.36866],[-40.3542,-9.37504],[-40.3564,-9.37699],[-40.35903,-9.37813],[-40.3637,-9.37928],[-40.37142,-9.37872],[-40.39128,-9.37217],[-40.40199,-9.36519],[-40.40473,-9.36291],[-40.40984,-9.35568],[-40.41165,-9.35417],[-40.4142,-9.35295],[-40.41815,-9.35205],[-40.42089,-9.35257]]]}},{"type":"Feature","properties":{"NM_DIST":"Cristália","v0001":"1914"},"geometry":{"type":"Polygon","coordinates":[[[-40.53121,-8.99022],[-40.53287,-8.99372],[-40.53459,-8.99172],[-40.53728,-8.99065],[-40.54037,-8.99083],[-40.54362,-8.99176],[-40.54718,-8.99383],[-40.5527,-8.99299],[-40.55299,-8.99152],[-40.55531,-8.99084],[-40.5566,-8.98848],[-40.55643,-8.98716],[-40.55323,-8.98093],[-40.55293,-8.979],[-40.55415,-8.97236],[-40.55508,-8.96286],[-40.55548,-8.96166],[-40.5615,-8.95634],[-40.56266,-8.95138],[-40.56348,-8.94962],[-40.56852,-8.94535],[-40.56889,-8.94288],[-40.56881,-8.93596],[-40.56933,-8.93235],[-40.57144,-8.93088],[-40.574,-8.93094],[-40.57544,-8.93044],[-40.57576,-8.92967],[-40.57586,-8.9285],[-40.57486,-8.92608],[-40.57501,-8.92321],[-40.57608,-8.92056],[-40.57562,-8.91978],[-40.57585,-8.91735],[-40.57482,-8.91218],[-40.57561,-8.90833],[-40.57656,-8.90641],[-40.57861,-8.90385],[-40.58215,-8.902],[-40.58255,-8.89971],[-40.58255,-8.89537],[-40.58178,-8.89299],[-40.58161,-8.89009],[-40.58018,-8.8895],[-40.57993,-8.88839],[-40.58181,-8.88733],[-40.58354,-8.88705],[-40.58732,-8.88745],[-40.59095,-8.88867],[-40.59306,-8.88821],[-40.59504,-8.8833],[-40.59529,-8.88076],[-40.59647,-8.87642],[-40.5963,-8.87451],[-40.59964,-8.87362],[-40.60133,-8.87268],[-40.60208,-8.87092],[-40.60257,-8.86567],[-40.60313,-8.86453],[-40.60336,-8.8623],[-40.60561,-8.86114],[-40.60913,-8.86108],[-40.61234,-8.86036],[-40.61468,-8.86209],[-40.61521,-8.86203],[-40.61758,-8.86086],[-40.61926,-8.85831],[-40.61822,-8.8571],[-40.61673,-8.85695],[-40.61412,-8.85592],[-40.61391,-8.85486],[-40.61522,-8.85198],[-40.61361,-8.85047],[-40.61059,-8.84981],[-40.60965,-8.84915],[-40.6065,-8.84337],[-40.60522,-8.84313],[-40.60513,-8.84513],[-40.60424,-8.84509],[-40.6011,-8.84337],[-40.60093,-8.84263],[-40.59923,-8.84186],[-40.59832,-8.83966],[-40.59882,-8.83828],[-40.60024,-8.8369],[-40.59875,-8.83167],[-40.6006,-8.82934],[-40.60123,-8.82784],[-40.59748,-8.82509],[-40.5963,-8.82329],[-40.59832,-8.82062],[-40.5982,-8.81754],[-40.60072,-8.81477],[-40.59647,-8.81104],[-40.59042,-8.81107],[-40.58588,-8.81242],[-40.58267,-8.81243],[-40.57839,-8.80979],[-40.57028,-8.80974],[-40.56725,-8.80868],[-40.56369,-8.80976],[-40.56058,-8.80958],[-40.55819,-8.80992],[-40.55521,-8.80955],[-40.55485,-8.80756],[-40.55366,-8.80568],[-40.55028,-8.80227],[-40.54961,-8.80043],[-40.54951,-8.78895],[-40.54802,-8.7839],[-40.54804,-8.78081],[-40.54591,-8.77948],[-40.54542,-8.77454],[-40.5444,-8.77221],[-40.54497,-8.76843],[-40.54388,-8.76759],[-40.54188,-8.76757],[-40.54125,-8.76717],[-40.54056,-8.76566],[-40.53859,-8.76484],[-40.53753,-8.76266],[-40.53463,-8.75943],[-40.53277,-8.75573],[-40.52941,-8.75111],[-40.52723,-8.74963],[-40.52405,-8.74869],[-40.52128,-8.74471],[-40.51905,-8.74314],[-40.51548,-8.73813],[-40.51533,-8.73357],[-40.51581,-8.73027],[-40.51331,-8.72297],[-40.51135,-8.72037],[-40.51009,-8.71676],[-40.5095,-8.71114],[-40.50777,-8.70814],[-40.50486,-8.70509],[-40.50343,-8.70006],[-40.50037,-8.69757],[-40.50036,-8.68377],[-40.49986,-8.67976],[-40.50079,-8.6786],[-40.50776,-8.67564],[-40.51161,-8.67503],[-40.51655,-8.6729],[-40.52107,-8.66829],[-40.52744,-8.66836],[-40.52945,-8.66643],[-40.52997,-8.66502],[-40.52956,-8.66334],[-40.52996,-8.66268],[-40.53211,-8.66116],[-40.53471,-8.6605],[-40.42948,-8.64451],[-40.42479,-8.65022],[-40.42146,-8.65629],[-40.41919,-8.65837],[-40.41818,-8.6608],[-40.41799,-8.66454],[-40.41633,-8.66813],[-40.41532,-8.66844],[-40.40632,-8.67788],[-40.40529,-8.6855],[-40.40458,-8.68742],[-40.40306,-8.68884],[-40.39936,-8.68931],[-40.39673,-8.69074],[-40.39409,-8.69125],[-40.39308,-8.69237],[-40.39315,-8.69615],[-40.39397,-8.69787],[-40.39285,-8.69898],[-40.39418,-8.70019],[-40.39231,-8.70429],[-40.39324,-8.70722],[-40.39233,-8.70894],[-40.39234,-8.71065],[-40.39356,-8.71176],[-40.39464,-8.71433],[-40.39505,-8.71666],[-40.39698,-8.71867],[-40.39688,-8.71938],[-40.39557,-8.7198],[-40.39634,-8.72347],[-40.39272,-8.72802],[-40.3945,-8.73424],[-40.39503,-8.73818],[-40.39717,-8.73968],[-40.39717,-8.7415],[-40.39835,-8.74286],[-40.39815,-8.74448],[-40.39593,-8.74802],[-40.39604,-8.74944],[-40.39792,-8.75079],[-40.40066,-8.75189],[-40.40189,-8.75432],[-40.39986,-8.75564],[-40.39967,-8.75695],[-40.39891,-8.75811],[-40.40034,-8.76074],[-40.39751,-8.76418],[-40.39327,-8.77356],[-40.3943,-8.77485],[-40.39594,-8.77416],[-40.39775,-8.77681],[-40.39784,-8.77961],[-40.39566,-8.78173],[-40.39132,-8.78308],[-40.39158,-8.78507],[-40.39335,-8.78656],[-40.39414,-8.78888],[-40.39723,-8.79197],[-40.39544,-8.79607],[-40.39303,-8.79754],[-40.3927,-8.79835],[-40.39333,-8.80074],[-40.39165,-8.8029],[-40.38906,-8.80443],[-40.38779,-8.80445],[-40.38639,-8.80636],[-40.38291,-8.80865],[-40.38184,-8.81007],[-40.38131,-8.80992],[-40.38138,-8.80908],[-40.38037,-8.80806],[-40.38009,-8.80707],[-40.37671,-8.8118],[-40.37594,-8.81195],[-40.37432,-8.81048],[-40.37249,-8.81233],[-40.3687,-8.81236],[-40.36722,-8.81455],[-40.36646,-8.81493],[-40.36456,-8.81419],[-40.36377,-8.81457],[-40.36377,-8.81587],[-40.36148,-8.81772],[-40.36095,-8.81889],[-40.36103,-8.82007],[-40.36312,-8.8224],[-40.36331,-8.82388],[-40.36189,-8.83217],[-40.36306,-8.83387],[-40.36252,-8.83482],[-40.35924,-8.83606],[-40.35939,-8.83864],[-40.36118,-8.84149],[-40.36151,-8.84411],[-40.36236,-8.84534],[-40.36218,-8.8484],[-40.36326,-8.84943],[-40.36344,-8.85101],[-40.36152,-8.85152],[-40.3621,-8.85347],[-40.3611,-8.85405],[-40.35757,-8.85429],[-40.35641,-8.85544],[-40.35497,-8.8557],[-40.35466,-8.85631],[-40.35536,-8.85727],[-40.35479,-8.85807],[-40.3529,-8.85804],[-40.35206,-8.85893],[-40.35129,-8.86096],[-40.3497,-8.86148],[-40.34863,-8.86256],[-40.34501,-8.86288],[-40.34389,-8.86357],[-40.34266,-8.86327],[-40.33949,-8.86357],[-40.33852,-8.86292],[-40.33555,-8.8624],[-40.33205,-8.86283],[-40.32595,-8.86463],[-40.32395,-8.86334],[-40.32163,-8.86089],[-40.31809,-8.86106],[-40.31682,-8.86164],[-40.31459,-8.86165],[-40.31135,-8.86235],[-40.30913,-8.86588],[-40.30521,-8.86935],[-40.30403,-8.86962],[-40.30132,-8.86917],[-40.29837,-8.87067],[-40.29783,-8.87197],[-40.29792,-8.87489],[-40.29739,-8.87765],[-40.29625,-8.87934],[-40.29459,-8.88068],[-40.28998,-8.88284],[-40.28814,-8.88507],[-40.28618,-8.88627],[-40.28534,-8.88735],[-40.28465,-8.89018],[-40.28004,-8.89319],[-40.2731,-8.90137],[-40.27523,-8.9047],[-40.2757,-8.90661],[-40.27571,-8.91021],[-40.27331,-8.9147],[-40.27292,-8.91701],[-40.27464,-8.92137],[-40.27492,-8.9247],[-40.27246,-8.92624],[-40.27146,-8.92801],[-40.27201,-8.92938],[-40.2739,-8.93087],[-40.27952,-8.933],[-40.28145,-8.93307],[-40.28458,-8.93432],[-40.28597,-8.93662],[-40.29003,-8.94039],[-40.29249,-8.94046],[-40.29634,-8.93876],[-40.29742,-8.93891],[-40.29808,-8.94002],[-40.29863,-8.94477],[-40.30025,-8.9463],[-40.30147,-8.94976],[-40.30323,-8.9512],[-40.30499,-8.95438],[-40.3036,-8.95754],[-40.30331,-8.95969],[-40.30243,-8.96051],[-40.30068,-8.96096],[-40.29713,-8.96432],[-40.29634,-8.96657],[-40.29368,-8.97129],[-40.29348,-8.97299],[-40.29389,-8.97549],[-40.29827,-8.98058],[-40.29917,-8.98682],[-40.29717,-8.98887],[-40.29662,-8.99002],[-40.2966,-8.99224],[-40.29742,-8.99473],[-40.29668,-8.99495],[-40.30173,-8.99501],[-40.30449,-8.99559],[-40.30798,-8.9979],[-40.31183,-9.00316],[-40.31459,-9.00452],[-40.31677,-9.00633],[-40.31787,-9.01032],[-40.32127,-9.01271],[-40.32487,-9.01618],[-40.32799,-9.01586],[-40.33084,-9.01432],[-40.33157,-9.01347],[-40.33325,-9.00885],[-40.33624,-9.00596],[-40.33678,-9.00374],[-40.34008,-9.00198],[-40.34281,-9.00114],[-40.35223,-9.00273],[-40.35796,-9.00202],[-40.36333,-9.00016],[-40.36778,-9.00001],[-40.37167,-9.00046],[-40.37903,-8.99739],[-40.38155,-8.99747],[-40.38945,-9.00015],[-40.39448,-9.00034],[-40.39538,-8.99989],[-40.39688,-9.0002],[-40.40121,-9.00426],[-40.40174,-9.00595],[-40.40305,-9.00717],[-40.40403,-9.00887],[-40.40536,-9.00981],[-40.40716,-9.00952],[-40.41088,-9.00787],[-40.41276,-9.00671],[-40.41482,-9.00448],[-40.4182,-9.00256],[-40.41979,-9.0022],[-40.42327,-9.00369],[-40.42487,-9.00504],[-40.4255,-9.00768],[-40.42772,-9.01067],[-40.43118,-9.01092],[-40.43394,-9.00838],[-40.43455,-9.00478],[-40.43794,-9.00381],[-40.44091,-9.0018],[-40.44286,-9.00117],[-40.44478,-9.00175],[-40.44535,-9.0024],[-40.44538,-9.00381],[-40.44365,-9.00757],[-40.44326,-9.00939],[-40.44341,-9.01159],[-40.44443,-9.01215],[-40.44696,-9.01247],[-40.44821,-9.01217],[-40.45094,-9.0094],[-40.45299,-9.00832],[-40.45962,-9.00718],[-40.4615,-9.00996],[-40.46596,-9.01345],[-40.47018,-9.01599],[-40.47131,-9.01615],[-40.47326,-9.01548],[-40.47665,-9.01325],[-40.48069,-9.00789],[-40.48187,-9.00722],[-40.4842,-9.00791],[-40.4863,-9.00941],[-40.48651,-9.01007],[-40.48954,-9.01208],[-40.49193,-9.0124],[-40.496,-9.01384],[-40.49794,-9.01354],[-40.50099,-9.01213],[-40.50295,-9.01032],[-40.50369,-9.00851],[-40.50666,-9.00963],[-40.50917,-9.01247],[-40.51051,-9.01293],[-40.51257,-9.0116],[-40.51381,-9.00853],[-40.51472,-9.00765],[-40.51629,-9.00701],[-40.52297,-9.00851],[-40.52622,-9.00812],[-40.52891,-9.00722],[-40.53192,-9.00534],[-40.53234,-9.0038],[-40.53035,-8.99513],[-40.53121,-8.99022]]]}},{"type":"Feature","properties":{"NM_DIST":"Curral Queimado","v0001":"30948"},"geometry":{"type":"Polygon","coordinates":[[[-40.55224,-9.35078],[-40.54846,-9.35724],[-40.55078,-9.3583],[-40.55321,-9.37508],[-40.55348,-9.37587],[-40.55417,-9.37625],[-40.55525,-9.38257],[-40.55728,-9.38204],[-40.56492,-9.39251],[-40.58097,-9.3926],[-40.5818,-9.3949],[-40.67067,-9.39708],[-40.74349,-9.39828],[-40.74411,-9.39645],[-40.74375,-9.39108],[-40.74254,-9.38331],[-40.74352,-9.37941],[-40.74587,-9.37481],[-40.74648,-9.37105],[-40.74453,-9.36483],[-40.73974,-9.35829],[-40.7381,-9.35524],[-40.73821,-9.3532],[-40.74094,-9.34837],[-40.7414,-9.34678],[-40.74067,-9.34316],[-40.73765,-9.33875],[-40.73729,-9.33687],[-40.73935,-9.33134],[-40.74231,-9.32721],[-40.75163,-9.31828],[-40.75501,-9.31705],[-40.75642,-9.31503],[-40.75375,-9.31025],[-40.75159,-9.30803],[-40.74906,-9.30746],[-40.74746,-9.30662],[-40.74398,-9.30623],[-40.7429,-9.30428],[-40.74245,-9.30224],[-40.74262,-9.30051],[-40.74184,-9.29887],[-40.73944,-9.29659],[-40.73745,-9.29678],[-40.73414,-9.29987],[-40.73043,-9.30148],[-40.72865,-9.30312],[-40.72501,-9.30446],[-40.72325,-9.30567],[-40.72009,-9.3059],[-40.71682,-9.30388],[-40.71407,-9.30038],[-40.70829,-9.29608],[-40.70731,-9.29455],[-40.70706,-9.29294],[-40.70869,-9.28688],[-40.70759,-9.28535],[-40.70604,-9.28504],[-40.70129,-9.28233],[-40.69225,-9.28123],[-40.68723,-9.27833],[-40.68599,-9.27637],[-40.6849,-9.27103],[-40.68115,-9.26348],[-40.68009,-9.25921],[-40.68048,-9.25769],[-40.6827,-9.25731],[-40.68666,-9.25802],[-40.68924,-9.25699],[-40.69026,-9.25264],[-40.6901,-9.25145],[-40.68743,-9.24668],[-40.68646,-9.24355],[-40.68706,-9.24226],[-40.68946,-9.24113],[-40.6903,-9.23887],[-40.68705,-9.23778],[-40.68654,-9.23817],[-40.68467,-9.23615],[-40.67907,-9.23182],[-40.67905,-9.23072],[-40.67775,-9.22852],[-40.67683,-9.22819],[-40.67473,-9.22862],[-40.67072,-9.22068],[-40.66765,-9.21303],[-40.66692,-9.21228],[-40.66605,-9.20848],[-40.66234,-9.20469],[-40.66015,-9.19828],[-40.65557,-9.19942],[-40.65508,-9.19991],[-40.65294,-9.19972],[-40.64631,-9.20176],[-40.64712,-9.20509],[-40.64669,-9.20621],[-40.64582,-9.20778],[-40.64358,-9.20981],[-40.64191,-9.21215],[-40.63814,-9.21501],[-40.63583,-9.21547],[-40.6314,-9.21537],[-40.63283,-9.21132],[-40.63467,-9.17787],[-40.63334,-9.1752],[-40.63188,-9.17475],[-40.63023,-9.17511],[-40.62879,-9.17459],[-40.62664,-9.17288],[-40.62482,-9.17051],[-40.62209,-9.17016],[-40.61887,-9.17121],[-40.61408,-9.17041],[-40.61158,-9.17396],[-40.6111,-9.17289],[-40.60911,-9.17258],[-40.60499,-9.17303],[-40.60371,-9.17269],[-40.60221,-9.17407],[-40.59784,-9.17506],[-40.59744,-9.17359],[-40.59353,-9.17374],[-40.58737,-9.16323],[-40.5877,-9.16148],[-40.58737,-9.16119],[-40.58845,-9.15984],[-40.59237,-9.13194],[-40.5891,-9.11761],[-40.58893,-9.11531],[-40.5844,-9.11232],[-40.58236,-9.11237],[-40.58251,-9.11283],[-40.58184,-9.11318],[-40.58187,-9.11398],[-40.57896,-9.11627],[-40.57876,-9.1193],[-40.57598,-9.11933],[-40.56916,-9.14358],[-40.56514,-9.15876],[-40.5646,-9.16437],[-40.56215,-9.17751],[-40.55358,-9.23861],[-40.54716,-9.24999],[-40.54627,-9.26577],[-40.54565,-9.26775],[-40.54108,-9.27222],[-40.53974,-9.27427],[-40.53451,-9.2937],[-40.53459,-9.29468],[-40.53415,-9.29466],[-40.52539,-9.32679],[-40.52429,-9.32884],[-40.52189,-9.34043],[-40.52475,-9.34036],[-40.53209,-9.34423],[-40.53402,-9.34551],[-40.53401,-9.34632],[-40.53473,-9.34662],[-40.53523,-9.34552],[-40.53558,-9.34554],[-40.53715,-9.34676],[-40.53675,-9.34766],[-40.54183,-9.35038],[-40.54201,-9.35008],[-40.54372,-9.35087],[-40.54543,-9.35002],[-40.5465,-9.34821],[-40.55224,-9.35078]]]}},{"type":"Feature","properties":{"NM_DIST":"Rajada","v0001":"8907"},"geometry":{"type":"Polygon","coordinates":[[[-40.74508,-9.12158],[-40.75039,-9.11789],[-40.75534,-9.11997],[-40.75706,-9.11984],[-40.7577,-9.11863],[-40.7577,-9.11519],[-40.75629,-9.11169],[-40.75737,-9.10801],[-40.75678,-9.10498],[-40.76317,-9.10694],[-40.76662,-9.10535],[-40.76948,-9.10318],[-40.77509,-9.10088],[-40.77726,-9.10067],[-40.77979,-9.10142],[-40.78368,-9.10439],[-40.7861,-9.10519],[-40.78745,-9.10407],[-40.78759,-9.10063],[-40.78946,-9.09895],[-40.79378,-9.09872],[-40.79892,-9.0992],[-40.8041,-9.09834],[-40.80887,-9.09369],[-40.80982,-9.09228],[-40.81076,-9.08595],[-40.81196,-9.0844],[-40.81319,-9.08317],[-40.8184,-9.08218],[-40.82007,-9.08126],[-40.82101,-9.07989],[-40.82132,-9.07808],[-40.82106,-9.07616],[-40.81915,-9.06909],[-40.82114,-9.0654],[-40.82359,-9.06211],[-40.8242,-9.05737],[-40.82307,-9.05198],[-40.8253,-9.04564],[-40.82491,-9.03998],[-40.82523,-9.03819],[-40.82637,-9.03681],[-40.82996,-9.03399],[-40.83221,-9.03116],[-40.83204,-9.02983],[-40.83024,-9.0267],[-40.83145,-9.02396],[-40.83281,-9.02307],[-40.83422,-9.02099],[-40.83496,-9.01462],[-40.83437,-9.01052],[-40.83501,-9.00869],[-40.83684,-9.00562],[-40.84135,-9.00199],[-40.84196,-9.00058],[-40.84466,-8.99761],[-40.84596,-8.99685],[-40.84684,-8.99554],[-40.84778,-8.99164],[-40.84959,-8.98881],[-40.85196,-8.98258],[-40.85105,-8.95756],[-40.85101,-8.95424],[-40.8516,-8.9525],[-40.85274,-8.95121],[-40.85554,-8.94947],[-40.85878,-8.94922],[-40.86132,-8.94802],[-40.86332,-8.94272],[-40.86552,-8.93227],[-40.8654,-8.92682],[-40.86628,-8.92339],[-40.86897,-8.92107],[-40.87254,-8.91907],[-40.87831,-8.91743],[-40.88123,-8.91563],[-40.88202,-8.91364],[-40.88218,-8.90954],[-40.88344,-8.90486],[-40.88888,-8.89898],[-40.89301,-8.89117],[-40.89504,-8.88909],[-40.89546,-8.88389],[-40.89674,-8.8807],[-40.8964,-8.87103],[-40.89685,-8.87005],[-40.90151,-8.8665],[-40.90304,-8.85862],[-40.9069,-8.85686],[-40.91498,-8.84952],[-40.91696,-8.84453],[-40.91846,-8.83888],[-40.91924,-8.83718],[-40.92134,-8.83543],[-40.92728,-8.83589],[-40.93103,-8.8372],[-40.94638,-8.845],[-40.9484,-8.84485],[-40.9516,-8.84353],[-40.95486,-8.84388],[-40.95904,-8.84198],[-40.95639,-8.83744],[-40.9531,-8.83462],[-40.95098,-8.83188],[-40.94839,-8.83044],[-40.94446,-8.82448],[-40.94435,-8.82326],[-40.94294,-8.82018],[-40.94171,-8.81381],[-40.94381,-8.80917],[-40.94213,-8.80339],[-40.9425,-8.80155],[-40.94228,-8.79685],[-40.94356,-8.79307],[-40.94282,-8.79035],[-40.94448,-8.78808],[-40.94356,-8.78637],[-40.94214,-8.78535],[-40.94118,-8.78226],[-40.93955,-8.78027],[-40.93894,-8.77861],[-40.93794,-8.77756],[-40.9348,-8.77693],[-40.93332,-8.77463],[-40.93004,-8.77289],[-40.92933,-8.77112],[-40.93032,-8.7691],[-40.92999,-8.76845],[-40.92869,-8.7683],[-40.92621,-8.7696],[-40.92573,-8.7703],[-40.92566,-8.77351],[-40.92448,-8.77416],[-40.9199,-8.77205],[-40.9182,-8.77234],[-40.91119,-8.77586],[-40.75825,-8.6235],[-40.57926,-8.66726],[-40.53471,-8.6605],[-40.53211,-8.66116],[-40.52996,-8.66268],[-40.52956,-8.66334],[-40.52997,-8.66502],[-40.52945,-8.66643],[-40.52744,-8.66836],[-40.52107,-8.66829],[-40.51655,-8.6729],[-40.51161,-8.67503],[-40.50776,-8.67564],[-40.50079,-8.6786],[-40.49986,-8.67976],[-40.50036,-8.68377],[-40.50037,-8.69757],[-40.50343,-8.70006],[-40.50486,-8.70509],[-40.50777,-8.70814],[-40.5095,-8.71114],[-40.51009,-8.71676],[-40.51135,-8.72037],[-40.51331,-8.72297],[-40.51581,-8.73027],[-40.51533,-8.73357],[-40.51548,-8.73813],[-40.51905,-8.74314],[-40.52128,-8.74471],[-40.52405,-8.74869],[-40.52723,-8.74963],[-40.52941,-8.75111],[-40.53277,-8.75573],[-40.53463,-8.75943],[-40.53753,-8.76266],[-40.53859,-8.76484],[-40.54056,-8.76566],[-40.54125,-8.76717],[-40.54188,-8.76757],[-40.54388,-8.76759],[-40.54497,-8.76843],[-40.5444,-8.77221],[-40.54542,-8.77454],[-40.54591,-8.77948],[-40.54804,-8.78081],[-40.54802,-8.7839],[-40.54951,-8.78895],[-40.54961,-8.80043],[-40.55028,-8.80227],[-40.55366,-8.80568],[-40.55485,-8.80756],[-40.55521,-8.80955],[-40.55819,-8.80992],[-40.56058,-8.80958],[-40.56369,-8.80976],[-40.56725,-8.80868],[-40.57028,-8.80974],[-40.57839,-8.80979],[-40.58267,-8.81243],[-40.58588,-8.81242],[-40.59042,-8.81107],[-40.59647,-8.81104],[-40.60072,-8.81477],[-40.5982,-8.81754],[-40.59832,-8.82062],[-40.5963,-8.82329],[-40.59748,-8.82509],[-40.60123,-8.82784],[-40.6006,-8.82934],[-40.59875,-8.83167],[-40.60024,-8.8369],[-40.59882,-8.83828],[-40.59832,-8.83966],[-40.59923,-8.84186],[-40.60093,-8.84263],[-40.6011,-8.84337],[-40.60424,-8.84509],[-40.60513,-8.84513],[-40.60522,-8.84313],[-40.6065,-8.84337],[-40.60965,-8.84915],[-40.61059,-8.84981],[-40.61361,-8.85047],[-40.61522,-8.85198],[-40.61391,-8.85486],[-40.61412,-8.85592],[-40.61673,-8.85695],[-40.61822,-8.8571],[-40.61926,-8.85831],[-40.61758,-8.86086],[-40.61521,-8.86203],[-40.61468,-8.86209],[-40.61234,-8.86036],[-40.60913,-8.86108],[-40.60561,-8.86114],[-40.60336,-8.8623],[-40.60313,-8.86453],[-40.60257,-8.86567],[-40.60208,-8.87092],[-40.60133,-8.87268],[-40.59964,-8.87362],[-40.5963,-8.87451],[-40.59647,-8.87642],[-40.59529,-8.88076],[-40.59504,-8.8833],[-40.59306,-8.88821],[-40.59095,-8.88867],[-40.58732,-8.88745],[-40.58354,-8.88705],[-40.58181,-8.88733],[-40.57993,-8.88839],[-40.58018,-8.8895],[-40.58161,-8.89009],[-40.58178,-8.89299],[-40.58255,-8.89537],[-40.58215,-8.902],[-40.57907,-8.90346],[-40.57656,-8.90641],[-40.57561,-8.90833],[-40.57482,-8.91218],[-40.57585,-8.91735],[-40.57562,-8.91978],[-40.57608,-8.92056],[-40.57501,-8.92321],[-40.57486,-8.92608],[-40.57586,-8.9285],[-40.57576,-8.92967],[-40.57544,-8.93044],[-40.5746,-8.93065],[-40.57647,-8.93082],[-40.57773,-8.93047],[-40.57867,-8.93101],[-40.58172,-8.92776],[-40.58396,-8.92769],[-40.58555,-8.92827],[-40.58854,-8.92742],[-40.58973,-8.92649],[-40.5905,-8.92778],[-40.59179,-8.92827],[-40.59454,-8.92574],[-40.59654,-8.92874],[-40.59876,-8.92856],[-40.59989,-8.92759],[-40.60003,-8.92431],[-40.60148,-8.9229],[-40.60208,-8.92281],[-40.60469,-8.92369],[-40.60431,-8.92435],[-40.60816,-8.92829],[-40.61055,-8.92855],[-40.6119,-9.0965],[-40.60922,-9.09868],[-40.60751,-9.09939],[-40.60366,-9.10376],[-40.60311,-9.10379],[-40.60298,-9.10502],[-40.60141,-9.10566],[-40.60146,-9.10698],[-40.60013,-9.10793],[-40.60086,-9.11032],[-40.59846,-9.11151],[-40.59902,-9.11294],[-40.59676,-9.11608],[-40.59558,-9.11639],[-40.5944,-9.11505],[-40.592,-9.11547],[-40.59125,-9.11507],[-40.58893,-9.11531],[-40.5891,-9.11761],[-40.59243,-9.13303],[-40.58845,-9.15984],[-40.58737,-9.16119],[-40.5877,-9.16148],[-40.58737,-9.16323],[-40.59353,-9.17374],[-40.59744,-9.17359],[-40.59784,-9.17506],[-40.60221,-9.17407],[-40.60371,-9.17269],[-40.60499,-9.17303],[-40.60814,-9.17259],[-40.6107,-9.17279],[-40.61158,-9.17396],[-40.61408,-9.17041],[-40.61887,-9.17121],[-40.62209,-9.17016],[-40.62482,-9.17051],[-40.62664,-9.17288],[-40.62879,-9.17459],[-40.63023,-9.17511],[-40.63188,-9.17475],[-40.63334,-9.1752],[-40.63467,-9.17787],[-40.63283,-9.21132],[-40.6314,-9.21537],[-40.63583,-9.21547],[-40.63814,-9.21501],[-40.64191,-9.21215],[-40.64358,-9.20981],[-40.64582,-9.20778],[-40.64669,-9.20621],[-40.64712,-9.20509],[-40.64631,-9.20176],[-40.65294,-9.19972],[-40.65508,-9.19991],[-40.65557,-9.19942],[-40.66015,-9.19828],[-40.66234,-9.20469],[-40.66605,-9.20848],[-40.66692,-9.21228],[-40.66765,-9.21303],[-40.67072,-9.22068],[-40.67473,-9.22862],[-40.67683,-9.22819],[-40.67775,-9.22852],[-40.67905,-9.23072],[-40.67907,-9.23182],[-40.68467,-9.23615],[-40.68654,-9.23817],[-40.68705,-9.23778],[-40.6903,-9.23887],[-40.69085,-9.2374],[-40.69101,-9.23406],[-40.6945,-9.23346],[-40.69345,-9.23128],[-40.6807,-9.2122],[-40.68156,-9.21085],[-40.68221,-9.20801],[-40.68198,-9.20474],[-40.68056,-9.20031],[-40.67822,-9.1963],[-40.67706,-9.19331],[-40.67547,-9.19393],[-40.67336,-9.1928],[-40.67064,-9.18871],[-40.66987,-9.18613],[-40.67025,-9.18384],[-40.67196,-9.18052],[-40.67204,-9.17886],[-40.67053,-9.17535],[-40.67209,-9.17239],[-40.6697,-9.165],[-40.66722,-9.16049],[-40.6674,-9.15906],[-40.67232,-9.1565],[-40.67773,-9.15125],[-40.68281,-9.14112],[-40.68509,-9.13761],[-40.68729,-9.13698],[-40.69029,-9.13795],[-40.6947,-9.14055],[-40.70016,-9.14223],[-40.7062,-9.14201],[-40.70989,-9.14088],[-40.72227,-9.13382],[-40.72887,-9.12885],[-40.73049,-9.12725],[-40.73092,-9.12596],[-40.73254,-9.12401],[-40.73539,-9.12324],[-40.74314,-9.1224],[-40.74508,-9.12158]]]}}]}