{"type":"FeatureCollection","features":[{"type":"Feature","properties":{"regiao":"Bebedouro / Massangano"},"geometry":{"type":"MultiPolygon","coordinates":[[[[-40.76729,-9.4457],[-40.76562,-9.44194],[-40.76315,-9.4412],[-40.76076,-9.44097],[-40.74752,-9.43575],[-40.74114,-9.43436],[-40.73897,-9.43469],[-40.73352,-9.43463],[-40.73129,-9.43428],[-40.72461,-9.43645],[-40.71945,-9.43757],[-40.71574,-9.43898],[-40.71437,-9.43989],[-40.713,-9.44006],[-40.71165,-9.44113],[-40.70523,-9.44408],[-40.70427,-9.44538],[-40.70233,-9.44648],[-40.69029,-9.45046],[-40.6892,-9.45158],[-40.68857,-9.45152],[-40.68481,-9.45448],[-40.68201,-9.45723],[-40.67506,-9.45989],[-40.67282,-9.4617],[-40.67195,-9.46178],[-40.66628,-9.46508],[-40.66115,-9.4663],[-40.65961,-9.46211],[-40.65779,-9.46224],[-40.65428,-9.46169],[-40.64356,-9.46706],[-40.63893,-9.46859],[-40.63643,-9.47012],[-40.63006,-9.47171],[-40.62746,-9.47064],[-40.61612,-9.46847],[-40.60936,-9.46416],[-40.59071,-9.45822],[-40.58129,-9.45194],[-40.57747,-9.45048],[-40.57301,-9.44803],[-40.56913,-9.44472],[-40.57137,-9.43907],[-40.56794,-9.43751],[-40.56725,-9.43759],[-40.56637,-9.43984],[-40.56532,-9.43955],[-40.56393,-9.44281],[-40.55924,-9.44111],[-40.55781,-9.44004],[-40.55514,-9.43691],[-40.55072,-9.427],[-40.54676,-9.41966],[-40.54601,-9.41995],[-40.54217,-9.42366],[-40.54082,-9.42404],[-40.54179,-9.42603],[-40.54371,-9.43254],[-40.54519,-9.4423],[-40.54686,-9.44631],[-40.55066,-9.45218],[-40.55576,-9.45794],[-40.56519,-9.46401],[-40.57486,-9.46741],[-40.58151,-9.46765],[-40.58378,-9.46721],[-40.58745,-9.46574],[-40.59512,-9.46737],[-40.59962,-9.46961],[-40.60856,-9.47679],[-40.61651,-9.48098],[-40.62068,-9.48253],[-40.62317,-9.4829],[-40.6281,-9.48269],[-40.63586,-9.48102],[-40.64349,-9.47817],[-40.64933,-9.47494],[-40.65215,-9.47379],[-40.66295,-9.47172],[-40.68132,-9.46722],[-40.70137,-9.45765],[-40.70819,-9.45324],[-40.71367,-9.45047],[-40.71532,-9.44873],[-40.72218,-9.44595],[-40.73053,-9.44469],[-40.74532,-9.44335],[-40.74984,-9.44385],[-40.75291,-9.4454],[-40.75327,-9.44533],[-40.75289,-9.44516],[-40.75355,-9.44508],[-40.75623,-9.44539],[-40.76581,-9.44771],[-40.76705,-9.44838],[-40.76951,-9.45125],[-40.77402,-9.45258],[-40.77573,-9.45345],[-40.76959,-9.44744],[-40.76729,-9.4457]],[[-40.69059,-9.45921],[-40.68895,-9.45949],[-40.68703,-9.45969],[-40.69002,-9.45886],[-40.69059,-9.45921]],[[-40.69438,-9.45661],[-40.68358,-9.45884],[-40.68889,-9.45391],[-40.69355,-9.45217],[-40.69162,-9.45237],[-40.69377,-9.45086],[-40.69563,-9.45039],[-40.69561,-9.45073],[-40.69422,-9.45128],[-40.69411,-9.45154],[-40.6945,-9.45154],[-40.6964,-9.45041],[-40.70339,-9.44848],[-40.70951,-9.44483],[-40.71194,-9.4442],[-40.71205,-9.44477],[-40.7099,-9.44822],[-40.70388,-9.45377],[-40.69894,-9.45608],[-40.69438,-9.45661]],[[-40.67861,-9.46636],[-40.67563,-9.46721],[-40.67345,-9.46729],[-40.67845,-9.46471],[-40.67985,-9.46427],[-40.6809,-9.46453],[-40.6804,-9.46526],[-40.67861,-9.46636]],[[-40.73772,-9.44028],[-40.73739,-9.44089],[-40.73441,-9.44089],[-40.72933,-9.4403],[-40.72098,-9.4401],[-40.7206,-9.4398],[-40.729,-9.43689],[-40.73263,-9.43633],[-40.73717,-9.43677],[-40.74043,-9.4389],[-40.73772,-9.44028]],[[-40.74651,-9.43762],[-40.74491,-9.43716],[-40.7456,-9.43773],[-40.74536,-9.43797],[-40.74074,-9.43823],[-40.73668,-9.4361],[-40.74213,-9.43594],[-40.74465,-9.43655],[-40.74584,-9.43649],[-40.74651,-9.43762]],[[-40.59972,-9.46772],[-40.59738,-9.4655],[-40.60086,-9.46738],[-40.60389,-9.46833],[-40.60476,-9.46917],[-40.60299,-9.46916],[-40.60145,-9.46864],[-40.59972,-9.46772]],[[-40.62652,-9.48207],[-40.62418,-9.48206],[-40.62064,-9.48139],[-40.61299,-9.47784],[-40.61576,-9.47828],[-40.62159,-9.4784],[-40.62656,-9.48089],[-40.62693,-9.48171],[-40.62652,-9.48207]],[[-40.63472,-9.47998],[-40.63431,-9.47965],[-40.6325,-9.47943],[-40.63471,-9.48027],[-40.63593,-9.48006],[-40.63278,-9.48075],[-40.63155,-9.48064],[-40.63107,-9.4801],[-40.63138,-9.48079],[-40.62742,-9.48125],[-40.62652,-9.4807],[-40.62748,-9.48088],[-40.62704,-9.4804],[-40.62456,-9.47945],[-40.62245,-9.47815],[-40.62491,-9.47807],[-40.63003,-9.47887],[-40.63041,-9.47926],[-40.63102,-9.47872],[-40.6322,-9.47906],[-40.63237,-9.47872],[-40.6341,-9.47864],[-40.63501,-9.4788],[-40.63561,-9.47939],[-40.63543,-9.47987],[-40.63472,-9.47998]],[[-40.64675,-9.47626],[-40.64099,-9.47758],[-40.64003,-9.47852],[-40.63866,-9.47896],[-40.63571,-9.47842],[-40.6378,-9.47862],[-40.63868,-9.47806],[-40.63683,-9.47833],[-40.63595,-9.47801],[-40.63252,-9.47808],[-40.63061,-9.47762],[-40.63152,-9.47722],[-40.63491,-9.47695],[-40.64476,-9.47436],[-40.6459,-9.47435],[-40.64744,-9.47512],[-40.64763,-9.47562],[-40.64675,-9.47626]],[[-40.64926,-9.47402],[-40.64742,-9.47452],[-40.64653,-9.47396],[-40.6481,-9.47362],[-40.64926,-9.47402]],[[-40.65542,-9.47284],[-40.6535,-9.47329],[-40.65467,-9.47276],[-40.65542,-9.47284]],[[-40.65879,-9.47067],[-40.65671,-9.47048],[-40.65861,-9.46996],[-40.65979,-9.47004],[-40.65879,-9.47067]]],[[[-40.29408,-9.13339],[-40.29599,-9.14067],[-40.29587,-9.14649],[-40.29788,-9.15423],[-40.29832,-9.15484],[-40.2982,-9.1557],[-40.30329,-9.15565],[-40.30327,-9.15261],[-40.30431,-9.15124],[-40.31625,-9.14958],[-40.31718,-9.14903],[-40.33923,-9.11925],[-40.33965,-9.11866],[-40.33964,-9.1179],[-40.34981,-9.13511],[-40.35233,-9.13341],[-40.3546,-9.1293],[-40.3577,-9.12706],[-40.36016,-9.12568],[-40.36974,-9.12164],[-40.37072,-9.12091],[-40.37414,-9.11279],[-40.37406,-9.11208],[-40.37291,-9.11105],[-40.37291,-9.11046],[-40.37531,-9.097],[-40.37668,-9.09482],[-40.38423,-9.09368],[-40.38676,-9.09235],[-40.39184,-9.09242],[-40.39605,-9.09165],[-40.3965,-9.09191],[-40.40141,-9.09944],[-40.40195,-9.09969],[-40.4044,-9.09947],[-40.405,-9.09899],[-40.40665,-9.09471],[-40.41181,-9.08719],[-40.41302,-9.08643],[-40.41422,-9.0866],[-40.42027,-9.09043],[-40.42107,-9.09319],[-40.42107,-9.09607],[-40.42314,-9.10599],[-40.4238,-9.10702],[-40.42783,-9.10756],[-40.42887,-9.10867],[-40.42946,-9.10879],[-40.43536,-9.10892],[-40.43768,-9.10801],[-40.43909,-9.10844],[-40.44529,-9.1078],[-40.44616,-9.10381],[-40.44386,-9.09184],[-40.4439,-9.08659],[-40.44283,-9.07694],[-40.43919,-9.07303],[-40.4376,-9.07042],[-40.43622,-9.06687],[-40.43161,-9.06151],[-40.42986,-9.05699],[-40.42977,-9.05432],[-40.43365,-9.05216],[-40.43459,-9.05052],[-40.43554,-9.04965],[-40.43085,-9.02733],[-40.4265,-9.01059],[-40.42772,-9.01067],[-40.4255,-9.00768],[-40.42487,-9.00504],[-40.42327,-9.00369],[-40.42111,-9.00262],[-40.41979,-9.0022],[-40.4182,-9.00256],[-40.41482,-9.00448],[-40.41276,-9.00671],[-40.41088,-9.00787],[-40.40716,-9.00952],[-40.40536,-9.00981],[-40.40403,-9.00887],[-40.40305,-9.00717],[-40.40174,-9.00595],[-40.40121,-9.00426],[-40.39688,-9.0002],[-40.39538,-8.99989],[-40.39448,-9.00034],[-40.38945,-9.00015],[-40.38155,-8.99747],[-40.37787,-8.99764],[-40.37479,-8.99941],[-40.37167,-9.00046],[-40.36778,-9.00001],[-40.36333,-9.00016],[-40.35796,-9.00202],[-40.35223,-9.00273],[-40.34281,-9.00114],[-40.33837,-9.0027],[-40.33678,-9.00374],[-40.33624,-9.00596],[-40.33517,-9.00665],[-40.33325,-9.00885],[-40.33157,-9.01347],[-40.33084,-9.01432],[-40.32799,-9.01586],[-40.32565,-9.01631],[-40.32487,-9.01618],[-40.32127,-9.01271],[-40.31787,-9.01032],[-40.31677,-9.00633],[-40.31618,-9.00565],[-40.31401,-9.00416],[-40.31251,-9.00379],[-40.31053,-9.00161],[-40.30798,-8.9979],[-40.30449,-8.99559],[-40.30173,-8.99501],[-40.29668,-8.99495],[-40.29264,-8.99712],[-40.29155,-8.99992],[-40.28781,-9.0011],[-40.28351,-9.00832],[-40.28153,-9.00879],[-40.28044,-9.00988],[-40.28138,-9.0107],[-40.28106,-9.01142],[-40.28016,-9.01078],[-40.27842,-9.01179],[-40.28,-9.01455],[-40.27891,-9.01517],[-40.29334,-9.03957],[-40.29064,-9.04111],[-40.28944,-9.03896],[-40.28507,-9.04105],[-40.28348,-9.04108],[-40.27285,-9.04824],[-40.2697,-9.05372],[-40.2668,-9.05674],[-40.26571,-9.05575],[-40.26004,-9.06108],[-40.26243,-9.06309],[-40.26259,-9.06367],[-40.26427,-9.06529],[-40.26734,-9.06763],[-40.27074,-9.07094],[-40.27364,-9.0747],[-40.27852,-9.08242],[-40.28197,-9.09153],[-40.28475,-9.10414],[-40.28542,-9.10532],[-40.28527,-9.10605],[-40.28979,-9.11349],[-40.29048,-9.11523],[-40.29096,-9.11803],[-40.29213,-9.12163],[-40.29261,-9.12606],[-40.29355,-9.1281],[-40.29408,-9.13339]]]]}},{"type":"Feature","properties":{"regiao":"Centro"},"geometry":{"type":"MultiPolygon","coordinates":[[[[-40.51111,-9.40729],[-40.51206,-9.39727],[-40.51521,-9.3967],[-40.51403,-9.3937],[-40.51329,-9.39326],[-40.50978,-9.39474],[-40.50796,-9.39507],[-40.5064,-9.39684],[-40.50592,-9.39627],[-40.50776,-9.39216],[-40.50621,-9.39136],[-40.5056,-9.39142],[-40.5053,-9.38907],[-40.50706,-9.38886],[-40.50891,-9.38921],[-40.51105,-9.38068],[-40.5078,-9.37924],[-40.50675,-9.38045],[-40.50569,-9.38099],[-40.50343,-9.38124],[-40.50336,-9.38058],[-40.50091,-9.38123],[-40.50122,-9.38368],[-40.49699,-9.38597],[-40.4971,-9.38729],[-40.49796,-9.38673],[-40.50025,-9.38726],[-40.50104,-9.38778],[-40.50259,-9.39029],[-40.49606,-9.39516],[-40.49453,-9.39591],[-40.49631,-9.39573],[-40.49629,-9.39678],[-40.49447,-9.39696],[-40.49455,-9.39814],[-40.49199,-9.39819],[-40.48984,-9.39429],[-40.49036,-9.39414],[-40.49054,-9.39229],[-40.49213,-9.39109],[-40.49141,-9.39112],[-40.4914,-9.39066],[-40.4892,-9.39072],[-40.4896,-9.39369],[-40.48667,-9.39415],[-40.4874,-9.39625],[-40.48614,-9.39561],[-40.48509,-9.39439],[-40.484,-9.39803],[-40.4864,-9.39911],[-40.48586,-9.40099],[-40.48264,-9.39994],[-40.47784,-9.40085],[-40.47622,-9.40055],[-40.4723,-9.40779],[-40.47695,-9.40934],[-40.47929,-9.40928],[-40.4804,-9.40894],[-40.48057,-9.40858],[-40.48458,-9.40799],[-40.48825,-9.4067],[-40.49226,-9.40644],[-40.4931,-9.40574],[-40.4935,-9.40619],[-40.49429,-9.40617],[-40.49446,-9.40541],[-40.49519,-9.40921],[-40.4972,-9.40857],[-40.50145,-9.4093],[-40.51111,-9.40729]]],[[[-40.51802,-9.39604],[-40.51704,-9.39634],[-40.51721,-9.3974],[-40.51798,-9.39739],[-40.51802,-9.39604]]]]}},{"type":"Feature","properties":{"regiao":"Curral Queimado (rural)"},"geometry":{"type":"Polygon","coordinates":[[[-40.59174,-9.28329],[-40.56213,-9.33388],[-40.56602,-9.336],[-40.56646,-9.33514],[-40.56726,-9.33556],[-40.56613,-9.33753],[-40.56729,-9.33727],[-40.56806,-9.33608],[-40.56961,-9.33736],[-40.56963,-9.33915],[-40.57104,-9.34011],[-40.57186,-9.34116],[-40.57631,-9.33787],[-40.57634,-9.33743],[-40.58059,-9.33351],[-40.58299,-9.33198],[-40.58465,-9.33438],[-40.58634,-9.33256],[-40.58878,-9.331],[-40.58854,-9.3283],[-40.59512,-9.32936],[-40.59438,-9.32857],[-40.59673,-9.32558],[-40.60312,-9.32289],[-40.60614,-9.32379],[-40.60689,-9.32136],[-40.6078,-9.32161],[-40.60808,-9.31893],[-40.60599,-9.31826],[-40.60688,-9.31766],[-40.60721,-9.31643],[-40.6079,-9.31553],[-40.61005,-9.31803],[-40.61443,-9.30892],[-40.61732,-9.30546],[-40.62324,-9.30747],[-40.62443,-9.30708],[-40.62521,-9.30311],[-40.62667,-9.30322],[-40.62669,-9.30028],[-40.63104,-9.30075],[-40.63299,-9.30047],[-40.63294,-9.29771],[-40.63329,-9.29701],[-40.63521,-9.29568],[-40.63629,-9.29147],[-40.63835,-9.29195],[-40.63952,-9.29352],[-40.64034,-9.29375],[-40.64122,-9.29321],[-40.64158,-9.29229],[-40.64236,-9.29162],[-40.64422,-9.29159],[-40.64541,-9.29077],[-40.64655,-9.29144],[-40.64793,-9.29093],[-40.65308,-9.29015],[-40.65852,-9.28713],[-40.65915,-9.28612],[-40.65918,-9.28337],[-40.66065,-9.28257],[-40.66089,-9.28186],[-40.6606,-9.27808],[-40.6613,-9.27745],[-40.66153,-9.2764],[-40.66303,-9.27508],[-40.6629,-9.2734],[-40.66364,-9.27261],[-40.66356,-9.27208],[-40.66609,-9.27153],[-40.66719,-9.27065],[-40.66848,-9.27044],[-40.6705,-9.26938],[-40.67778,-9.27159],[-40.67858,-9.27141],[-40.68562,-9.27458],[-40.6849,-9.27103],[-40.68115,-9.26348],[-40.68009,-9.25921],[-40.68048,-9.25769],[-40.6827,-9.25731],[-40.68666,-9.25802],[-40.68924,-9.25699],[-40.69026,-9.25264],[-40.6901,-9.25145],[-40.68743,-9.24668],[-40.68646,-9.24355],[-40.68706,-9.24226],[-40.68946,-9.24113],[-40.6903,-9.23887],[-40.68705,-9.23778],[-40.68654,-9.23817],[-40.68467,-9.23615],[-40.67907,-9.23182],[-40.67905,-9.23072],[-40.67775,-9.22852],[-40.67683,-9.22819],[-40.67473,-9.22862],[-40.67072,-9.22068],[-40.66765,-9.21303],[-40.66692,-9.21228],[-40.66605,-9.20848],[-40.66234,-9.20469],[-40.66015,-9.19828],[-40.65557,-9.19942],[-40.65508,-9.19991],[-40.65294,-9.19972],[-40.64992,-9.20092],[-40.64631,-9.20176],[-40.64634,-9.20301],[-40.64712,-9.20509],[-40.64669,-9.20621],[-40.64582,-9.20778],[-40.64358,-9.20981],[-40.64191,-9.21215],[-40.6405,-9.21289],[-40.63814,-9.21501],[-40.63583,-9.21547],[-40.6314,-9.21537],[-40.61365,-9.24576],[-40.61301,-9.24515],[-40.61075,-9.24436],[-40.59974,-9.24659],[-40.59924,-9.24606],[-40.59792,-9.23652],[-40.5918,-9.23761],[-40.5822,-9.23387],[-40.57829,-9.23306],[-40.57068,-9.23038],[-40.56841,-9.23035],[-40.55958,-9.23196],[-40.56086,-9.24712],[-40.56565,-9.24674],[-40.5658,-9.24873],[-40.56467,-9.25045],[-40.56503,-9.25051],[-40.56669,-9.24911],[-40.567,-9.25191],[-40.56949,-9.25161],[-40.56935,-9.25604],[-40.56581,-9.25498],[-40.56114,-9.25078],[-40.55954,-9.25154],[-40.55731,-9.25193],[-40.55773,-9.2537],[-40.55608,-9.25673],[-40.55644,-9.25909],[-40.55363,-9.26198],[-40.55368,-9.26285],[-40.55892,-9.26655],[-40.55884,-9.26838],[-40.56008,-9.27104],[-40.56481,-9.27682],[-40.56518,-9.27888],[-40.56553,-9.279],[-40.56606,-9.2784],[-40.56717,-9.27567],[-40.57194,-9.27189],[-40.57304,-9.27173],[-40.57915,-9.27416],[-40.57946,-9.27465],[-40.57928,-9.27577],[-40.58093,-9.27601],[-40.58127,-9.27557],[-40.58623,-9.27825],[-40.59147,-9.28299],[-40.59174,-9.28329]],[[-40.58962,-9.30846],[-40.59108,-9.31174],[-40.59113,-9.3137],[-40.59461,-9.31476],[-40.59249,-9.31812],[-40.59147,-9.31778],[-40.59106,-9.31664],[-40.58954,-9.31634],[-40.58964,-9.31532],[-40.58714,-9.315],[-40.58674,-9.31232],[-40.58004,-9.31026],[-40.58253,-9.30588],[-40.58962,-9.30846]]]}},{"type":"Feature","properties":{"regiao":"Projetos irrigados (Nilo Coelho / Maria Tereza)"},"geometry":{"type":"MultiPolygon","coordinates":[[[[-40.5818,-9.3949],[-40.74349,-9.39828],[-40.74411,-9.39645],[-40.74375,-9.39108],[-40.74254,-9.38331],[-40.74352,-9.37941],[-40.74587,-9.37481],[-40.74648,-9.37105],[-40.74453,-9.36483],[-40.73974,-9.35829],[-40.7381,-9.35524],[-40.73821,-9.3532],[-40.74094,-9.34837],[-40.7414,-9.34678],[-40.74067,-9.34316],[-40.73765,-9.33875],[-40.73729,-9.33687],[-40.73935,-9.33134],[-40.74231,-9.32721],[-40.75163,-9.31828],[-40.75501,-9.31705],[-40.75642,-9.31503],[-40.75375,-9.31025],[-40.75159,-9.30803],[-40.74906,-9.30746],[-40.74746,-9.30662],[-40.74398,-9.30623],[-40.7429,-9.30428],[-40.74245,-9.30224],[-40.74262,-9.30051],[-40.74184,-9.29887],[-40.73944,-9.29659],[-40.73745,-9.29678],[-40.73414,-9.29987],[-40.73043,-9.30148],[-40.72865,-9.30312],[-40.72501,-9.30446],[-40.72325,-9.30567],[-40.72009,-9.3059],[-40.71682,-9.30388],[-40.71407,-9.30038],[-40.70829,-9.29608],[-40.70731,-9.29455],[-40.70706,-9.29294],[-40.70869,-9.28688],[-40.70759,-9.28535],[-40.70604,-9.28504],[-40.70129,-9.28233],[-40.69225,-9.28123],[-40.68723,-9.27833],[-40.68599,-9.27637],[-40.68562,-9.27458],[-40.68514,-9.27415],[-40.67858,-9.27141],[-40.67778,-9.27159],[-40.66997,-9.26941],[-40.66848,-9.27044],[-40.66719,-9.27065],[-40.66609,-9.27153],[-40.66356,-9.27208],[-40.66364,-9.27261],[-40.6629,-9.2734],[-40.66303,-9.27508],[-40.66153,-9.2764],[-40.6613,-9.27745],[-40.6606,-9.27808],[-40.66089,-9.28186],[-40.66065,-9.28257],[-40.65918,-9.28337],[-40.65915,-9.28612],[-40.65852,-9.28713],[-40.65308,-9.29015],[-40.64793,-9.29093],[-40.64655,-9.29144],[-40.64541,-9.29077],[-40.64422,-9.29159],[-40.64236,-9.29162],[-40.64158,-9.29229],[-40.64122,-9.29321],[-40.64034,-9.29375],[-40.63952,-9.29352],[-40.63835,-9.29195],[-40.63629,-9.29147],[-40.63521,-9.29568],[-40.63329,-9.29701],[-40.63294,-9.29771],[-40.63299,-9.30047],[-40.63104,-9.30075],[-40.62669,-9.30028],[-40.62667,-9.30322],[-40.62521,-9.30311],[-40.62443,-9.30708],[-40.62324,-9.30747],[-40.61732,-9.30546],[-40.61443,-9.30892],[-40.61005,-9.31803],[-40.6079,-9.31553],[-40.60721,-9.31643],[-40.60688,-9.31766],[-40.60599,-9.31826],[-40.60808,-9.31893],[-40.6078,-9.32161],[-40.60689,-9.32136],[-40.60614,-9.32379],[-40.60312,-9.32289],[-40.59673,-9.32558],[-40.59438,-9.32857],[-40.59512,-9.32936],[-40.58854,-9.3283],[-40.58878,-9.331],[-40.58634,-9.33256],[-40.58465,-9.33438],[-40.58299,-9.33198],[-40.58059,-9.33351],[-40.57634,-9.33743],[-40.57631,-9.33787],[-40.57186,-9.34116],[-40.57104,-9.34011],[-40.56963,-9.33915],[-40.56961,-9.33736],[-40.56806,-9.33608],[-40.56729,-9.33727],[-40.56613,-9.33753],[-40.56726,-9.33556],[-40.56646,-9.33514],[-40.56602,-9.336],[-40.56213,-9.33388],[-40.59174,-9.28329],[-40.58623,-9.27825],[-40.58127,-9.27557],[-40.58093,-9.27601],[-40.57928,-9.27577],[-40.57946,-9.27465],[-40.57915,-9.27416],[-40.57304,-9.27173],[-40.57194,-9.27189],[-40.56717,-9.27567],[-40.56606,-9.2784],[-40.56541,-9.27902],[-40.56503,-9.27868],[-40.56481,-9.27682],[-40.56008,-9.27104],[-40.55884,-9.26838],[-40.55892,-9.26655],[-40.55368,-9.26285],[-40.55363,-9.26198],[-40.55644,-9.25909],[-40.55608,-9.25673],[-40.55773,-9.2537],[-40.55731,-9.25193],[-40.55954,-9.25154],[-40.56114,-9.25078],[-40.56581,-9.25498],[-40.56935,-9.25604],[-40.56949,-9.25161],[-40.567,-9.25191],[-40.56669,-9.24911],[-40.56503,-9.25051],[-40.56467,-9.25045],[-40.5658,-9.24873],[-40.56565,-9.24674],[-40.56086,-9.24712],[-40.55958,-9.23196],[-40.56841,-9.23035],[-40.57068,-9.23038],[-40.57829,-9.23306],[-40.5822,-9.23387],[-40.5918,-9.23761],[-40.59792,-9.23652],[-40.59924,-9.24606],[-40.59974,-9.24659],[-40.61075,-9.24436],[-40.61301,-9.24515],[-40.61365,-9.24576],[-40.6314,-9.21537],[-40.63243,-9.21309],[-40.63283,-9.21132],[-40.63448,-9.18161],[-40.63467,-9.17787],[-40.63436,-9.17708],[-40.63293,-9.17495],[-40.63188,-9.17475],[-40.63023,-9.17511],[-40.62879,-9.17459],[-40.62664,-9.17288],[-40.62482,-9.17051],[-40.62209,-9.17016],[-40.61887,-9.17121],[-40.61621,-9.1705],[-40.61408,-9.17041],[-40.61158,-9.17396],[-40.6111,-9.17289],[-40.6107,-9.17279],[-40.60814,-9.17259],[-40.60499,-9.17303],[-40.60371,-9.17269],[-40.60221,-9.17407],[-40.59784,-9.17506],[-40.59744,-9.17359],[-40.59353,-9.17374],[-40.59014,-9.16843],[-40.58809,-9.16467],[-40.58796,-9.16385],[-40.58737,-9.16323],[-40.5877,-9.16148],[-40.58737,-9.16119],[-40.58845,-9.15984],[-40.59244,-9.13262],[-40.5891,-9.11761],[-40.58893,-9.11531],[-40.58483,-9.11241],[-40.58172,-9.11225],[-40.58059,-9.1116],[-40.57969,-9.10839],[-40.57798,-9.10768],[-40.57681,-9.10286],[-40.57711,-9.10068],[-40.57543,-9.09807],[-40.57527,-9.09679],[-40.57555,-9.09566],[-40.57806,-9.09456],[-40.57849,-9.09298],[-40.57411,-9.09228],[-40.57354,-9.09099],[-40.57394,-9.09042],[-40.57046,-9.08846],[-40.56946,-9.08712],[-40.56856,-9.08447],[-40.56772,-9.08388],[-40.56566,-9.08349],[-40.56479,-9.08237],[-40.56485,-9.08011],[-40.56542,-9.07954],[-40.56555,-9.07588],[-40.56616,-9.07361],[-40.56595,-9.07177],[-40.5643,-9.0688],[-40.55979,-9.06495],[-40.55837,-9.06191],[-40.55734,-9.06134],[-40.55503,-9.05896],[-40.5539,-9.0554],[-40.55377,-9.04985],[-40.55311,-9.04887],[-40.55052,-9.04755],[-40.54861,-9.0437],[-40.54638,-9.0299],[-40.53452,-9.00612],[-40.53283,-8.99853],[-40.53284,-8.99352],[-40.53121,-8.99022],[-40.53035,-8.99513],[-40.53234,-9.0038],[-40.53192,-9.00534],[-40.52891,-9.00722],[-40.52622,-9.00812],[-40.52297,-9.00851],[-40.51629,-9.00701],[-40.51472,-9.00765],[-40.51381,-9.00853],[-40.51257,-9.0116],[-40.51175,-9.01242],[-40.51051,-9.01293],[-40.50917,-9.01247],[-40.50666,-9.00963],[-40.50438,-9.00849],[-40.50369,-9.00851],[-40.50295,-9.01032],[-40.50099,-9.01213],[-40.49794,-9.01354],[-40.496,-9.01384],[-40.49193,-9.0124],[-40.48954,-9.01208],[-40.48651,-9.01007],[-40.4863,-9.00941],[-40.4842,-9.00791],[-40.48187,-9.00722],[-40.48069,-9.00789],[-40.48004,-9.00916],[-40.47665,-9.01325],[-40.47326,-9.01548],[-40.47073,-9.01615],[-40.46713,-9.01431],[-40.4615,-9.00996],[-40.45962,-9.00718],[-40.45299,-9.00832],[-40.45094,-9.0094],[-40.44927,-9.01144],[-40.44733,-9.01245],[-40.44389,-9.01186],[-40.44341,-9.01159],[-40.44348,-9.00808],[-40.44538,-9.00381],[-40.44519,-9.00215],[-40.44376,-9.00142],[-40.44286,-9.00117],[-40.44175,-9.00146],[-40.43794,-9.00381],[-40.43455,-9.00478],[-40.43394,-9.00838],[-40.43269,-9.00984],[-40.43118,-9.01092],[-40.4265,-9.01059],[-40.43085,-9.02733],[-40.43554,-9.04965],[-40.43459,-9.05052],[-40.43365,-9.05216],[-40.42977,-9.05432],[-40.42986,-9.05699],[-40.43161,-9.06151],[-40.43622,-9.06687],[-40.4376,-9.07042],[-40.43919,-9.07303],[-40.44283,-9.07694],[-40.4439,-9.08659],[-40.44386,-9.09184],[-40.44616,-9.10381],[-40.44529,-9.1078],[-40.45323,-9.10691],[-40.45692,-9.10078],[-40.45754,-9.10043],[-40.45972,-9.10085],[-40.46329,-9.10653],[-40.46614,-9.10803],[-40.46798,-9.10669],[-40.46965,-9.10621],[-40.4713,-9.10468],[-40.47279,-9.10396],[-40.47331,-9.10321],[-40.47309,-9.10096],[-40.47597,-9.09906],[-40.47916,-9.0922],[-40.48023,-9.0851],[-40.48612,-9.08026],[-40.4914,-9.08163],[-40.49312,-9.08129],[-40.49519,-9.07864],[-40.4929,-9.07252],[-40.49355,-9.07174],[-40.49593,-9.07076],[-40.50755,-9.10984],[-40.50537,-9.1107],[-40.50574,-9.11229],[-40.5062,-9.11271],[-40.5069,-9.11485],[-40.50889,-9.11439],[-40.50943,-9.1153],[-40.51136,-9.11471],[-40.51079,-9.11243],[-40.51682,-9.11065],[-40.51813,-9.11528],[-40.51949,-9.12855],[-40.52491,-9.14228],[-40.52595,-9.14235],[-40.52595,-9.1476],[-40.52906,-9.14901],[-40.53323,-9.14875],[-40.5333,-9.15653],[-40.54291,-9.15665],[-40.54289,-9.15867],[-40.54473,-9.15865],[-40.54676,-9.15946],[-40.54759,-9.16157],[-40.55026,-9.16431],[-40.55157,-9.16516],[-40.55186,-9.16563],[-40.55187,-9.16799],[-40.55223,-9.16851],[-40.55766,-9.1706],[-40.55998,-9.1736],[-40.5631,-9.17325],[-40.56186,-9.18003],[-40.56143,-9.18],[-40.56135,-9.18123],[-40.55896,-9.18155],[-40.5602,-9.18313],[-40.55828,-9.18458],[-40.56003,-9.18798],[-40.55681,-9.19062],[-40.55748,-9.19146],[-40.55807,-9.19102],[-40.55874,-9.19178],[-40.55955,-9.19036],[-40.5606,-9.19004],[-40.55941,-9.19784],[-40.55857,-9.19762],[-40.55738,-9.20702],[-40.55739,-9.20885],[-40.55795,-9.2089],[-40.5536,-9.23799],[-40.54588,-9.23516],[-40.54322,-9.2371],[-40.53916,-9.2371],[-40.53418,-9.23342],[-40.53137,-9.23566],[-40.52725,-9.23573],[-40.52519,-9.23796],[-40.51225,-9.23753],[-40.51218,-9.23544],[-40.50386,-9.23563],[-40.50378,-9.23493],[-40.50318,-9.2343],[-40.49633,-9.23179],[-40.48972,-9.23556],[-40.48891,-9.23642],[-40.48527,-9.23819],[-40.47474,-9.23918],[-40.46588,-9.24431],[-40.46342,-9.24484],[-40.48491,-9.2968],[-40.48402,-9.30114],[-40.47318,-9.29854],[-40.47067,-9.29745],[-40.47214,-9.29842],[-40.47222,-9.29887],[-40.47219,-9.30252],[-40.47071,-9.30662],[-40.47082,-9.3085],[-40.4715,-9.30966],[-40.47426,-9.31066],[-40.4722,-9.31916],[-40.50251,-9.33455],[-40.50298,-9.33378],[-40.50251,-9.33351],[-40.50381,-9.33182],[-40.50305,-9.331],[-40.50387,-9.32936],[-40.50768,-9.32822],[-40.50812,-9.32916],[-40.50802,-9.33161],[-40.50948,-9.33189],[-40.51053,-9.33329],[-40.51123,-9.3329],[-40.51275,-9.33632],[-40.51231,-9.33654],[-40.51269,-9.33797],[-40.52189,-9.34043],[-40.52475,-9.34036],[-40.53209,-9.34423],[-40.53402,-9.34551],[-40.53401,-9.34632],[-40.53473,-9.34662],[-40.53523,-9.34552],[-40.53558,-9.34554],[-40.53715,-9.34676],[-40.53675,-9.34766],[-40.54183,-9.35038],[-40.54201,-9.35008],[-40.54372,-9.35087],[-40.54543,-9.35002],[-40.5465,-9.34821],[-40.55224,-9.35078],[-40.54846,-9.35724],[-40.55078,-9.3583],[-40.55283,-9.3706],[-40.55321,-9.37508],[-40.55348,-9.37587],[-40.55417,-9.37625],[-40.55451,-9.37964],[-40.55485,-9.3799],[-40.55525,-9.38257],[-40.55728,-9.38204],[-40.56492,-9.39251],[-40.58097,-9.3926],[-40.5818,-9.3949]],[[-40.48584,-9.30666],[-40.48693,-9.30206],[-40.48913,-9.30224],[-40.49043,-9.30589],[-40.48684,-9.30796],[-40.48584,-9.30666]]],[[[-40.58714,-9.315],[-40.58964,-9.31532],[-40.58954,-9.31634],[-40.59106,-9.31664],[-40.59147,-9.31778],[-40.59249,-9.31812],[-40.59461,-9.31476],[-40.59113,-9.3137],[-40.59108,-9.31174],[-40.59011,-9.31026],[-40.58962,-9.30846],[-40.58253,-9.30588],[-40.58004,-9.31026],[-40.58674,-9.31232],[-40.58714,-9.315]]],[[[-40.39083,-9.31813],[-40.39641,-9.32603],[-40.39903,-9.3311],[-40.40012,-9.32996],[-40.40455,-9.32818],[-40.42586,-9.3241],[-40.42392,-9.32137],[-40.42678,-9.32062],[-40.42819,-9.31963],[-40.43073,-9.323],[-40.43215,-9.32401],[-40.43612,-9.32866],[-40.4387,-9.33047],[-40.44553,-9.3339],[-40.44579,-9.32703],[-40.44269,-9.32791],[-40.44265,-9.31967],[-40.44334,-9.31804],[-40.45023,-9.30873],[-40.45101,-9.30649],[-40.45421,-9.30884],[-40.42222,-9.24649],[-40.41644,-9.24825],[-40.41436,-9.24827],[-40.41269,-9.24871],[-40.40854,-9.25314],[-40.40679,-9.25298],[-40.40443,-9.25449],[-40.4001,-9.25574],[-40.3994,-9.25522],[-40.39782,-9.25741],[-40.39257,-9.26033],[-40.38634,-9.26515],[-40.37127,-9.24586],[-40.37106,-9.24608],[-40.36949,-9.24561],[-40.36536,-9.2456],[-40.36301,-9.24511],[-40.36007,-9.24531],[-40.35906,-9.2458],[-40.35695,-9.24474],[-40.35442,-9.24578],[-40.3526,-9.24546],[-40.34923,-9.24326],[-40.34336,-9.24547],[-40.3403,-9.24482],[-40.33709,-9.24684],[-40.33505,-9.24734],[-40.33443,-9.24801],[-40.33179,-9.24902],[-40.33058,-9.25005],[-40.32987,-9.25031],[-40.32743,-9.25015],[-40.32578,-9.25078],[-40.32458,-9.24784],[-40.32301,-9.24585],[-40.32095,-9.24174],[-40.31725,-9.23031],[-40.31314,-9.23096],[-40.31287,-9.23204],[-40.30854,-9.23372],[-40.31013,-9.23698],[-40.3106,-9.23917],[-40.31051,-9.24211],[-40.31136,-9.24427],[-40.31538,-9.25002],[-40.31587,-9.24988],[-40.3179,-9.25221],[-40.3187,-9.25388],[-40.31858,-9.25426],[-40.31924,-9.25508],[-40.31959,-9.25759],[-40.32484,-9.25578],[-40.32705,-9.26089],[-40.32946,-9.2621],[-40.33009,-9.2628],[-40.33318,-9.27109],[-40.33409,-9.27121],[-40.33797,-9.27348],[-40.34242,-9.27194],[-40.34572,-9.27789],[-40.34837,-9.27598],[-40.35871,-9.2732],[-40.36384,-9.27141],[-40.37243,-9.27065],[-40.37251,-9.27169],[-40.37328,-9.272],[-40.37408,-9.2734],[-40.3741,-9.27429],[-40.37264,-9.27636],[-40.37441,-9.28256],[-40.3742,-9.28362],[-40.3724,-9.2853],[-40.372,-9.28679],[-40.37017,-9.28684],[-40.36848,-9.28812],[-40.36842,-9.28862],[-40.36942,-9.28996],[-40.36805,-9.29187],[-40.38501,-9.30824],[-40.38818,-9.31063],[-40.38934,-9.31383],[-40.39016,-9.31464],[-40.39085,-9.3163],[-40.39083,-9.31813]]],[[[-40.46469,-9.28932],[-40.46483,-9.29019],[-40.46559,-9.29022],[-40.46559,-9.29087],[-40.4664,-9.29042],[-40.46823,-9.2864],[-40.46563,-9.28252],[-40.46429,-9.28185],[-40.46249,-9.28155],[-40.46221,-9.27756],[-40.46299,-9.27701],[-40.46337,-9.27563],[-40.46047,-9.27502],[-40.45951,-9.27534],[-40.45913,-9.27629],[-40.45776,-9.27689],[-40.45797,-9.28008],[-40.45441,-9.27995],[-40.45496,-9.28211],[-40.45513,-9.28255],[-40.45713,-9.28177],[-40.46066,-9.28147],[-40.46113,-9.28183],[-40.45994,-9.28328],[-40.46042,-9.28329],[-40.46003,-9.28625],[-40.46052,-9.28928],[-40.46469,-9.28932]]]]}},{"type":"Feature","properties":{"regiao":"Rajada / Cristália"},"geometry":{"type":"MultiPolygon","coordinates":[[[[-40.63467,-9.17787],[-40.63283,-9.21132],[-40.6314,-9.21537],[-40.63583,-9.21547],[-40.63814,-9.21501],[-40.6405,-9.21289],[-40.64191,-9.21215],[-40.64358,-9.20981],[-40.64582,-9.20778],[-40.64669,-9.20621],[-40.64712,-9.20509],[-40.64634,-9.20301],[-40.64631,-9.20176],[-40.64992,-9.20092],[-40.65294,-9.19972],[-40.65508,-9.19991],[-40.65557,-9.19942],[-40.66015,-9.19828],[-40.66234,-9.20469],[-40.66605,-9.20848],[-40.66692,-9.21228],[-40.66765,-9.21303],[-40.67072,-9.22068],[-40.67473,-9.22862],[-40.67683,-9.22819],[-40.67775,-9.22852],[-40.67905,-9.23072],[-40.67907,-9.23182],[-40.68467,-9.23615],[-40.68654,-9.23817],[-40.68705,-9.23778],[-40.6903,-9.23887],[-40.69085,-9.2374],[-40.69101,-9.23406],[-40.6945,-9.23346],[-40.69345,-9.23128],[-40.6807,-9.2122],[-40.68156,-9.21085],[-40.68221,-9.20801],[-40.68198,-9.20474],[-40.68056,-9.20031],[-40.67822,-9.1963],[-40.67706,-9.19331],[-40.67547,-9.19393],[-40.67336,-9.1928],[-40.67064,-9.18871],[-40.66987,-9.18613],[-40.67025,-9.18384],[-40.67196,-9.18052],[-40.67204,-9.17886],[-40.67053,-9.17535],[-40.67209,-9.17239],[-40.6697,-9.165],[-40.66722,-9.16049],[-40.6674,-9.15906],[-40.67232,-9.1565],[-40.67773,-9.15125],[-40.68281,-9.14112],[-40.68509,-9.13761],[-40.68729,-9.13698],[-40.69029,-9.13795],[-40.6947,-9.14055],[-40.70016,-9.14223],[-40.7062,-9.14201],[-40.70989,-9.14088],[-40.72227,-9.13382],[-40.72887,-9.12885],[-40.73049,-9.12725],[-40.73092,-9.12596],[-40.73254,-9.12401],[-40.73539,-9.12324],[-40.74314,-9.1224],[-40.74483,-9.12176],[-40.75039,-9.11789],[-40.75534,-9.11997],[-40.75706,-9.11984],[-40.7577,-9.11863],[-40.7577,-9.11519],[-40.75629,-9.11169],[-40.75737,-9.10801],[-40.75678,-9.10498],[-40.76317,-9.10694],[-40.76662,-9.10535],[-40.76948,-9.10318],[-40.77509,-9.10088],[-40.77726,-9.10067],[-40.77979,-9.10142],[-40.78368,-9.10439],[-40.7861,-9.10519],[-40.78745,-9.10407],[-40.78759,-9.10063],[-40.78946,-9.09895],[-40.79378,-9.09872],[-40.79892,-9.0992],[-40.8041,-9.09834],[-40.80887,-9.09369],[-40.80982,-9.09228],[-40.81076,-9.08595],[-40.81196,-9.0844],[-40.81319,-9.08317],[-40.8184,-9.08218],[-40.82007,-9.08126],[-40.82101,-9.07989],[-40.82132,-9.07808],[-40.81915,-9.06909],[-40.82114,-9.0654],[-40.82359,-9.06211],[-40.8242,-9.05737],[-40.82307,-9.05198],[-40.8253,-9.04564],[-40.82491,-9.03998],[-40.82523,-9.03819],[-40.82637,-9.03681],[-40.82996,-9.03399],[-40.83221,-9.03116],[-40.83204,-9.02983],[-40.83024,-9.0267],[-40.83145,-9.02396],[-40.83281,-9.02307],[-40.83422,-9.02099],[-40.83496,-9.01462],[-40.83437,-9.01052],[-40.83501,-9.00869],[-40.83684,-9.00562],[-40.84135,-9.00199],[-40.84196,-9.00058],[-40.84466,-8.99761],[-40.84596,-8.99685],[-40.84684,-8.99554],[-40.84778,-8.99164],[-40.84959,-8.98881],[-40.85196,-8.98258],[-40.85105,-8.95756],[-40.85101,-8.95424],[-40.8516,-8.9525],[-40.85274,-8.95121],[-40.85554,-8.94947],[-40.85878,-8.94922],[-40.86132,-8.94802],[-40.86332,-8.94272],[-40.86552,-8.93227],[-40.8654,-8.92682],[-40.86628,-8.92339],[-40.86897,-8.92107],[-40.87254,-8.91907],[-40.87831,-8.91743],[-40.88123,-8.91563],[-40.88202,-8.91364],[-40.88218,-8.90954],[-40.88344,-8.90486],[-40.88539,-8.9024],[-40.88888,-8.89898],[-40.89301,-8.89117],[-40.89504,-8.88909],[-40.89546,-8.88389],[-40.89674,-8.8807],[-40.8964,-8.87103],[-40.89685,-8.87005],[-40.90151,-8.8665],[-40.90304,-8.85862],[-40.9069,-8.85686],[-40.91498,-8.84952],[-40.91696,-8.84453],[-40.91846,-8.83888],[-40.91924,-8.83718],[-40.92134,-8.83543],[-40.92424,-8.83539],[-40.92728,-8.83589],[-40.93103,-8.8372],[-40.94638,-8.845],[-40.9484,-8.84485],[-40.9516,-8.84353],[-40.95486,-8.84388],[-40.95904,-8.84198],[-40.95639,-8.83744],[-40.9531,-8.83462],[-40.95098,-8.83188],[-40.94839,-8.83044],[-40.94446,-8.82448],[-40.94435,-8.82326],[-40.94294,-8.82018],[-40.94171,-8.81381],[-40.94381,-8.80917],[-40.94213,-8.80339],[-40.9425,-8.80155],[-40.94228,-8.79685],[-40.94356,-8.79307],[-40.94282,-8.79035],[-40.94448,-8.78808],[-40.94356,-8.78637],[-40.94214,-8.78535],[-40.94118,-8.78226],[-40.93955,-8.78027],[-40.93894,-8.77861],[-40.93794,-8.77756],[-40.9348,-8.77693],[-40.93332,-8.77463],[-40.93004,-8.77289],[-40.92933,-8.77112],[-40.93032,-8.7691],[-40.92999,-8.76845],[-40.92869,-8.7683],[-40.92621,-8.7696],[-40.92573,-8.7703],[-40.92566,-8.77351],[-40.92448,-8.77416],[-40.9199,-8.77205],[-40.9182,-8.77234],[-40.91119,-8.77586],[-40.75825,-8.6235],[-40.57926,-8.66726],[-40.42948,-8.64451],[-40.42479,-8.65022],[-40.42146,-8.65629],[-40.41919,-8.65837],[-40.41818,-8.6608],[-40.41799,-8.66454],[-40.41633,-8.66813],[-40.41532,-8.66844],[-40.40632,-8.67788],[-40.40529,-8.6855],[-40.40458,-8.68742],[-40.40306,-8.68884],[-40.39936,-8.68931],[-40.39673,-8.69074],[-40.39409,-8.69125],[-40.39308,-8.69237],[-40.39315,-8.69615],[-40.39397,-8.69787],[-40.39285,-8.69898],[-40.39418,-8.70019],[-40.39231,-8.70429],[-40.39324,-8.70722],[-40.39233,-8.70894],[-40.39234,-8.71065],[-40.39356,-8.71176],[-40.39464,-8.71433],[-40.39505,-8.71666],[-40.39698,-8.71867],[-40.39688,-8.71938],[-40.39557,-8.7198],[-40.39634,-8.72347],[-40.39272,-8.72802],[-40.3945,-8.73424],[-40.39503,-8.73818],[-40.39717,-8.73968],[-40.39717,-8.7415],[-40.39835,-8.74286],[-40.39815,-8.74448],[-40.39593,-8.74802],[-40.39604,-8.74944],[-40.39792,-8.75079],[-40.40066,-8.75189],[-40.40189,-8.75432],[-40.39986,-8.75564],[-40.39967,-8.75695],[-40.39891,-8.75811],[-40.40034,-8.76074],[-40.39751,-8.76418],[-40.39327,-8.77356],[-40.3943,-8.77485],[-40.39594,-8.77416],[-40.39775,-8.77681],[-40.39784,-8.77961],[-40.39566,-8.78173],[-40.39132,-8.78308],[-40.39158,-8.78507],[-40.39335,-8.78656],[-40.39414,-8.78888],[-40.39708,-8.79148],[-40.39723,-8.79197],[-40.39544,-8.79607],[-40.39303,-8.79754],[-40.3927,-8.79835],[-40.39333,-8.80074],[-40.39259,-8.80194],[-40.39349,-8.80228],[-40.39468,-8.80394],[-40.41568,-8.79414],[-40.41949,-8.79314],[-40.42029,-8.79244],[-40.42677,-8.77454],[-40.43109,-8.77378],[-40.43154,-8.77341],[-40.43636,-8.77517],[-40.45791,-8.79464],[-40.46399,-8.79967],[-40.46561,-8.80058],[-40.50746,-8.81478],[-40.51752,-8.81833],[-40.51816,-8.81886],[-40.5191,-8.81836],[-40.52072,-8.81864],[-40.52074,-8.81944],[-40.52274,-8.8201],[-40.52373,-8.81957],[-40.52634,-8.81925],[-40.52981,-8.81932],[-40.53302,-8.82116],[-40.53445,-8.82356],[-40.53669,-8.82573],[-40.53749,-8.82618],[-40.53895,-8.82616],[-40.54042,-8.82832],[-40.54422,-8.83037],[-40.54612,-8.83343],[-40.5481,-8.83347],[-40.54777,-8.83284],[-40.54792,-8.83105],[-40.54913,-8.82819],[-40.55096,-8.82637],[-40.55314,-8.82117],[-40.55406,-8.81739],[-40.55375,-8.81526],[-40.55394,-8.81411],[-40.55506,-8.81392],[-40.55533,-8.8131],[-40.55521,-8.80955],[-40.55819,-8.80992],[-40.56058,-8.80958],[-40.56369,-8.80976],[-40.56725,-8.80868],[-40.57028,-8.80974],[-40.57839,-8.80979],[-40.58267,-8.81243],[-40.58588,-8.81242],[-40.59042,-8.81107],[-40.59647,-8.81104],[-40.60072,-8.81477],[-40.5982,-8.81754],[-40.59832,-8.82062],[-40.5963,-8.82329],[-40.59748,-8.82509],[-40.60048,-8.827],[-40.60123,-8.82784],[-40.6006,-8.82934],[-40.59875,-8.83167],[-40.60024,-8.8369],[-40.59882,-8.83828],[-40.59832,-8.83966],[-40.59923,-8.84186],[-40.60093,-8.84263],[-40.60077,-8.84304],[-40.6011,-8.84337],[-40.60241,-8.84382],[-40.6035,-8.84485],[-40.60424,-8.84509],[-40.60513,-8.84513],[-40.60493,-8.84434],[-40.60522,-8.84313],[-40.6065,-8.84337],[-40.60965,-8.84915],[-40.61059,-8.84981],[-40.6123,-8.84995],[-40.61361,-8.85047],[-40.61468,-8.85117],[-40.61522,-8.85198],[-40.61391,-8.85486],[-40.61412,-8.85592],[-40.61673,-8.85695],[-40.61822,-8.8571],[-40.61907,-8.85774],[-40.61911,-8.85894],[-40.61778,-8.86067],[-40.61521,-8.86203],[-40.61468,-8.86209],[-40.61234,-8.86036],[-40.60913,-8.86108],[-40.60561,-8.86114],[-40.60336,-8.8623],[-40.60313,-8.86453],[-40.60257,-8.86567],[-40.60208,-8.87092],[-40.60133,-8.87268],[-40.59964,-8.87362],[-40.5963,-8.87451],[-40.59647,-8.87642],[-40.59529,-8.88076],[-40.59504,-8.8833],[-40.59393,-8.88673],[-40.59306,-8.88821],[-40.59095,-8.88867],[-40.58732,-8.88745],[-40.58354,-8.88705],[-40.58181,-8.88733],[-40.57993,-8.88839],[-40.58018,-8.8895],[-40.58161,-8.89009],[-40.58178,-8.89299],[-40.58255,-8.89537],[-40.58255,-8.89971],[-40.58215,-8.902],[-40.57861,-8.90385],[-40.57811,-8.90487],[-40.57656,-8.90641],[-40.57561,-8.90833],[-40.57482,-8.91218],[-40.57585,-8.91735],[-40.57562,-8.91978],[-40.57608,-8.92056],[-40.57501,-8.92321],[-40.57486,-8.92608],[-40.57586,-8.9285],[-40.57544,-8.93044],[-40.5746,-8.93065],[-40.57647,-8.93082],[-40.57773,-8.93047],[-40.57867,-8.93101],[-40.58172,-8.92776],[-40.58396,-8.92769],[-40.58555,-8.92827],[-40.58854,-8.92742],[-40.58973,-8.92649],[-40.5905,-8.92778],[-40.59179,-8.92827],[-40.59454,-8.92574],[-40.59654,-8.92874],[-40.59876,-8.92856],[-40.59989,-8.92759],[-40.60003,-8.92431],[-40.60148,-8.9229],[-40.60208,-8.92281],[-40.60469,-8.92369],[-40.60431,-8.92435],[-40.60816,-8.92829],[-40.61055,-8.92855],[-40.6119,-9.0965],[-40.60922,-9.09868],[-40.60751,-9.09939],[-40.60366,-9.10376],[-40.60311,-9.10379],[-40.60298,-9.10502],[-40.60141,-9.10566],[-40.60146,-9.10698],[-40.60013,-9.10793],[-40.60021,-9.10903],[-40.60088,-9.1098],[-40.60086,-9.11032],[-40.59846,-9.11151],[-40.59902,-9.11294],[-40.59676,-9.11608],[-40.59558,-9.11639],[-40.5944,-9.11505],[-40.592,-9.11547],[-40.59125,-9.11507],[-40.58893,-9.11531],[-40.5891,-9.11761],[-40.59243,-9.13303],[-40.58845,-9.15984],[-40.58737,-9.16119],[-40.5877,-9.16148],[-40.58737,-9.16323],[-40.59159,-9.17096],[-40.59353,-9.17374],[-40.59744,-9.17359],[-40.59784,-9.17506],[-40.60221,-9.17407],[-40.60371,-9.17269],[-40.60499,-9.17303],[-40.60911,-9.17258],[-40.6111,-9.17289],[-40.61158,-9.17396],[-40.61408,-9.17041],[-40.61621,-9.1705],[-40.61887,-9.17121],[-40.62192,-9.17016],[-40.62349,-9.17023],[-40.62482,-9.17051],[-40.62664,-9.17288],[-40.62857,-9.17448],[-40.63023,-9.17511],[-40.63188,-9.17475],[-40.63334,-9.1752],[-40.63467,-9.17787]]],[[[-40.28297,-8.91572],[-40.29039,-8.9156],[-40.29289,-8.91864],[-40.29352,-8.91888],[-40.30711,-8.91766],[-40.31221,-8.91957],[-40.31438,-8.91937],[-40.31564,-8.92091],[-40.31666,-8.9213],[-40.3198,-8.924],[-40.32146,-8.92483],[-40.33511,-8.92068],[-40.3365,-8.91913],[-40.3377,-8.91886],[-40.34982,-8.91802],[-40.35203,-8.91935],[-40.35472,-8.93521],[-40.36246,-8.94217],[-40.36567,-8.95809],[-40.36435,-8.9622],[-40.36384,-8.96981],[-40.36524,-8.97383],[-40.37025,-8.97958],[-40.37088,-8.98072],[-40.37079,-8.98304],[-40.36887,-8.98692],[-40.36904,-8.98795],[-40.37044,-8.99018],[-40.36884,-9.00009],[-40.37167,-9.00046],[-40.37287,-9.00018],[-40.37479,-8.99941],[-40.37663,-8.99816],[-40.37903,-8.99739],[-40.38155,-8.99747],[-40.38945,-9.00015],[-40.39294,-9.00039],[-40.39448,-9.00034],[-40.39538,-8.99989],[-40.39651,-9.00003],[-40.40121,-9.00426],[-40.40174,-9.00595],[-40.40305,-9.00717],[-40.40403,-9.00887],[-40.40536,-9.00981],[-40.40716,-9.00952],[-40.41088,-9.00787],[-40.41276,-9.00671],[-40.41482,-9.00448],[-40.4182,-9.00256],[-40.41979,-9.0022],[-40.42327,-9.00369],[-40.42487,-9.00504],[-40.4255,-9.00768],[-40.42772,-9.01067],[-40.43008,-9.01099],[-40.43118,-9.01092],[-40.43269,-9.00984],[-40.43394,-9.00838],[-40.43455,-9.00478],[-40.43794,-9.00381],[-40.44091,-9.0018],[-40.44286,-9.00117],[-40.44478,-9.00175],[-40.44535,-9.0024],[-40.44538,-9.00381],[-40.44365,-9.00757],[-40.44326,-9.00939],[-40.44341,-9.01159],[-40.44389,-9.01186],[-40.44733,-9.01245],[-40.44927,-9.01144],[-40.45094,-9.0094],[-40.45299,-9.00832],[-40.45962,-9.00718],[-40.4615,-9.00996],[-40.46713,-9.01431],[-40.47073,-9.01615],[-40.47326,-9.01548],[-40.47665,-9.01325],[-40.48004,-9.00916],[-40.48069,-9.00789],[-40.48187,-9.00722],[-40.4842,-9.00791],[-40.4863,-9.00941],[-40.48651,-9.01007],[-40.48954,-9.01208],[-40.49193,-9.0124],[-40.4927,-9.01291],[-40.4964,-9.01383],[-40.49836,-9.01339],[-40.50099,-9.01213],[-40.50295,-9.01032],[-40.50369,-9.00851],[-40.50438,-9.00849],[-40.50666,-9.00963],[-40.50917,-9.01247],[-40.51051,-9.01293],[-40.51175,-9.01242],[-40.51257,-9.0116],[-40.51381,-9.00853],[-40.51472,-9.00765],[-40.51629,-9.00701],[-40.52297,-9.00851],[-40.52622,-9.00812],[-40.52891,-9.00722],[-40.53192,-9.00534],[-40.53234,-9.0038],[-40.53035,-8.99513],[-40.53121,-8.99022],[-40.51623,-8.96804],[-40.49658,-8.94735],[-40.46687,-8.91693],[-40.46532,-8.91766],[-40.46473,-8.9176],[-40.46347,-8.91517],[-40.46329,-8.91324],[-40.40458,-8.85327],[-40.38953,-8.8447],[-40.38554,-8.8434],[-40.36768,-8.8225],[-40.36792,-8.82202],[-40.36758,-8.82163],[-40.36871,-8.82056],[-40.36631,-8.81749],[-40.36549,-8.81789],[-40.36447,-8.81692],[-40.36292,-8.81779],[-40.36231,-8.81696],[-40.36148,-8.81772],[-40.36095,-8.81889],[-40.36103,-8.82007],[-40.36312,-8.8224],[-40.36315,-8.82571],[-40.36189,-8.83217],[-40.36306,-8.83387],[-40.36252,-8.83482],[-40.35924,-8.83606],[-40.35939,-8.83864],[-40.36118,-8.84149],[-40.36151,-8.84411],[-40.36236,-8.84534],[-40.36218,-8.8484],[-40.36326,-8.84943],[-40.36344,-8.85101],[-40.36152,-8.85152],[-40.3621,-8.85347],[-40.3611,-8.85405],[-40.35757,-8.85429],[-40.35641,-8.85544],[-40.35497,-8.8557],[-40.35466,-8.85631],[-40.35536,-8.85727],[-40.35479,-8.85807],[-40.3529,-8.85804],[-40.35206,-8.85893],[-40.35129,-8.86096],[-40.3497,-8.86148],[-40.34863,-8.86256],[-40.34501,-8.86288],[-40.34389,-8.86357],[-40.34266,-8.86327],[-40.33949,-8.86357],[-40.33852,-8.86292],[-40.33555,-8.8624],[-40.33205,-8.86283],[-40.32595,-8.86463],[-40.32395,-8.86334],[-40.32163,-8.86089],[-40.31809,-8.86106],[-40.31682,-8.86164],[-40.31459,-8.86165],[-40.31135,-8.86235],[-40.30913,-8.86588],[-40.30521,-8.86935],[-40.30403,-8.86962],[-40.30132,-8.86917],[-40.29837,-8.87067],[-40.29783,-8.87197],[-40.29792,-8.87489],[-40.29739,-8.87765],[-40.29625,-8.87934],[-40.29459,-8.88068],[-40.28998,-8.88284],[-40.28814,-8.88507],[-40.28618,-8.88627],[-40.28534,-8.88735],[-40.28465,-8.89018],[-40.28004,-8.89319],[-40.2731,-8.90137],[-40.27523,-8.9047],[-40.2757,-8.90661],[-40.27571,-8.91021],[-40.27442,-8.91262],[-40.28297,-8.91572]]]]}},{"type":"Feature","properties":{"regiao":"Zona Leste"},"geometry":{"type":"MultiPolygon","coordinates":[[[[-40.4864,-9.39911],[-40.484,-9.39803],[-40.48509,-9.39439],[-40.48614,-9.39561],[-40.4874,-9.39625],[-40.48667,-9.39415],[-40.4896,-9.39369],[-40.4892,-9.39072],[-40.4914,-9.39066],[-40.49141,-9.39112],[-40.49213,-9.39109],[-40.49406,-9.38963],[-40.48919,-9.38978],[-40.48901,-9.38609],[-40.48587,-9.38605],[-40.48628,-9.38525],[-40.48388,-9.38409],[-40.48743,-9.37655],[-40.48403,-9.37422],[-40.48342,-9.37302],[-40.48647,-9.37144],[-40.48539,-9.36931],[-40.48824,-9.36775],[-40.48616,-9.36401],[-40.48622,-9.36352],[-40.48588,-9.36355],[-40.48539,-9.36271],[-40.4827,-9.36416],[-40.48017,-9.35927],[-40.48025,-9.35828],[-40.48212,-9.3569],[-40.48339,-9.35919],[-40.48388,-9.35894],[-40.48342,-9.3582],[-40.48471,-9.35744],[-40.48493,-9.35785],[-40.48585,-9.35734],[-40.4856,-9.35693],[-40.48712,-9.35595],[-40.47517,-9.34964],[-40.45421,-9.30884],[-40.45101,-9.30649],[-40.45023,-9.30873],[-40.44334,-9.31804],[-40.44265,-9.31967],[-40.44269,-9.32791],[-40.44579,-9.32703],[-40.4455,-9.33395],[-40.4387,-9.33047],[-40.43612,-9.32866],[-40.43215,-9.32401],[-40.43073,-9.323],[-40.42819,-9.31963],[-40.42678,-9.32062],[-40.42392,-9.32137],[-40.42586,-9.3241],[-40.40373,-9.3285],[-40.40643,-9.33987],[-40.40936,-9.33961],[-40.41765,-9.34027],[-40.42103,-9.34161],[-40.42089,-9.35257],[-40.42366,-9.35346],[-40.43079,-9.35669],[-40.43369,-9.35917],[-40.4359,-9.36216],[-40.43931,-9.36828],[-40.44764,-9.38734],[-40.45273,-9.39723],[-40.45289,-9.4008],[-40.45382,-9.40352],[-40.45608,-9.40642],[-40.46427,-9.41336],[-40.46616,-9.41796],[-40.46776,-9.42057],[-40.47073,-9.42121],[-40.47417,-9.42079],[-40.47783,-9.4193],[-40.48181,-9.41628],[-40.48392,-9.41397],[-40.48728,-9.41223],[-40.49519,-9.40921],[-40.49446,-9.40541],[-40.49429,-9.40617],[-40.4935,-9.40619],[-40.4931,-9.40574],[-40.49226,-9.40644],[-40.48825,-9.4067],[-40.48458,-9.40799],[-40.48057,-9.40858],[-40.4804,-9.40894],[-40.47929,-9.40928],[-40.47695,-9.40934],[-40.4723,-9.40779],[-40.47622,-9.40055],[-40.47784,-9.40085],[-40.48264,-9.39994],[-40.48586,-9.40099],[-40.4864,-9.39911]]],[[[-40.42028,-9.3501],[-40.41933,-9.34994],[-40.41884,-9.35021],[-40.42028,-9.3501]]]]}},{"type":"Feature","properties":{"regiao":"Zona Norte"},"geometry":{"type":"MultiPolygon","coordinates":[[[[-40.5078,-9.37924],[-40.51105,-9.38068],[-40.51263,-9.37497],[-40.51453,-9.37432],[-40.51627,-9.37429],[-40.51688,-9.37365],[-40.5168,-9.37291],[-40.51758,-9.37147],[-40.51404,-9.36945],[-40.51774,-9.35539],[-40.52172,-9.35928],[-40.52241,-9.35856],[-40.52368,-9.35264],[-40.52278,-9.35266],[-40.52317,-9.35029],[-40.51925,-9.34957],[-40.52134,-9.34186],[-40.52203,-9.34087],[-40.52189,-9.34043],[-40.51269,-9.33797],[-40.51231,-9.33654],[-40.51275,-9.33632],[-40.51123,-9.3329],[-40.51053,-9.33329],[-40.50948,-9.33189],[-40.50802,-9.33161],[-40.50812,-9.32916],[-40.50768,-9.32822],[-40.50387,-9.32936],[-40.50305,-9.331],[-40.50381,-9.33182],[-40.50251,-9.33351],[-40.50298,-9.33378],[-40.50251,-9.33455],[-40.4722,-9.31916],[-40.47426,-9.31066],[-40.47391,-9.31038],[-40.47114,-9.30935],[-40.46689,-9.31234],[-40.46628,-9.31145],[-40.4664,-9.30996],[-40.46461,-9.3113],[-40.46364,-9.31272],[-40.46237,-9.31336],[-40.46157,-9.31322],[-40.46104,-9.316],[-40.45473,-9.30825],[-40.45407,-9.30853],[-40.47517,-9.34964],[-40.48712,-9.35595],[-40.4856,-9.35693],[-40.48585,-9.35734],[-40.48493,-9.35785],[-40.48471,-9.35744],[-40.48342,-9.3582],[-40.4837,-9.35904],[-40.48339,-9.35919],[-40.48212,-9.3569],[-40.4804,-9.35794],[-40.48017,-9.35927],[-40.4827,-9.36416],[-40.48539,-9.36271],[-40.48588,-9.36355],[-40.48622,-9.36352],[-40.48616,-9.36401],[-40.48824,-9.36775],[-40.48539,-9.36931],[-40.48647,-9.37144],[-40.48342,-9.37302],[-40.48403,-9.37422],[-40.48743,-9.37655],[-40.48388,-9.38409],[-40.48628,-9.38525],[-40.48587,-9.38605],[-40.48901,-9.38609],[-40.48919,-9.38978],[-40.49406,-9.38963],[-40.4907,-9.39212],[-40.49036,-9.39414],[-40.48984,-9.39429],[-40.49199,-9.39819],[-40.49455,-9.39814],[-40.49447,-9.39696],[-40.49629,-9.39678],[-40.49631,-9.39573],[-40.49453,-9.39591],[-40.49606,-9.39516],[-40.50259,-9.39029],[-40.50047,-9.38735],[-40.49796,-9.38673],[-40.4971,-9.38728],[-40.49699,-9.38597],[-40.50122,-9.38368],[-40.50091,-9.38123],[-40.50336,-9.38058],[-40.50343,-9.38124],[-40.50569,-9.38099],[-40.50675,-9.38045],[-40.5078,-9.37924]]],[[[-40.52099,-9.36391],[-40.52169,-9.3623],[-40.51982,-9.36063],[-40.51866,-9.36189],[-40.51904,-9.36222],[-40.51821,-9.36317],[-40.51986,-9.36435],[-40.52056,-9.36346],[-40.52099,-9.36391]]],[[[-40.4903,-9.30603],[-40.48913,-9.30224],[-40.48706,-9.30195],[-40.48588,-9.30639],[-40.48605,-9.30728],[-40.48684,-9.30796],[-40.4903,-9.30603]]]]}},{"type":"Feature","properties":{"regiao":"Zona Oeste (externa)"},"geometry":{"type":"Polygon","coordinates":[[[-40.54679,-9.41999],[-40.5473,-9.41987],[-40.54852,-9.41709],[-40.54954,-9.4168],[-40.5504,-9.41689],[-40.55355,-9.42034],[-40.557,-9.42266],[-40.55827,-9.42264],[-40.56126,-9.41976],[-40.56195,-9.41954],[-40.5629,-9.41947],[-40.5643,-9.42027],[-40.56785,-9.42138],[-40.57123,-9.41974],[-40.57289,-9.41836],[-40.57281,-9.41785],[-40.57427,-9.41654],[-40.57561,-9.41614],[-40.57575,-9.4151],[-40.57683,-9.41312],[-40.57856,-9.41223],[-40.58116,-9.41017],[-40.58255,-9.40739],[-40.58376,-9.40334],[-40.58233,-9.39622],[-40.58097,-9.3926],[-40.56492,-9.39251],[-40.55728,-9.38204],[-40.55525,-9.38257],[-40.55485,-9.3799],[-40.55451,-9.37964],[-40.55417,-9.37625],[-40.55348,-9.37587],[-40.55321,-9.37508],[-40.55283,-9.3706],[-40.55078,-9.3583],[-40.54846,-9.35724],[-40.55224,-9.35078],[-40.5465,-9.34821],[-40.54543,-9.35002],[-40.54372,-9.35087],[-40.54201,-9.35008],[-40.54183,-9.35038],[-40.53675,-9.34766],[-40.53715,-9.34676],[-40.53558,-9.34554],[-40.53523,-9.34552],[-40.53473,-9.34662],[-40.53401,-9.34632],[-40.53402,-9.34551],[-40.53209,-9.34423],[-40.52475,-9.34036],[-40.52189,-9.34043],[-40.52203,-9.34087],[-40.52134,-9.34186],[-40.51925,-9.34957],[-40.52317,-9.35029],[-40.52278,-9.35266],[-40.52368,-9.35264],[-40.52241,-9.35856],[-40.52172,-9.35928],[-40.52998,-9.36733],[-40.52951,-9.37192],[-40.53163,-9.37112],[-40.5319,-9.37192],[-40.53395,-9.37238],[-40.5351,-9.37351],[-40.5364,-9.37255],[-40.53578,-9.37193],[-40.53577,-9.37133],[-40.53774,-9.37146],[-40.53782,-9.36977],[-40.53925,-9.36985],[-40.54032,-9.37111],[-40.5377,-9.37558],[-40.53853,-9.37639],[-40.54064,-9.3802],[-40.53938,-9.38074],[-40.53958,-9.38205],[-40.53785,-9.38275],[-40.53822,-9.38356],[-40.54021,-9.38276],[-40.54071,-9.38396],[-40.54214,-9.38403],[-40.54295,-9.38663],[-40.54152,-9.38658],[-40.54153,-9.38766],[-40.541,-9.38762],[-40.54077,-9.39329],[-40.54353,-9.3934],[-40.54317,-9.39597],[-40.54178,-9.40088],[-40.54194,-9.40167],[-40.53799,-9.41121],[-40.53966,-9.41235],[-40.5384,-9.41447],[-40.5413,-9.41777],[-40.5438,-9.4223],[-40.54601,-9.41995],[-40.54676,-9.41966],[-40.54679,-9.41999]]]}},{"type":"Feature","properties":{"regiao":"Zona Oeste (interna)"},"geometry":{"type":"Polygon","coordinates":[[[-40.54153,-9.38766],[-40.54152,-9.38658],[-40.54295,-9.38663],[-40.54214,-9.38403],[-40.54071,-9.38396],[-40.54021,-9.38276],[-40.53822,-9.38356],[-40.53785,-9.38275],[-40.53958,-9.38205],[-40.53938,-9.38074],[-40.54064,-9.3802],[-40.53853,-9.37639],[-40.5377,-9.37558],[-40.54032,-9.37111],[-40.53925,-9.36985],[-40.53782,-9.36977],[-40.53774,-9.37146],[-40.53577,-9.37133],[-40.53578,-9.37193],[-40.5364,-9.37255],[-40.5351,-9.37351],[-40.53395,-9.37238],[-40.5319,-9.37192],[-40.53163,-9.37112],[-40.52951,-9.37192],[-40.52998,-9.36733],[-40.51774,-9.35539],[-40.51404,-9.36945],[-40.51758,-9.37147],[-40.5168,-9.37291],[-40.51688,-9.37365],[-40.51627,-9.37429],[-40.51453,-9.37432],[-40.51263,-9.37497],[-40.50891,-9.38921],[-40.50706,-9.38886],[-40.5053,-9.38907],[-40.5056,-9.39142],[-40.50621,-9.39136],[-40.50776,-9.39216],[-40.50592,-9.39627],[-40.5064,-9.39684],[-40.50796,-9.39507],[-40.50978,-9.39474],[-40.51329,-9.39326],[-40.51403,-9.3937],[-40.51521,-9.3967],[-40.51206,-9.39727],[-40.51111,-9.40729],[-40.51375,-9.40808],[-40.52007,-9.41225],[-40.52412,-9.41343],[-40.52911,-9.4139],[-40.5317,-9.41496],[-40.53822,-9.42058],[-40.54082,-9.42404],[-40.54217,-9.42366],[-40.54379,-9.42222],[-40.5413,-9.41777],[-40.53926,-9.41519],[-40.53843,-9.41468],[-40.53966,-9.41235],[-40.53799,-9.41121],[-40.54194,-9.40167],[-40.54178,-9.40088],[-40.54342,-9.39455],[-40.54353,-9.3934],[-40.54077,-9.39329],[-40.541,-9.38762],[-40.54153,-9.38766]],[[-40.51721,-9.3974],[-40.51704,-9.39634],[-40.51802,-9.39604],[-40.51798,-9.39739],[-40.51721,-9.3974]],[[-40.51986,-9.36435],[-40.51821,-9.36317],[-40.51904,-9.36222],[-40.51866,-9.36189],[-40.51982,-9.36063],[-40.52169,-9.3623],[-40.52099,-9.36391],[-40.52056,-9.36346],[-40.51986,-9.36435]]]}},{"type":"Feature","properties":{"regiao":"Zona rural da sede"},"geometry":{"type":"MultiPolygon","coordinates":[[[[-40.62663,-9.48099],[-40.62159,-9.4784],[-40.61576,-9.47828],[-40.61299,-9.47784],[-40.62064,-9.48139],[-40.62418,-9.48206],[-40.62652,-9.48207],[-40.62693,-9.48171],[-40.62663,-9.48099]]],[[[-40.63058,-9.47909],[-40.62491,-9.47807],[-40.62245,-9.47815],[-40.62456,-9.47945],[-40.62704,-9.4804],[-40.62748,-9.48088],[-40.62652,-9.4807],[-40.62742,-9.48125],[-40.63138,-9.48079],[-40.63107,-9.4801],[-40.63155,-9.48064],[-40.63278,-9.48075],[-40.63483,-9.48051],[-40.63593,-9.48006],[-40.63471,-9.48027],[-40.6325,-9.47943],[-40.63515,-9.48003],[-40.63561,-9.47939],[-40.63472,-9.47874],[-40.6332,-9.47858],[-40.63212,-9.47879],[-40.6322,-9.47906],[-40.63102,-9.47872],[-40.63058,-9.47909]]],[[[-40.6454,-9.47432],[-40.63491,-9.47695],[-40.63152,-9.47722],[-40.63061,-9.47762],[-40.63252,-9.47808],[-40.63595,-9.47801],[-40.63683,-9.47833],[-40.63868,-9.47806],[-40.6378,-9.47862],[-40.63571,-9.47842],[-40.63866,-9.47896],[-40.64003,-9.47852],[-40.64099,-9.47758],[-40.64696,-9.47624],[-40.64769,-9.47547],[-40.6454,-9.47432]]],[[[-40.6481,-9.47362],[-40.64672,-9.4737],[-40.64653,-9.47396],[-40.64762,-9.47455],[-40.64921,-9.47421],[-40.6481,-9.47362]]],[[[-40.6535,-9.47329],[-40.65494,-9.47314],[-40.65542,-9.47284],[-40.65467,-9.47276],[-40.6535,-9.47329]]],[[[-40.65939,-9.46985],[-40.65671,-9.47048],[-40.65879,-9.47067],[-40.65979,-9.47004],[-40.65939,-9.46985]]],[[[-40.60389,-9.46833],[-40.60086,-9.46738],[-40.59738,-9.4655],[-40.59972,-9.46772],[-40.60145,-9.46864],[-40.60299,-9.46916],[-40.60476,-9.46917],[-40.60389,-9.46833]]],[[[-40.67924,-9.46445],[-40.67363,-9.46698],[-40.67357,-9.46745],[-40.67861,-9.46636],[-40.6804,-9.46526],[-40.6809,-9.46453],[-40.68042,-9.46427],[-40.67924,-9.46445]]],[[[-40.69021,-9.45885],[-40.68911,-9.45903],[-40.68703,-9.45969],[-40.69059,-9.45921],[-40.69021,-9.45885]]],[[[-40.5903,-9.45798],[-40.60104,-9.4613],[-40.60936,-9.46416],[-40.61612,-9.46847],[-40.62746,-9.47064],[-40.63044,-9.47171],[-40.63339,-9.47065],[-40.63643,-9.47012],[-40.63893,-9.46859],[-40.64356,-9.46706],[-40.65428,-9.46169],[-40.65779,-9.46224],[-40.65961,-9.46211],[-40.66115,-9.4663],[-40.66628,-9.46508],[-40.67195,-9.46178],[-40.67282,-9.4617],[-40.67506,-9.45989],[-40.68201,-9.45723],[-40.68481,-9.45448],[-40.68857,-9.45152],[-40.6892,-9.45158],[-40.69029,-9.45046],[-40.70233,-9.44648],[-40.70427,-9.44538],[-40.70523,-9.44408],[-40.71165,-9.44113],[-40.713,-9.44006],[-40.71437,-9.43989],[-40.71574,-9.43898],[-40.71945,-9.43757],[-40.72461,-9.43645],[-40.73025,-9.43448],[-40.73129,-9.43428],[-40.73352,-9.43463],[-40.73897,-9.43469],[-40.74114,-9.43436],[-40.74365,-9.43473],[-40.74752,-9.43575],[-40.76076,-9.44097],[-40.76315,-9.4412],[-40.76562,-9.44194],[-40.76063,-9.43224],[-40.7596,-9.42908],[-40.76008,-9.42577],[-40.76479,-9.41595],[-40.76498,-9.41322],[-40.76323,-9.41142],[-40.76079,-9.41055],[-40.7567,-9.41035],[-40.7506,-9.40646],[-40.74743,-9.40587],[-40.74523,-9.40462],[-40.74309,-9.40295],[-40.74267,-9.40071],[-40.74349,-9.39828],[-40.67067,-9.39708],[-40.5818,-9.3949],[-40.58376,-9.40334],[-40.58255,-9.40739],[-40.58116,-9.41017],[-40.57856,-9.41223],[-40.57683,-9.41312],[-40.57575,-9.4151],[-40.57561,-9.41614],[-40.57427,-9.41654],[-40.57281,-9.41785],[-40.57289,-9.41836],[-40.57123,-9.41974],[-40.56785,-9.42138],[-40.5643,-9.42027],[-40.5629,-9.41947],[-40.56195,-9.41954],[-40.56126,-9.41976],[-40.55827,-9.42264],[-40.557,-9.42266],[-40.55355,-9.42034],[-40.5504,-9.41689],[-40.54954,-9.4168],[-40.54852,-9.41709],[-40.5473,-9.41987],[-40.54679,-9.41999],[-40.55072,-9.427],[-40.55514,-9.43691],[-40.55814,-9.44034],[-40.55978,-9.44134],[-40.56393,-9.44281],[-40.56532,-9.43955],[-40.56637,-9.43984],[-40.56736,-9.43747],[-40.57137,-9.43907],[-40.56913,-9.44472],[-40.57301,-9.44803],[-40.57747,-9.45048],[-40.58129,-9.45194],[-40.5903,-9.45798]]],[[[-40.69772,-9.45638],[-40.7011,-9.45523],[-40.70453,-9.4533],[-40.70712,-9.45053],[-40.70872,-9.44957],[-40.7099,-9.44822],[-40.71205,-9.44477],[-40.71194,-9.4442],[-40.70951,-9.44483],[-40.70339,-9.44848],[-40.6964,-9.45041],[-40.6945,-9.45154],[-40.69411,-9.45154],[-40.69422,-9.45128],[-40.69561,-9.45073],[-40.69563,-9.45039],[-40.69377,-9.45086],[-40.69162,-9.45237],[-40.69355,-9.45217],[-40.68889,-9.45391],[-40.68358,-9.45884],[-40.68832,-9.45811],[-40.69438,-9.45661],[-40.69772,-9.45638]]],[[[-40.77462,-9.45282],[-40.76909,-9.45098],[-40.76705,-9.44838],[-40.76581,-9.44771],[-40.75733,-9.4456],[-40.75289,-9.44516],[-40.75805,-9.44881],[-40.76276,-9.45031],[-40.76746,-9.45265],[-40.77675,-9.45445],[-40.77462,-9.45282]]],[[[-40.73131,-9.43643],[-40.72114,-9.43941],[-40.7206,-9.44006],[-40.73739,-9.44089],[-40.73796,-9.43998],[-40.74043,-9.4389],[-40.73717,-9.43677],[-40.73131,-9.43643]]],[[[-40.73668,-9.4361],[-40.74074,-9.43823],[-40.74536,-9.43797],[-40.7456,-9.43773],[-40.74491,-9.43716],[-40.74521,-9.43702],[-40.74651,-9.43762],[-40.74584,-9.43649],[-40.74465,-9.43655],[-40.74213,-9.43594],[-40.73668,-9.4361]]],[[[-40.4669,-9.31234],[-40.47114,-9.30935],[-40.47071,-9.30662],[-40.47219,-9.30252],[-40.47221,-9.29852],[-40.47067,-9.29745],[-40.47318,-9.29854],[-40.48402,-9.30114],[-40.48491,-9.2968],[-40.46342,-9.24484],[-40.46588,-9.24431],[-40.47474,-9.23918],[-40.48527,-9.23819],[-40.48891,-9.23642],[-40.48972,-9.23556],[-40.49633,-9.23179],[-40.50318,-9.2343],[-40.50378,-9.23493],[-40.50386,-9.23563],[-40.51218,-9.23544],[-40.51225,-9.23753],[-40.52519,-9.23796],[-40.52725,-9.23573],[-40.53137,-9.23566],[-40.53418,-9.23342],[-40.53916,-9.2371],[-40.54322,-9.2371],[-40.54588,-9.23516],[-40.5536,-9.23799],[-40.55795,-9.2089],[-40.55739,-9.20885],[-40.55738,-9.20702],[-40.55857,-9.19762],[-40.55941,-9.19784],[-40.5606,-9.19004],[-40.55955,-9.19036],[-40.55874,-9.19178],[-40.55807,-9.19102],[-40.55748,-9.19146],[-40.55681,-9.19062],[-40.56003,-9.18798],[-40.55828,-9.18458],[-40.5602,-9.18313],[-40.55896,-9.18155],[-40.56135,-9.18123],[-40.56143,-9.18],[-40.56186,-9.18003],[-40.56244,-9.17575],[-40.5631,-9.17359],[-40.56306,-9.1731],[-40.55998,-9.1736],[-40.55766,-9.1706],[-40.55223,-9.16851],[-40.55187,-9.16799],[-40.55186,-9.16563],[-40.55157,-9.16516],[-40.55026,-9.16431],[-40.54759,-9.16157],[-40.54676,-9.15946],[-40.54473,-9.15865],[-40.54289,-9.15867],[-40.54291,-9.15665],[-40.5333,-9.15653],[-40.53323,-9.14875],[-40.52906,-9.14901],[-40.52595,-9.1476],[-40.52595,-9.14235],[-40.52491,-9.14228],[-40.51949,-9.12855],[-40.51813,-9.11528],[-40.51682,-9.11065],[-40.51079,-9.11243],[-40.51136,-9.11471],[-40.50943,-9.1153],[-40.50889,-9.11439],[-40.5069,-9.11485],[-40.5062,-9.11271],[-40.50574,-9.11229],[-40.50537,-9.1107],[-40.50755,-9.10984],[-40.49593,-9.07076],[-40.49355,-9.07174],[-40.4929,-9.07252],[-40.49517,-9.07826],[-40.49483,-9.07945],[-40.49312,-9.08129],[-40.49223,-9.08166],[-40.48612,-9.08026],[-40.48044,-9.08481],[-40.48,-9.08569],[-40.47925,-9.09196],[-40.47597,-9.09906],[-40.47309,-9.10096],[-40.47331,-9.10321],[-40.47301,-9.10379],[-40.4713,-9.10468],[-40.4695,-9.1063],[-40.46798,-9.10669],[-40.46638,-9.10803],[-40.46329,-9.10653],[-40.45972,-9.10085],[-40.45771,-9.10042],[-40.45692,-9.10078],[-40.45303,-9.10701],[-40.43909,-9.10844],[-40.43768,-9.10801],[-40.43536,-9.10892],[-40.42909,-9.10877],[-40.42783,-9.10756],[-40.42406,-9.10718],[-40.42314,-9.10599],[-40.42107,-9.09607],[-40.42107,-9.09319],[-40.42027,-9.09043],[-40.41393,-9.08646],[-40.41265,-9.08654],[-40.41181,-9.08719],[-40.40665,-9.09471],[-40.405,-9.09899],[-40.4044,-9.09947],[-40.40195,-9.09969],[-40.40141,-9.09944],[-40.3965,-9.09191],[-40.39605,-9.09165],[-40.39184,-9.09242],[-40.38676,-9.09235],[-40.38423,-9.09368],[-40.377,-9.0946],[-40.37531,-9.097],[-40.37291,-9.11046],[-40.37291,-9.11105],[-40.37406,-9.11208],[-40.37414,-9.11279],[-40.37088,-9.12061],[-40.37028,-9.12138],[-40.36016,-9.12568],[-40.3577,-9.12706],[-40.3546,-9.1293],[-40.35233,-9.13341],[-40.34981,-9.13511],[-40.33964,-9.1179],[-40.33965,-9.11866],[-40.33923,-9.11925],[-40.31681,-9.14937],[-40.30431,-9.15124],[-40.30327,-9.15261],[-40.30329,-9.15565],[-40.2982,-9.1557],[-40.29832,-9.15484],[-40.29788,-9.15423],[-40.29587,-9.14649],[-40.29599,-9.14067],[-40.29408,-9.13339],[-40.29355,-9.1281],[-40.29261,-9.12606],[-40.29213,-9.12163],[-40.29096,-9.11803],[-40.29094,-9.11688],[-40.28979,-9.11349],[-40.28527,-9.10605],[-40.28542,-9.10532],[-40.28475,-9.10414],[-40.28341,-9.09709],[-40.28086,-9.08821],[-40.27852,-9.08242],[-40.27288,-9.07361],[-40.26998,-9.0702],[-40.26427,-9.06529],[-40.26259,-9.06367],[-40.26243,-9.06309],[-40.26004,-9.06108],[-40.26571,-9.05575],[-40.2668,-9.05674],[-40.2697,-9.05372],[-40.27285,-9.04824],[-40.28348,-9.04108],[-40.28507,-9.04105],[-40.28944,-9.03896],[-40.29064,-9.04111],[-40.29334,-9.03957],[-40.27891,-9.01517],[-40.28,-9.01455],[-40.27842,-9.01179],[-40.28016,-9.01078],[-40.28106,-9.01142],[-40.28138,-9.0107],[-40.28044,-9.00988],[-40.28153,-9.00879],[-40.2748,-9.00463],[-40.27221,-9.00189],[-40.27119,-9.00145],[-40.27109,-9.00056],[-40.27015,-8.9987],[-40.26893,-8.99786],[-40.26509,-8.99388],[-40.26364,-8.9917],[-40.26021,-8.9905],[-40.25613,-8.99209],[-40.25108,-8.99513],[-40.24601,-9.00064],[-40.24285,-9.00168],[-40.2383,-9.00885],[-40.23451,-9.01343],[-40.23233,-9.0172],[-40.23098,-9.02311],[-40.2313,-9.02614],[-40.23301,-9.02874],[-40.23283,-9.03092],[-40.23044,-9.03357],[-40.22271,-9.03852],[-40.22106,-9.04284],[-40.21992,-9.04818],[-40.2166,-9.05064],[-40.21325,-9.05399],[-40.20946,-9.05567],[-40.20811,-9.06148],[-40.20883,-9.06378],[-40.21344,-9.06098],[-40.2236,-9.05667],[-40.23157,-9.05472],[-40.23898,-9.05437],[-40.2434,-9.05557],[-40.24786,-9.05774],[-40.25579,-9.06322],[-40.26421,-9.07096],[-40.26995,-9.07785],[-40.27319,-9.08242],[-40.27667,-9.08911],[-40.27885,-9.09454],[-40.28292,-9.10778],[-40.28671,-9.11735],[-40.28927,-9.1304],[-40.29333,-9.14674],[-40.29401,-9.15207],[-40.29375,-9.15524],[-40.29283,-9.15794],[-40.28947,-9.1652],[-40.28732,-9.17108],[-40.28582,-9.18181],[-40.28617,-9.18561],[-40.29022,-9.19596],[-40.29573,-9.21357],[-40.29785,-9.22415],[-40.30051,-9.23121],[-40.30137,-9.23492],[-40.30232,-9.24294],[-40.30221,-9.2517],[-40.30528,-9.25776],[-40.30531,-9.26289],[-40.30779,-9.27132],[-40.30954,-9.27551],[-40.31184,-9.27903],[-40.31425,-9.2824],[-40.31903,-9.28727],[-40.32561,-9.30586],[-40.33253,-9.31757],[-40.33612,-9.32717],[-40.33712,-9.3314],[-40.33734,-9.33507],[-40.33659,-9.34181],[-40.33429,-9.34712],[-40.33375,-9.35054],[-40.33504,-9.3539],[-40.33887,-9.35989],[-40.34871,-9.36866],[-40.3542,-9.37504],[-40.3564,-9.37699],[-40.35903,-9.37813],[-40.3637,-9.37928],[-40.37142,-9.37872],[-40.39128,-9.37217],[-40.40199,-9.36519],[-40.40473,-9.36291],[-40.40984,-9.35568],[-40.41165,-9.35417],[-40.4142,-9.35295],[-40.41815,-9.35205],[-40.42089,-9.35257],[-40.42103,-9.34161],[-40.41765,-9.34027],[-40.40936,-9.33961],[-40.40643,-9.33987],[-40.40373,-9.3285],[-40.40012,-9.32996],[-40.39903,-9.3311],[-40.39593,-9.32527],[-40.39091,-9.31829],[-40.39085,-9.3163],[-40.39016,-9.31464],[-40.38934,-9.31383],[-40.38818,-9.31063],[-40.38501,-9.30824],[-40.36805,-9.29187],[-40.36942,-9.28996],[-40.36842,-9.28862],[-40.36848,-9.28812],[-40.37017,-9.28684],[-40.372,-9.28679],[-40.3724,-9.2853],[-40.3742,-9.28362],[-40.37441,-9.28256],[-40.37264,-9.27636],[-40.3741,-9.27429],[-40.37408,-9.2734],[-40.37328,-9.272],[-40.37251,-9.27169],[-40.37243,-9.27065],[-40.36384,-9.27141],[-40.35871,-9.2732],[-40.34837,-9.27598],[-40.34572,-9.27789],[-40.34242,-9.27194],[-40.33797,-9.27348],[-40.33409,-9.27121],[-40.33318,-9.27109],[-40.33009,-9.2628],[-40.32946,-9.2621],[-40.32705,-9.26089],[-40.32484,-9.25578],[-40.31959,-9.25759],[-40.31924,-9.25508],[-40.31858,-9.25426],[-40.3187,-9.25388],[-40.3179,-9.25221],[-40.31587,-9.24988],[-40.31538,-9.25002],[-40.31136,-9.24427],[-40.31051,-9.24211],[-40.3106,-9.23917],[-40.31013,-9.23698],[-40.30854,-9.23372],[-40.31287,-9.23204],[-40.31314,-9.23096],[-40.31725,-9.23031],[-40.32095,-9.24174],[-40.32301,-9.24585],[-40.32458,-9.24784],[-40.32578,-9.25078],[-40.32743,-9.25015],[-40.32987,-9.25031],[-40.33058,-9.25005],[-40.33179,-9.24902],[-40.33443,-9.24801],[-40.33505,-9.24734],[-40.33709,-9.24684],[-40.3403,-9.24482],[-40.34336,-9.24547],[-40.34923,-9.24326],[-40.3526,-9.24546],[-40.35442,-9.24578],[-40.35695,-9.24474],[-40.35906,-9.2458],[-40.36007,-9.24531],[-40.36301,-9.24511],[-40.36536,-9.2456],[-40.36949,-9.24561],[-40.37106,-9.24608],[-40.37127,-9.24586],[-40.38634,-9.26515],[-40.39257,-9.26033],[-40.39782,-9.25741],[-40.3994,-9.25522],[-40.4001,-9.25574],[-40.40443,-9.25449],[-40.40679,-9.25298],[-40.40854,-9.25314],[-40.41269,-9.24871],[-40.41436,-9.24827],[-40.41644,-9.24825],[-40.42222,-9.24649],[-40.45407,-9.30853],[-40.45473,-9.30825],[-40.46104,-9.316],[-40.46157,-9.31322],[-40.46237,-9.31336],[-40.46364,-9.31272],[-40.46547,-9.31048],[-40.46652,-9.30995],[-40.46628,-9.31145],[-40.46657,-9.31221],[-40.4669,-9.31234]],[[-40.46249,-9.28155],[-40.46563,-9.28252],[-40.46823,-9.2864],[-40.4678,-9.2878],[-40.46721,-9.28827],[-40.46673,-9.29008],[-40.46581,-9.29087],[-40.46559,-9.29022],[-40.46483,-9.29019],[-40.46469,-9.28932],[-40.46052,-9.28928],[-40.46003,-9.28625],[-40.46042,-9.28329],[-40.45994,-9.28328],[-40.46113,-9.28183],[-40.46066,-9.28147],[-40.45973,-9.28176],[-40.45826,-9.28162],[-40.4556,-9.28215],[-40.45513,-9.28255],[-40.45441,-9.27995],[-40.45797,-9.28008],[-40.45776,-9.27689],[-40.45913,-9.27629],[-40.45951,-9.27534],[-40.46047,-9.27502],[-40.46317,-9.27544],[-40.46299,-9.27701],[-40.46221,-9.27756],[-40.4622,-9.28066],[-40.46249,-9.28155]],[[-40.41891,-9.35033],[-40.41933,-9.34994],[-40.42024,-9.34987],[-40.42011,-9.35024],[-40.41891,-9.35033]]],[[[-40.53272,-8.99305],[-40.53283,-8.99853],[-40.53452,-9.00612],[-40.54638,-9.0299],[-40.54861,-9.0437],[-40.55052,-9.04755],[-40.55311,-9.04887],[-40.55377,-9.04985],[-40.5539,-9.0554],[-40.55503,-9.05896],[-40.55734,-9.06134],[-40.55837,-9.06191],[-40.55979,-9.06495],[-40.5643,-9.0688],[-40.56595,-9.07177],[-40.56616,-9.07361],[-40.56555,-9.07588],[-40.56542,-9.07954],[-40.56485,-9.08011],[-40.56479,-9.08237],[-40.56566,-9.08349],[-40.56772,-9.08388],[-40.56856,-9.08447],[-40.56946,-9.08712],[-40.57046,-9.08846],[-40.57394,-9.09042],[-40.57354,-9.09099],[-40.57411,-9.09228],[-40.57849,-9.09298],[-40.57806,-9.09456],[-40.57555,-9.09566],[-40.57527,-9.09679],[-40.57543,-9.09807],[-40.57711,-9.10068],[-40.57681,-9.10286],[-40.57798,-9.10768],[-40.57969,-9.10839],[-40.58059,-9.1116],[-40.58172,-9.11225],[-40.58483,-9.11241],[-40.58863,-9.11526],[-40.59125,-9.11507],[-40.592,-9.11547],[-40.5944,-9.11505],[-40.59558,-9.11639],[-40.59651,-9.11623],[-40.59902,-9.11294],[-40.59846,-9.11151],[-40.60086,-9.11032],[-40.60088,-9.1098],[-40.60021,-9.10903],[-40.60013,-9.10793],[-40.60146,-9.10698],[-40.60141,-9.10566],[-40.60298,-9.10502],[-40.60311,-9.10379],[-40.60366,-9.10376],[-40.60751,-9.09939],[-40.60922,-9.09868],[-40.6119,-9.0965],[-40.61055,-8.92855],[-40.60816,-8.92829],[-40.60431,-8.92435],[-40.60469,-8.92369],[-40.60208,-8.92281],[-40.60148,-8.9229],[-40.60003,-8.92431],[-40.59989,-8.92759],[-40.59876,-8.92856],[-40.59654,-8.92874],[-40.59454,-8.92574],[-40.59179,-8.92827],[-40.5905,-8.92778],[-40.58973,-8.92649],[-40.58854,-8.92742],[-40.58555,-8.92827],[-40.58396,-8.92769],[-40.58172,-8.92776],[-40.57867,-8.93101],[-40.57773,-8.93047],[-40.57647,-8.93082],[-40.5746,-8.93065],[-40.57544,-8.93044],[-40.57576,-8.92967],[-40.57586,-8.9285],[-40.57486,-8.92608],[-40.57501,-8.92321],[-40.57608,-8.92056],[-40.57562,-8.91978],[-40.57585,-8.91735],[-40.57482,-8.91218],[-40.57561,-8.90833],[-40.57656,-8.90641],[-40.57907,-8.90346],[-40.58215,-8.902],[-40.58255,-8.89971],[-40.58255,-8.89537],[-40.58178,-8.89299],[-40.58161,-8.89009],[-40.58018,-8.8895],[-40.57993,-8.88839],[-40.58181,-8.88733],[-40.58354,-8.88705],[-40.58732,-8.88745],[-40.59095,-8.88867],[-40.59306,-8.88821],[-40.59393,-8.88673],[-40.59504,-8.8833],[-40.59529,-8.88076],[-40.59647,-8.87642],[-40.5963,-8.87451],[-40.59964,-8.87362],[-40.60133,-8.87268],[-40.60208,-8.87092],[-40.60257,-8.86567],[-40.60313,-8.86453],[-40.60336,-8.8623],[-40.60561,-8.86114],[-40.60913,-8.86108],[-40.61234,-8.86036],[-40.61468,-8.86209],[-40.61521,-8.86203],[-40.61735,-8.86105],[-40.61911,-8.85894],[-40.61907,-8.85774],[-40.61822,-8.8571],[-40.61673,-8.85695],[-40.61412,-8.85592],[-40.61391,-8.85486],[-40.61522,-8.85198],[-40.61468,-8.85117],[-40.61361,-8.85047],[-40.6123,-8.84995],[-40.61059,-8.84981],[-40.60965,-8.84915],[-40.60673,-8.84357],[-40.60522,-8.84313],[-40.60493,-8.84434],[-40.60513,-8.84513],[-40.60366,-8.84494],[-40.60241,-8.84382],[-40.6011,-8.84337],[-40.60077,-8.84304],[-40.60093,-8.84263],[-40.59923,-8.84186],[-40.59835,-8.84003],[-40.59882,-8.83828],[-40.60024,-8.8369],[-40.59875,-8.83167],[-40.6006,-8.82934],[-40.60123,-8.82784],[-40.60048,-8.827],[-40.59748,-8.82509],[-40.5963,-8.82329],[-40.59832,-8.82062],[-40.5982,-8.81754],[-40.60072,-8.81477],[-40.59647,-8.81104],[-40.59042,-8.81107],[-40.58588,-8.81242],[-40.58267,-8.81243],[-40.57839,-8.80979],[-40.57028,-8.80974],[-40.56725,-8.80868],[-40.56369,-8.80976],[-40.56058,-8.80958],[-40.55819,-8.80992],[-40.55521,-8.80955],[-40.55533,-8.8131],[-40.55506,-8.81392],[-40.55394,-8.81411],[-40.55375,-8.81526],[-40.55406,-8.81739],[-40.55314,-8.82117],[-40.55096,-8.82637],[-40.54913,-8.82819],[-40.54792,-8.83105],[-40.54777,-8.83284],[-40.5481,-8.83347],[-40.54612,-8.83343],[-40.54422,-8.83037],[-40.54042,-8.82832],[-40.53895,-8.82616],[-40.53749,-8.82618],[-40.53669,-8.82573],[-40.53445,-8.82356],[-40.53302,-8.82116],[-40.52981,-8.81932],[-40.52634,-8.81925],[-40.52373,-8.81957],[-40.52274,-8.8201],[-40.52074,-8.81944],[-40.52072,-8.81864],[-40.5191,-8.81836],[-40.51816,-8.81886],[-40.51752,-8.81833],[-40.50746,-8.81478],[-40.46561,-8.80058],[-40.46399,-8.79967],[-40.45791,-8.79464],[-40.43636,-8.77517],[-40.43154,-8.77341],[-40.43109,-8.77378],[-40.42677,-8.77454],[-40.42029,-8.79244],[-40.41949,-8.79314],[-40.41568,-8.79414],[-40.39468,-8.80394],[-40.39349,-8.80228],[-40.39259,-8.80194],[-40.39165,-8.8029],[-40.38906,-8.80443],[-40.38779,-8.80445],[-40.38639,-8.80636],[-40.38291,-8.80865],[-40.38184,-8.81007],[-40.38131,-8.80992],[-40.38138,-8.80908],[-40.38037,-8.80806],[-40.38009,-8.80707],[-40.37671,-8.8118],[-40.37594,-8.81195],[-40.37432,-8.81048],[-40.37249,-8.81233],[-40.37144,-8.81259],[-40.36997,-8.81211],[-40.3687,-8.81236],[-40.36722,-8.81455],[-40.36646,-8.81493],[-40.36456,-8.81419],[-40.36377,-8.81457],[-40.36377,-8.81587],[-40.36231,-8.81696],[-40.36292,-8.81779],[-40.36447,-8.81692],[-40.36549,-8.81789],[-40.36631,-8.81749],[-40.36871,-8.82056],[-40.36758,-8.82163],[-40.36792,-8.82202],[-40.36768,-8.8225],[-40.38554,-8.8434],[-40.38953,-8.8447],[-40.40458,-8.85327],[-40.46329,-8.91324],[-40.46347,-8.91517],[-40.46473,-8.9176],[-40.46532,-8.91766],[-40.46687,-8.91693],[-40.51185,-8.96321],[-40.51623,-8.96804],[-40.52406,-8.9793],[-40.53121,-8.99022],[-40.53272,-8.99305]]],[[[-40.31221,-8.91957],[-40.30711,-8.91766],[-40.29352,-8.91888],[-40.29289,-8.91864],[-40.29039,-8.9156],[-40.28297,-8.91572],[-40.27442,-8.91262],[-40.27331,-8.9147],[-40.27292,-8.91701],[-40.27464,-8.92137],[-40.27492,-8.9247],[-40.27246,-8.92624],[-40.27146,-8.92801],[-40.27201,-8.92938],[-40.2739,-8.93087],[-40.27952,-8.933],[-40.28145,-8.93307],[-40.28458,-8.93432],[-40.28597,-8.93662],[-40.29003,-8.94039],[-40.29249,-8.94046],[-40.29634,-8.93876],[-40.29742,-8.93891],[-40.29808,-8.94002],[-40.29863,-8.94477],[-40.30025,-8.9463],[-40.30147,-8.94976],[-40.30323,-8.9512],[-40.30499,-8.95438],[-40.3036,-8.95754],[-40.30331,-8.95969],[-40.30243,-8.96051],[-40.30068,-8.96096],[-40.29713,-8.96432],[-40.29634,-8.96657],[-40.29368,-8.97129],[-40.29348,-8.97299],[-40.29389,-8.97549],[-40.29827,-8.98058],[-40.29917,-8.98682],[-40.29717,-8.98887],[-40.29662,-8.99002],[-40.2966,-8.99224],[-40.29742,-8.99473],[-40.29668,-8.99495],[-40.30173,-8.99501],[-40.30449,-8.99559],[-40.30798,-8.9979],[-40.31183,-9.00316],[-40.31251,-9.00379],[-40.31459,-9.00452],[-40.31677,-9.00633],[-40.31787,-9.01032],[-40.32127,-9.01271],[-40.32487,-9.01618],[-40.32565,-9.01631],[-40.32799,-9.01586],[-40.33084,-9.01432],[-40.33157,-9.01347],[-40.33325,-9.00885],[-40.33517,-9.00665],[-40.33624,-9.00596],[-40.33678,-9.00374],[-40.34008,-9.00198],[-40.34281,-9.00114],[-40.35223,-9.00273],[-40.35796,-9.00202],[-40.36333,-9.00016],[-40.36884,-9.00009],[-40.37044,-8.99018],[-40.36904,-8.98795],[-40.36887,-8.98692],[-40.37079,-8.98304],[-40.37088,-8.98072],[-40.37025,-8.97958],[-40.36524,-8.97383],[-40.36384,-8.96981],[-40.36435,-8.9622],[-40.36567,-8.95809],[-40.36246,-8.94217],[-40.35472,-8.93521],[-40.35203,-8.91935],[-40.34982,-8.91802],[-40.3377,-8.91886],[-40.3365,-8.91913],[-40.33511,-8.92068],[-40.32146,-8.92483],[-40.3198,-8.924],[-40.31666,-8.9213],[-40.31564,-8.92091],[-40.31438,-8.91937],[-40.31221,-8.91957]]]]}}]}